County,Market Name,Location,Address Line 1,City,State,Zip,Contact,Phone,Market Link,Operation Hours,Operation Season,FMNP,Operating Months,Latitude,Longitude,EBT/SNAP,Location Points
Albany,Altamont Farmers' Market,"Altamont Free Library, 181 Main St.",181 Main Street,Altamont,NY,12009,Kelly Best,5188618554,,"Mon-Fri  11am-6pm, Sat/Sun  10am-2pm",July 1-September 1,Y,M,42.70149,-74.03254,Y,"Altamont, NY 12009
(42.70149, -74.03254)"
Albany,Altamont Orchards Farmstand,"6654 Dunnsville Road, Altamont",6654 Dunnsville Road,Altamont,NY,12009,Jim Abbruzzese,5188616515,http://www.altamontorchards.com,"Daily  9:30am-5pm, Closed all of August",May 1-December 24,Y,P/M/X,42.720708,-74.01624,N,"Altamont, NY 12009
(42.720708, -74.01624)"
Albany,Boys and Girls Club Farmers' Market,"21 Delaware Ave., Albany",21 Delaware Ave.,Albany,NY,12208,Sarah Holbrook,8452498507,http://www.stewardshipfarms.com,Thursday  3pm-5pm,July 16-October 8,Y,M,42.651673,-73.768378,Y,"Albany, NY 12208
(42.651673, -73.768378)"
Albany,CDPHP Farmers' Market,"CDPHP prkg lot, off Washington Ave., 500 Patroon Creek Blvd., Albany",500 Patroon Creek Bvld.,Albany,NY,12206,Randy Tryon,5186415611,http://www.cdphp.com,Thursday  11am-1:30pm,May 28-October 8,Y,P/M,42.68485,-73.80513,N,"Albany, NY 12206
(42.68485, -73.80513)"
Albany,Colonie Crossings Farmers' Market,"580 Albany Shaker Rd., Loudonville",580 Albany Shaker Rd,Colonie,NY,12211,Laura Archambault,5184562136,http://www.colonie.org,Saturday  9am-1pm,May 16-September 12,Y,P/M,42.71016,-73.78029,N,"Colonie, NY 12211
(42.71016, -73.78029)"
Albany,Delaware Neighborhood Comm. Market,"Delaware Branch Library, 331 Delaware Ave., Albany",331 Delaware Ave,Albany,NY,12209,Louise McNeilly,5184320516,,"Jun-Oct: Tues 4p-7p, Oct-Nov: Tues 3p-6p",June 23-November 17,Y,M,42.64305,-73.77824,Y,"Albany, NY 12209
(42.64305, -73.77824)"
Albany,Delmar Farmers' Market,"Bethlehem Central Middle School, 332 Kenwood Avenue",332 Kenwood Avenue,Delmar,NY,12054,Paul Tick,5182104727,http://www.delmarmarket.org,Saturday  9am-1pm,May 30-December 19,Y,P/M/X,42.61953,-73.82515,N,"Delmar, NY 12054
(42.61953, -73.82515)"
Albany,Delmar Tuesday Farmers' Market,"First United Methodist Church Lot, 428 Kenwood Ave.",428 Kenwood Ave,Delmar,NY,12054,Frank Stanton,5187568228,,Tuesday  2:30pm-6pm,May 5-November 24,Y,P/M,42.62265,-73.83631,Y,"Delmar, NY 12054
(42.62265, -73.83631)"
Albany,Downtown Albany Farmers' Market,"SUNY Plaza, 353 Broadway",SUNY Administration Plaza Park,Albany,NY,12207,Frank Stanton,5187568228,http://www.suny.edu/suny-news/press-releases/june-2014/6-12-14-farmers-market/year-round-farmers-market-comes-to-suny-plaza.html,"Thursday  10am-2pm ,  (11am-2pm in Winter)",Year-round,Y,YR,42.64807,-73.75018,Y,"Albany, NY 12207
(42.64807, -73.75018)"
Albany,Empire State Plaza Friday Farmers' Market,Empire State Plaza,Empire State Plaza,Albany,NY,12210,Jason Rumpf,5184732982,http://www.ogs.ny.gov,Friday  10am-2pm,May 6-October 9,Y,M,42.64994,-73.76089,Y,"Albany, NY 12210
(42.64994, -73.76089)"
Albany,Empire State Plaza Wed Farmers' Market,Empire State Plaza,Empire State Plaza,Albany,NY,12210,Jason Rumpf,5184732982,http://www.ogs.ny.gov,Wednesday  10am-2pm,Year-round,Y,YR,42.64994,-73.76089,Y,"Albany, NY 12210
(42.64994, -73.76089)"
Albany,Farm to Preschool III Farmers' Market,"Cohoes Community Center, 22-40 Remsen St.",22-40 Remsen Street,Cohoes,NY,12047,Darlene Yule,5184267181,http://www.cdcccc.org,Mon  2:30pm-5:30pm,June 15 - September 14,Y,M,42.7756,-73.70149,Y,"Cohoes, NY 12047
(42.7756, -73.70149)"
Albany,Harriman State Campus Farmers' Market,"Harriman State Office Campus, behind Bldg. 8A, Albany",8A Harriman Campus Road,Albany,NY,12203,Jason Rumpf,5184732982,http://www.ogs.ny.gov/esp/CCE/FarmersMarket.asp,Thursday  10am-2pm,May 7-October 8,Y,P/M,42.678038,-73.809942,N,"Albany, NY 12203
(42.678038, -73.809942)"
Albany,New Covenant Farmers' Market,"New Covenant Presbyterian Church, 916 Western Ave.",916 Western Ave,Albany,NY,12203,Katy Stenta,5184828063,,Tuesday  3pm-6pm,May 19-October 6,Y,P/M,42.67228,-73.81026,N,"Albany, NY 12203
(42.67228, -73.81026)"
Albany,South End Farmers' Market,"Lincoln Park,, Eagle Street & Morton Ave, Albany",Eagle St & Morton Ave,Albany,NY,12202,Willie White,5184519849,,Saturday  12pm-5pm,July 7-Sept 30,N,M,42.643109,-73.762466,Y,"Albany, NY 12202
(42.643109, -73.762466)"
Albany,Sprout - Thursday,"Edward A. Kane Apartments, 115  2nd Ave., Troy",115 2nd Ave,Troy,NY,12180,Will Malcolm,5182748685,http://www.capitalroots.org,Thu 10:45am-11:45am,Year-round,Y,YR,42.7571,-73.682728,Y,"Troy, NY 12180
(42.7571, -73.682728)"
Albany,Veggie Mobile - Friday,"South Mall Towers, 101 S. Pearl St., Albany",101 South Pearl Street,Albany,NY,12207,Will Malcolm,5182748685,http://www.capitalroots.org,Fri  11am-12:15pm,Year-round,Y,YR,42.6465,-73.75482,Y,"Albany, NY 12207
(42.6465, -73.75482)"
Albany,Veggie Mobile - Saturday,"Steamboat Square Apartments, 20 Rensselaer St., Albany",20 Rensselaer Street,Albany,NY,12202,Will Malcolm,5182748685,http://www.capitalroots.org,Sat 1:15pm-2pm,Year-round,Y,YR,42.64093,-73.75363,Y,"Albany, NY 12202
(42.64093, -73.75363)"
Albany,Veggie Mobile - Saturday,"Arbor Hill/West Hills, Henry Johnson Blvd & 2nd St., Albany",Henry Johnson Boulevard and 2nd Street,Albany,NY,12210,Will Malcolm,5182748685,http://www.capitalroots.org,Sat 12:15pm-1pm,Year-round,Y,YR,42.66226,-73.76013,Y,"Albany, NY 12210
(42.66226, -73.76013)"
Albany,Veggie Mobile - Thursday,"St. Sophia's Church, 440 Whitehall Rd., Albany",440 Whitehall Road,Albany,NY,12208,Will Malcolm,5182748685,http://www.capitalroots.org,Thu 12:30pm-1:30pm,Year-round,Y,YR,42.65197,-73.81477,Y,"Albany, NY 12208
(42.65197, -73.81477)"
Albany,Veggie Mobile - Tuesday,"Howe Library, Schuyler & Broad St., Albany",Schuyler St and Broad Street,Albany,NY,12202,Will Malcolm,5182748685,http://www.capitalroots.org,Tue 3pm-3:45pm,Year-round,Y,YR,42.64112,-73.75802,Y,"Albany, NY 12202
(42.64112, -73.75802)"
Albany,Veggie Mobile - Tuesday,"Ida Yarbrough, 270 N. Pearl Street, Albany",270 North Pearl Street,Albany,NY,12207,Will Malcolm,5182748685,http://www.capitalroots.org,Tue 12:15pm-1pm,Year-round,Y,YR,42.65916,-73.74875,Y,"Albany, NY 12207
(42.65916, -73.74875)"
Albany,Veggie Mobile - Tuesday,"Koinonia Primary Care, 533 Clinton Ave. (at N. Lake), Albany",533 Clinton Avenue,Albany,NY,12206,Will Malcolm,5182748685,http://www.capitalroots.org,Tue 2pm-2:45pm,Year-round,Y,YR,42.66508,-73.76804,Y,"Albany, NY 12206
(42.66508, -73.76804)"
Albany,Veggie Mobile - Tuesday,"Whitney Young Health Ctr, 920 Lark Drive, Albany",920 Lark Drive,Albany,NY,12210,Will Malcolm,5182748685,http://www.capitalroots.org,Tue 11am-12pm,Year-round,Y,YR,42.66215,-73.74859,Y,"Albany, NY 12210
(42.66215, -73.74859)"
Albany,Veggie Mobile - Wednesday,"Cohoes Senior Center, 100 Cayuga Plaza, Cohoes",100 Cayuga Plaza,Cohoes,NY,12047,Will Malcolm,5182748685,http://www.capitalroots.org,Wed 3pm-4pm,Year-round,Y,YR,42.77712,-73.70101,Y,"Cohoes, NY 12047
(42.77712, -73.70101)"
Albany,Veggie Mobile - Wednesday,"North Albany YMCA, 616 N. Pearl St., Albany",616 North Pearl Street,Albany,NY,12204,Will Malcolm,5182748685,http://www.capitalroots.org,Wed 4:45pm-5:45pm,Year-round,Y,YR,42.67368,-73.73953,Y,"Albany, NY 12204
(42.67368, -73.73953)"
Albany,Veggie Mobile - Wednesday,"Thurlow Terrace, 2 Thurlow Terrace, Albany",2 Thurlow Terrace,Albany,NY,12203,Will Malcolm,5182748685,http://www.capitalroots.org,Wed 12pm-1pm,Year-round,Y,YR,42.66032,-73.77248,Y,"Albany, NY 12203
(42.66032, -73.77248)"
Albany,Voorheesville Farmers Market,"First United Methodist lot, 68 Maple Ave.",68 Maple Ave,Voorheesville,NY,12186,Dianne Luci,5187654536,,Wed  3:30pm-6:30pm,June 17-September 30,Y,M,42.64892,-73.92991,N,"Voorheesville, NY 12186
(42.64892, -73.92991)"
Allegany,Alfred Farmers' Market,"Village Bandstand, Main St.",Main Street and Saxon Drive,Alfred,NY,14802,Holly Harris,6073820885,http://www.alfredfarmersmarket.com,Sunday  11am-3pm,July 12-October 25,Y,M,42.25396,-77.7904,Y,"Alfred, NY 14802
(42.25396, -77.7904)"
Allegany,Angelica Farmers' Market,Park Circle,28 Park Circle,Angelica,NY,14709,Bob Jones,5854667422,,Saturday  9am-1pm,June 13-October 3,Y,M,42.30553,-78.01631,Y,"Angelica, NY 14709
(42.30553, -78.01631)"
Allegany,Belmont Farmers' Market,"Grange Hall Lawn, 32 Willets Ave, Rt 19",32 Willets Ave,Belmont,NY,14813,Phyllis Couture,7169423710,,Thursday  11am-5pm,May 21-October 29,Y,P/M,42.22613,-78.03994,Y,"Belmont, NY 14813
(42.22613, -78.03994)"
Allegany,On the River Farmstand,"7579 Route 19, Belfast",7579 Route 19,Belfast,NY,14711,Stephen Demarte,7165605594,,"Fri/Sat  3pm-7pm, Sunday  3pm-5pm",May 16-November 28,Y,P/M,42.32684,-78.10936,Y,"Belfast, NY 14711
(42.32684, -78.10936)"
Bronx,Bissel Gardens Farmers' Market,Baychester Ave. & E 241 St.,Baychester Ave and East 241st St,Bronx,NY,10470,Heather Warren-Dombrowa,3474272547,http://www.bisselgardens.org,"Saturday  9am-6pm, Wednesday  9am-5pm",July 8-November 21,Y,M,40.90151,-73.84702,Y,"Bronx, NY 10470
(40.90151, -73.84702)"
Bronx,Bronx Borough Hall Greenmarket,"Grand Concourse, btwn 161st & 163rd Sts.",901 Grand Concourse,Bronx,NY,10452,Chelsea Whittaker,2127887476,http://www.grownyc.org/greenmarket,Tuesday  8am-4pm,June 2-November 24,Y,M,40.82715,-73.92276,Y,"Bronx, NY 10452
(40.82715, -73.92276)"
Bronx,Harvest Home Bronx Museum Farmers' Market,"Grand Concourse & E. 165th St., at Bronx Museum of the Arts",Grand Concourse and East 165st St,Bronx,NY,10456,Maritza Owens,2128283361,http://www.harvesthomefm.org,Sunday  8am-4pm,July 12-November 22,N,M,40.83102,-73.90953,Y,"Bronx, NY 10456
(40.83102, -73.90953)"
Bronx,Harvest Home Co-op City Farmers' Market,Ash Loop & Aldrich St.,Ash Loop & Aldrich St.,Bronx,NY,10475,Maritza Owens,2128283361,http://www.harvesthomefm.org,Wednesday  8am-4pm,July 8-November 25,Y,M,40.87025,-73.83097,Y,"Bronx, NY 10475
(40.87025, -73.83097)"
Bronx,Harvest Home Hunts Point Farmers' Market,"Monsignor Del Valle Square, btwn Southern & Bruckner Blvds.",Monsignor Del Valle Square,Bronx,NY,10474,Maritza Owens,2128283361,http://www.harvesthomefm.org,Wednesday  8am-4pm,June 17-November 25,Y,M,40.82073,-73.89088,Y,"Bronx, NY 10474
(40.82073, -73.89088)"
Bronx,Harvest Home Jacobi  Hospital Farmers' Market,1400 Pelham Parkway,1400 Pelham Pkwy,Bronx,NY,10461,Maritza Owens,2128283361,http://www.harvesthomefm.org,Tue/Fri  8am-4pm,May 8-November 24,Y,P/M,40.85431,-73.8467,N,"Bronx, NY 10461
(40.85431, -73.8467)"
Bronx,Harvest Home Mt. Eden Farmers' Market,"Claremont Park, Mt. Eden & Morris Aves.",Mt Eden Pkwy and Morris Ave,Bronx,NY,10457,Maritza Owens,2128283361,http://www.harvesthomefm.org,Tue/Thu  8am-4pm,May 26-November 24,Y,P/M,40.84305,-73.90947,Y,"Bronx, NY 10457
(40.84305, -73.90947)"
Bronx,Harvest Home N. Central Bronx Farmers' Market,Mosholu Parkway North & Jerome Ave.,Jerome Ave and East Mosholu Pkwy North,Bronx,NY,10467,Maritza Owens,2128283361,http://www.harvesthomefm.org,Wednesday  8am-4pm,July 8-November 25,Y,M,40.88046,-73.88385,Y,"Bronx, NY 10467
(40.88046, -73.88385)"
Bronx,Harvest Home Soundview Farmers' Market,"Morrison Ave., btwn Westchester Ave. & Harrod Pl.",Morrison Ave and Harrod Place,Bronx,NY,10472,Maritza Owens,2128283361,http://www.harvesthomefm.org,Saturday  8am-4pm,June 13-November 21,Y,M,40.82905,-73.87443,Y,"Bronx, NY 10472
(40.82905, -73.87443)"
Bronx,Harvest Home St. Marys Park Farmers' Market,"149th St., btwn St. Ann & Jackson Aves.",St Mary's Park,Bronx,NY,10455,Maritza Owens,2128283361,http://www.harvesthomefm.org,Thursday  8am-4pm,July 9-November 19,Y,M,40.81099,-73.91173,Y,"Bronx, NY 10455
(40.81099, -73.91173)"
Bronx,La Familia Verde Farmers' Market,"Tremont Park, on Tremont Ave.,, btwn LaFontaine & Arthur Aves.",East Tremont Ave and Arthur Ave,Bronx,NY,10457,Heidi Hynes,7185831765,http://www.lafamiliaverde.org,Tuesday  8am-3pm,July 7-November 10,Y,M,40.84643,-73.89334,Y,"Bronx, NY 10457
(40.84643, -73.89334)"
Bronx,"Learn it, Grow it, Eat it Youthmarket","169th St. & Boston Rd., at McKinley Square",E. 169th St. and Boston Rd.,Bronx,NY,10456,Kori Petrovic,2127887476,http://www.grownyc.org/youthmarket,Wednesday  10am-3pm,July 8-November 25,Y,M,40.83121,-73.90022,Y,"Bronx, NY 10456
(40.83121, -73.90022)"
Bronx,Lincoln Hospital Greenmarket,"149th St between Park and Morris Aves, Bronx",East 149th St and Morris Ave,Bronx,NY,10451,Chelsea Whittaker,2127887476,http://www.grownyc.org/greenmarket,Friday  8am-3pm,June 26-November 20,Y,M,40.81739,-73.92274,Y,"Bronx, NY 10451
(40.81739, -73.92274)"
Bronx,Marble Hill Youthmarket,225th St. btwn Broadway & Exterior St.,W. 225th and Broadway & Exterior,Bronx,NY,10463,Kori Petrovic,2127887476,http://www.grownyc.org/youthmarket,Thursday  1pm-6pm,July 9-November 19,Y,M,40.8746,-73.90961,Y,"Bronx, NY 10463
(40.8746, -73.90961)"
Bronx,Mott Haven Farmers' Market,"Padre Plaza Community Garden, 139th St. & St. Ann's Ave.",E. 139th & 283 St. Saint Anns Ave,Bronx,NY,10454,Sheila Young,7189241143,,Tuesday  10am-4pm,July 7-November 3,Y,M,40.80782,-73.91697,Y,"Bronx, NY 10454
(40.80782, -73.91697)"
Bronx,New York Botanical Garden Greenmarket,"Mosholu Gate on Southern Blvd., Mosholu Pkwy & Bedford Park Blvd.",2855 Southern Blvd,Bronx,NY,10458,Chelsea Whittaker,2127887476,http://www.grownyc.org/greenmarket,Wednesday  9am-3pm,June 17-November 25,Y,M,40.866408,-73.882303,Y,"Bronx, NY 10458
(40.866408, -73.882303)"
Bronx,Norwood Youthmarket,E Gun Hill Rd. & Dekalb Ave.,Dekalb Ave. & East Gun Hill Rd.,Bronx,NY,10467,Kori Petrovic,2127887476,http://www.grownyc/greenmarket,Thursday  12pm-7pm,July 9-November 19,Y,M,40.88223,-73.88048,Y,"Bronx, NY 10467
(40.88223, -73.88048)"
Bronx,Parkchester Greenmarket,"Virginia Park, Westchester Ave. & White Plains Rd.",Westchester Ave and White Plains Rd,Bronx,NY,10472,Chelsea Whittaker,2127887476,http://www.grownyc.org/greenmarket,Friday  8am-4pm,June 12-November 20,Y,M,40.83301,-73.86277,Y,"Bronx, NY 10472
(40.83301, -73.86277)"
Bronx,Poe Park Greenmarket,"E 192nd St. & Grand Concourse,, btwn Grand Concourse & Valentine Ave.",Grand Concourse and Valentine E.192nd St,Bronx,NY,10458,Chelsea Whittaker,2127887476,http://www.grownyc.org/greenmarket,Tuesday  8am-3pm,June 30-November 24,Y,M,40.86423,-73.89572,Y,"Bronx, NY 10458
(40.86423, -73.89572)"
Bronx,Project EATS URBIS Gun Hill Rd. Farmstand,"1385 Gun Hill Rd, corner of Knapp ave.",1385 Gun Hill Road,Bronx,NY,10469,Charlie Wirene,2126121528,http://www.projectEATS.org,Thursday  2:30pm-6:30pm,July 2-October 15,Y,M,40.87013,-73.84501,Y,"Bronx, NY 10469
(40.87013, -73.84501)"
Bronx,Riverdale Neighborhood House Youthmarket,W 256th St. & Mosholu Ave.,W 256th St. & Mosholu,Bronx,NY,10466,Kori Petrovic,2127887476,http://www.grownyc.org/youthmarket,Thursday  2pm-7pm,July 9-October 29,Y,M,40.90388,-73.90313,Y,"Bronx, NY 10466
(40.90388, -73.90313)"
Bronx,Riverdale Y Sunday Farmers' Market,"Independence Ave, W. 237th St.",649 W 237th St,Bronx,NY,10463,Doris Kaufman,7185488200,http://www.riverdaley.org,Sunday  9am-2pm,May 11-November 16,N,P/M,40.888442,-73.912784,N,"Bronx, NY 10463
(40.888442, -73.912784)"
Bronx,South Bronx Farmers' Market,"South side of 138th Street, btwn Willis & Alexander Aves., Mott Haven",330-398 East 138th Street,Bronx,NY,10454,Lily Kesselman,2122046518,http://www.southbronxfarmersmarket.com,Saturday  10am-4pm,June 20-November 21,Y,M,40.80913,-73.92297,Y,"Bronx, NY 10454
(40.80913, -73.92297)"
Bronx,Wholesale Greenmarket,"Halleck St. & Viele Ave., Auxiliary Lot",Halleck Street and Viele Avenue,Bronx,NY,10474,Chelsea Whittaker,2127887476,,Tue-Sat  2am-8am,April 4-December 31,Y,W/P/M/X,40.80752,-73.87989,N,"Bronx, NY 10474
(40.80752, -73.87989)"
Bronx,Williamsbridge Square HERBan Farmers' Market,"Williamsbridge Square Park,, White Plains Rd. & Gun Hill Rd.",White Plains Road and East Gun Hill Road,Bronx,NY,10467,Tupacamaru Tiwoni,6463517611,http://www.herbanfarmersmarket.org,Wednesday  9am-5pm,July 8-November 11,Y,M,40.87734,-73.8663,Y,"Bronx, NY 10467
(40.87734, -73.8663)"
Broome,Deposit Farmers' Market,"First United Methodist Church, WIC Clinic, 107 Second St.",107 Second St,Deposit,NY,13754,Jeanne Darling,6078656531,http://www.ccedelaware.org,Thursday  10am-2pm,Only Aug 20 & Sep 17,Y,M,42.06233,-75.4249,N,"Deposit, NY 13754
(42.06233, -75.4249)"
Broome,Downtown Binghamton Farmers' Market,"Court House Square, 80 Collier St.",80 Collier St,Binghamton,NY,13901,Eric Denk,6072069471,http://www.binghamtonfarmersmarket.com,Tue/Fri  9am-2pm,June 5-October 30,Y,M,42.09866,-75.91161,Y,"Binghamton, NY 13901
(42.09866, -75.91161)"
Broome,Koo Koose Farmers' Market,"Park on Front Street, near flag pole, near Village Hall & Movie Theater",149 Front Street,Deposit,NY,13754,Dorothy Crantz,6074672956,,Saturday  9am-1pm,June-September,Y,M,42.061003,-75.425572,N,"Deposit, NY 13754
(42.061003, -75.425572)"
Broome,Otsiningo Park Farmers' Market,"Otsiningo Park. East of Downtown, off Bevier st.",Bevier St and Otsiningo Park,Binghamton,NY,13905,Caroline McGee,6078623599,http://www.otsiningoparkfarmersmarket.com,Saturday  9am-1pm,May 2-October 31,Y,P/M,42.12016,-75.90461,Y,"Binghamton, NY 13905
(42.12016, -75.90461)"
Broome,Vestal Farmers' Market,"Library parking lot, near museum, 320 Vestal Pkwy E (Rt. 434)",320 Vestal Pkwy E,Vestal,NY,13850,Lisa Bloodnick,6076254141,https://www.facebook.com/VestalFarmersMarket,Sat/Wed  9am-1pm,May 25-November 26,Y,P/M,42.087322,-76.045678,N,"Vestal, NY 13850
(42.087322, -76.045678)"
Cattaraugus,Canticle Farmstand,3809 Old State Road,3809 Old State Road,Allegany,NY,14706,Mark Printz,7163789714,http://www.canticlefarm.org,Tue/Fri  2pm-6pm; Jun 15-Nov 24; Alt. Tues  2pm-6pm Dec 28-Jun 13,Year-round,Y,YR,42.094426,-78.506766,Y,"Allegany, NY 14706
(42.094426, -78.506766)"
Cattaraugus,Franklinville Farmers' Market,"13 Park Square, Rt 16",13 Park Sq,Franklinville,NY,14737,Phyllis Couture,7169423710,,Wednesday  3pm-6pm,May 20-October 28,Y,P/M,42.33772,-78.45771,Y,"Franklinville, NY 14737
(42.33772, -78.45771)"
Cattaraugus,Olean Southern Tier Farmers' Market,"Tractor Supply Store, 1900 Constitution Ave.",1900 Constitution Ave,Olean,NY,14760,Phyllis Couture,7169423710,,Friday  2pm-6pm,May 15-October 30,Y,P/M,42.08294,-78.45503,Y,"Olean, NY 14760
(42.08294, -78.45503)"
Cattaraugus,R.E.A.P. Olean Farmers' Market,"Walmart Plaza parking lot, 3142 W. State St.",3142 West State St.,Olean,NY,14760,Mark Schindlbeck,7166769181,,Saturday  8am-1pm,May 16-October 31,Y,P/M,42.07896,-78.46906,Y,"Olean, NY 14760
(42.07896, -78.46906)"
Cattaraugus,Salamanca Farmers' Market,"12 Park Ave., Jefferson Park",12 Park Ave,Salamanca,NY,14779,Phyllis Couture,7169423710,,Tuesday  11am-5pm,May 19-October 27,Y,P/M,42.15497,-78.71739,Y,"Salamanca, NY 14779
(42.15497, -78.71739)"
Cattaraugus,South Dayton Farmers' Market,Village Park (Rt 322),547 Pine Street,South Dayton,NY,14138,Linda Dewey,7166729004,,Saturday  9am-1pm,June 20-October 17,Y,M,42.36516,-79.05921,N,"South Dayton, NY 14138
(42.36516, -79.05921)"
Cayuga,Auburn Farmers' Market,"96 State Street, Curley's Restaurant Pkg Lot",96 State Street,Auburn,NY,13021,Mark Soper,3152556871,http://www.auburnfarmerscoopmarketinc.com,Tue/Thu/Sat  7am-2pm,June 2-October 31,Y,M,42.93406,-76.56985,Y,"Auburn, NY 13021
(42.93406, -76.56985)"
Cayuga,Moravia Farmers' Market,"Kinney Drug Store pkg lot, 130 Main St.",130 Main St,Moravia,NY,13118,Tammy Riker,3154963545,,Thursday  10am-5pm,June 4-October 29,Y,M,42.71209,-76.42079,N,"Moravia, NY 13118
(42.71209, -76.42079)"
Cayuga,Niles Farmers' Market,"Niles Town Hall, 5923 New Hope Rd., Moravia",5923 New Hope Rd,New Hope,NY,13118,Penelope Wells,3152141248,https://www.facebook.com/NilesFarmsMarket,Saturday  10am-1pm,May 30-October 17,Y,P/M,42.797461,-76.366093,N,"New Hope, NY 13118
(42.797461, -76.366093)"
Chautauqua,Abers Acres Farmstand,"884 Route 394, Kennedy",884 Rte. 394,Kennedy,NY,14747,Sue Abers,7162672431,http://www.abersacres.com/,"Daily  9am-6pm June-Oct, Daily 10am-5pm Nov-May",Year-round,Y,YR,42.14495,-79.10996,Y,"Kennedy, NY 14747
(42.14495, -79.10996)"
Chautauqua,Anderson's Produce,"3058 Terry Rd., Sinclairville",3058 Terry Road,Sinclairville,NY,14782,Barb Swan,7169628422,,Daily  10am-6pm,July 24-October 20,Y,M,42.231548,-79.255691,N,"Sinclairville, NY 14782
(42.231548, -79.255691)"
Chautauqua,Downtown Jamestown Farmers' Market,"Cherry St., btwn 2nd & 3rd Sts.",119 West 3rd St,Jamestown,NY,14701,Christina King,7166642477,http://www.jamestownrenaissance.org,Thurs  12pm-6pm,June 4-October 29,Y,M,42.09602,-79.24315,Y,"Jamestown, NY 14701
(42.09602, -79.24315)"
Chautauqua,Dunkirk Farmers' Market,"Dunkirk Senior Center, 45 Cliffstar Court",45 Cliffstar Avenue,Dunkirk,NY,14048,Steve Neratko,7163669879,,Wednesday  9am-2pm,June 17-September 23,Y,M,42.48463,-79.32644,Y,"Dunkirk, NY 14048
(42.48463, -79.32644)"
Chautauqua,Falconer Farmers' Market,"Davis Park , W. Main & Homestead Sts.",W Main St and Homestead St,Falconer,NY,14733,DeEtte Dispenza,7166654400,,Saturday  9am-2pm,June 6-October 24,Y,M,42.11763,-79.19952,N,"Falconer, NY 14733
(42.11763, -79.19952)"
Chautauqua,Fred Farms Farm Stand,10655 Temple Rd,10655 Temple Rd,Dunkirk,NY,14048,Roberto Fred,,,Daily 9am-6pm,June 1-November 30,Y,M,42.464201,-79.361694,N,"Dunkirk, NY 14048
(42.464201, -79.361694)"
Chautauqua,Fredonia Farmers' Market,"Village Hall, Baker Commons, 9-11 Church St.",11 Church St,Fredonia,NY,14063,Margaret Bruegel,7169652716,,Saturday  9am-1pm,May 16-October 31,Y,P/M,42.44064,-79.33235,Y,"Fredonia, NY 14063
(42.44064, -79.33235)"
Chautauqua,Fredonia WINTER Farmers' Market,321 East Main St. (Rt 20) Masonic Forest Lodge,321 East Main St. (Rte 20),Fredonia,NY,14063,Margaret Bruegel,7169652716,http://www.facebook.com/FredoniaFarmersMarket,Saturday 10am-1pm,November 7-May14,Y,X/W/P,42.44071,-79.33227,Y,"Fredonia, NY 14063
(42.44071, -79.33227)"
Chautauqua,Lakewood Farmers' Market,Chautauqua Ave.,Chautauqua Ave and West Second St,Lakewood,NY,14750,Joe Johnson,7167638557,http://www.lakewoodny.com,Tuesday  1pm-5pm,June 2-August 25,Y,M,42.10189,-79.3262,N,"Lakewood, NY 14750
(42.10189, -79.3262)"
Chautauqua,Westfield Farmers' Market,Rt 20 & Rt 394,Rt 20 & Rt 394,Westfield,NY,14787,Arianne Correll,7166401166,http://www.westfieldny.com/farmers-market,Saturday  9am-2pm,May 23-September 26,Y,P/M,42.32203,-79.57812,Y,"Westfield, NY 14787
(42.32203, -79.57812)"
Chemung,Ackerman's Blueberries,"248 Red Chalk Rd, Erin",248 Red Chalk Rd,Erin,NY,14838,Gayle Ackerman,6077397249,,Daily  8am-8pm,July 28-August 27,Y,M,42.22112,-76.69423,N,"Erin, NY 14838
(42.22112, -76.69423)"
Chemung,Elmira Eastside Farmers' Market,"West Lawn of Holiday Inn, 760 E. Water St., Elmira",760 East Water St,Elmira,NY,14901,Andrew Fagan,6077344453,http://www.ccechemung.org,Friday  3pm-6pm,June 27 - October 17,Y,M,42.08905,-76.7922,Y,"Elmira, NY 14901
(42.08905, -76.7922)"
Chemung,Elmira Wisner Park Farmers' Market,"Wisner Park, Main Street",North Main St and West Church St,Elmira,NY,14901,Jennifer Herrick,6077340341,http://www.wisnermarket.org,Thursday  10am-2pm,May 28-September 24,Y,M,42.08984,-76.80826,Y,"Elmira, NY 14901
(42.08984, -76.80826)"
Chemung,Grove Park Farmers' Market,"4th St. & Walnut Ave., Grove Park",Walnut Ave and West 4th St,Elmira,NY,14901,Liz Martin,6075464535,https://www.facebook.com/GroveParkFarmersMarket,Monday  3pm-6pm,June 1-October 26,Y,M,42.0921,-76.82013,Y,"Elmira, NY 14901
(42.0921, -76.82013)"
Chemung,Teal Park Farmers' Market,"Teal Park, Horseheads, Corner S. Main and Steuben Sts.",S. Main and Steuben St.,Horseheads,NY,14845,Debbie Gessick,6077397698,,Saturday  10am-1pm,June 27-September 26,Y,M,42.16417,-76.81919,N,"Horseheads, NY 14845
(42.16417, -76.81919)"
Chenango,Bullthistle Farmers' Market,"East Park & Broad St., Norwich",1 East Park Place,Norwich,NY,13815,Patricia Stimmel,6073345841,http://www.facebook.com/bullthistlefarmersmarket,"Saturday  9am-1pm, Thursday  4pm-8pm",May 30-October 24,Y,P/M,42.53181,-75.5238,Y,"Norwich, NY 13815
(42.53181, -75.5238)"
Chenango,Coventry Farmers' Market,"Coventry Town Hall, Route 235",1839 NY-235,Greene,NY,13778,Ellen Evans,6076567319,http://townofcoventryny.com,"Sunday  12pm-5pm , Thursday  1pm-5pm",July-October,Y,M,42.291625,-75.640573,N,"Greene, NY 13778
(42.291625, -75.640573)"
Chenango,Norwich Farmers' Market,East Park Place,98 East Park Place,Norwich,NY,13815,Sandy Pierce,6073344928,https://www.facebook.com/NorwichNYFarmersMarket,Wednesday  10am-6pm,April - November,Y,P/M,42.53136,-75.52262,Y,"Norwich, NY 13815
(42.53136, -75.52262)"
Chenango,Norwich WINTER Farmers' Market,"Follett Hall, 20 Conkey Avenue, Norwich",20 Conkey Avenue,Norwich,NY,13815,Drew Piaschyk,6073344928,https://www.facebook.com/NorwichNYFarmersMarket,Wednesday  10am-6pm,December-March,N,X/W,42.5272,-75.52482,Y,"Norwich, NY 13815
(42.5272, -75.52482)"
Clinton,Keeseville Farmers Market,Nex to Adirondack Hardware on Front St.,1721 Front St,Keeseville,NY,12944,Vicky Rayl,5186517680,http://www.adirondackfarmersmarket.com,Wednesday  10am-2pm,June 17-September 2,Y,M,44.50436,-73.48061,Y,"Keeseville, NY 12944
(44.50436, -73.48061)"
Clinton,Northern Orchard Farmstand,"Northern Orchard, 470 Union Road, Peru",470 Union Road,Peru,NY,12972,Cynthia Mulbury,5186439718,,Daily  9am-6pm,May 1-December 24,Y,P/M/X,44.55639,-73.53716,Y,"Peru, NY 12972
(44.55639, -73.53716)"
Clinton,Plattsburgh Farmers & Crafters Market,"City parking lot, Durkee & Broad Sts.",Broad St and Durkee St,Plattsburgh,NY,12901,Patricia Parker,5183100719,https://www.facebook.com/pages/Plattsburgh-Farmers-and-Crafters-Market/121588034547095,"Saturday  9am-2pm, Wed  10am-2pm",May 9-October 17,Y,P/M,44.69535,-73.45226,Y,"Plattsburgh, NY 12901
(44.69535, -73.45226)"
Clinton,Rouses Point Farmers' Market,"144 Lake St., Rouses Point",144 Lake Street,Rouses Point,NY,12979,Connie Cassevaugh,5182973536,,Friday  3pm-7pm,June 26-September 4,Y,M,44.99029,-73.36438,Y,"Rouses Point, NY 12979
(44.99029, -73.36438)"
Columbia,Copake Hillsdale Farmers' Market,"Roeliff Jansen Park, 9140 Route 22",9140 Route 22,Hillsdale,NY,12529,Diane Creed,5183251430,http://www.facebook.com/copakehillsdalefarmersmarket,Saturday  9am-1pm,May 23-October 31,Y,P/M,42.16548,-73.51686,Y,"Hillsdale, NY 12529
(42.16548, -73.51686)"
Columbia,Copake Hillsdale WINTER Farmers' Market,"Taconic Hills High School, 73 County Rte 11A, Craryville",73 County Route 11A,Craryville,NY,12521,Diane Creed,5183251430,,Saturday 10am-2pm,November 14-Dec. 19,Y,M/X,42.17196,-73.59918,Y,"Craryville, NY 12521
(42.17196, -73.59918)"
Columbia,Hudson Farmers' Market,"DMV parking lot, Sixth & Columbia Sts.",Columbia St and North 6th St,Hudson,NY,12534,Eugene Shetsky,5188287215,http://www.hudsonfarmersmarketny.com,Saturday  9am-1pm,May 2-November 21,Y,P/M,42.24866,-73.78369,Y,"Hudson, NY 12534
(42.24866, -73.78369)"
Columbia,Kinderhook Farmers' Market,Kinderhook Village Square,US Route 9 and Hudson St,Kinderhook,NY,12106,Kim Voltz,5187559293,http://www.kinderhookfarmersmarket.com,Sat  8:30am-12:30pm,May 9-October 10,Y,P/M,42.3954,-73.69817,N,"Kinderhook, NY 12106
(42.3954, -73.69817)"
Columbia,New Lebanon Country Farmers' Market,36 Old Route 20,36 Old Route 20,New Lebanon,NY,12125,Tistrya Houghtling,5185051535,http://www.facebook.com/newlebanoncountrymarket,Sunday  10am-2pm,June 7-September 27,Y,M,42.47266,-73.3806,Y,"New Lebanon, NY 12125
(42.47266, -73.3806)"
Columbia,Philmont Farmers' Market,116 Main Street,116 Main St,Philmont,NY,12565,Sally Baker,5186970038,http://www.pbinc.org/revitalization,Sunday  10am-2pm,May 24-October 18,Y,P/M,42.24868,-73.65097,Y,"Philmont, NY 12565
(42.24868, -73.65097)"
Columbia,Upstreet Farmers' Market,"7th Street Park, Hudson",7th Street Park,Hudson,NY,12534,Lori Weaver,5183036082,http://facebook.com/upstreetmarket,Wednesday  4pm-7pm,May 20-October 28,Y,P/M,42.24744,-73.78299,N,"Hudson, NY 12534
(42.24744, -73.78299)"
Cortland,Cincinnatus Farmers' Market,"Cortland-Chenango Rural Services, 2704 Lower Cincinnatus Rd.",2704 Lower Cincinnatus Rd,Cincinnatus,NY,13040,Paul Halstead,6078368972,,Sat  9am-12pm,May 2-November 28,Y,P/M,42.54094,-75.8959,N,"Cincinnatus, NY 13040
(42.54094, -75.8959)"
Cortland,City of Cortland Farmers' Market,Main St. btwn Court & Orchard Sts.,Main St and Orchard St,Cortland,NY,13045,Julie Maddren,6077588373,,Tue/Sat  8am-2pm,May 23-October 31,Y,P/M,42.60028,-76.18044,Y,"Cortland, NY 13045
(42.60028, -76.18044)"
Cortland,Dave's Veggies Farm Market,"5178 NYS Route 41, Homer",5178 NY-41,Homer,NY,13077,David Root,6075430226,http://www.davesveggies.com,Daily  10am-7pm,May 1-October 31,Y,P/M,42.659118,-76.203042,Y,"Homer, NY 13077
(42.659118, -76.203042)"
Cortland,Homer Farmers' Market,"Homer Village Green, Main St.",South Main St and Central Park Pl,Homer,NY,13077,Bob Holdsworth,6072994920,,"Saturday  9am-1pm, Weds  4pm-7pm",May 9-October 31,Y,P/M,42.63595,-76.17869,Y,"Homer, NY 13077
(42.63595, -76.17869)"
Cortland,Virgil Farmers' Market,"Virgil School, 4 Corners, Cortland",Route 215 and Route 392,Virgil,NY,13045,Christine Applegate,6078356205,,Sat  9am-12pm,June 13-October 10,Y,M,42.51057,-76.19472,Y,"Virgil, NY 13045
(42.51057, -76.19472)"
Delaware,Catskill Cattle Farm Stand,96 Laurel Bank Ave,96 Laurel Bank Ave,Deposit,NY,13754,Lonny or Liz Schaefer,6077437217,http://www.catskillfresh.com,Sun-Sat 8am-8pm,May-October,Y,M,42.07063,-75.40936,Y,"Deposit, NY 13754
(42.07063, -75.40936)"
Delaware,Delhi Farmers' Market,"Courthouse Square, Main St.",Main St and Court St,Delhi,NY,13753,Jerry Pellegrino,6077463775,,Wednesday  9am-2pm,June 3-September 30,Y,M,42.27745,-74.91674,N,"Delhi, NY 13753
(42.27745, -74.91674)"
Delaware,Hobart Community Farmers' Market,"Stamford Town Hall Green, 101 Maple Ave.",101 Maple Ave,Hobart,NY,12167,Andrew Flach,6075381092,,Friday  4pm-7pm,June 5-September 25,Y,M,42.37016,-74.66867,N,"Hobart, NY 12167
(42.37016, -74.66867)"
Delaware,Pakatakan Farmers' Market,"Round Barn of Halcottville, 46696 State Hwy 30",46676 State Route 30,Halcottsville,NY,12438,Georgianna Fairlie,8452544290,http://roundbarnmarket.org,Saturday  9am-2pm,May 16-October 10,Y,P/M,42.20003,-74.596774,N,"Halcottsville, NY 12438
(42.20003, -74.596774)"
Delaware,Sidney 2 Farmers' Market,"Sidney Civic Center, 21 Liberty St.",21 Liberty St,Sidney,NY,13838,Jeanne Darling,6078656531,http://www.ccedelaware.org,"3 dates only - 7/28, 8/25, 9/22",July-September,Y,M,42.317061,-75.39051,N,"Sidney, NY 13838
(42.317061, -75.39051)"
Delaware,Sidney Farmers' Market,"Video Entertainment Plus parking lot, 89 Main St.",89 Main St,Sidney,NY,13838,Jeanne Darling,6078656531,http://www.ccedelaware.org,Thursday  2pm-6pm,July 2-September 24,Y,M,42.31426,-75.39045,N,"Sidney, NY 13838
(42.31426, -75.39045)"
Delaware,Walton Farmers' Market,"UHS Delaware Valley Hospital, 2 Titus Place",2 Titus Place,Walton,NY,13856,Jeanne Darling,6078656531,http://www.ccedelaware.org,"1st & 3rd Wed, 10am-2pm",July 1-October 21,Y,M,42.16464,-75.12792,N,"Walton, NY 13856
(42.16464, -75.12792)"
Dutchess,Arlington Farmers' Market,"Vassar College Alumni Lawn, 123 Raymond Ave. Poughkeepsie",123 Raymond Ave,Poughkeepsie,NY,12603,Bob Legacy,9144747533,http://www.arlingtonhasit.org,Thursday  3pm-7pm,June 4-October 29,Y,M,41.68187,-73.89636,N,"Poughkeepsie, NY 12603
(41.68187, -73.89636)"
Dutchess,Beacon Farmers' Market,"Beacon Ferry Dock, 8 Red Flynn Rd., (Indoors  Dec-Feb at Red Barn)",55 Red Flynn Dr,Beacon,NY,12508,Dana O'Malley,8452349325,http://www.thebeaconfarmersmarket.com,Sunday  10am-3pm,Year-round,Y,YR,41.50576,-73.9854,Y,"Beacon, NY 12508
(41.50576, -73.9854)"
Dutchess,Fishkill Farmers' Market,"Old Grand Union lot, 1004 Main St., Rt. 52",1004 Main St,Fishkill,NY,12524,Angela Arasim,8458974430,http://www.vofishkill.gov,Thursday  9am-3pm,May 28-October 29,Y,P/M,41.53212,-73.90574,N,"Fishkill, NY 12524
(41.53212, -73.90574)"
Dutchess,Hyde Park Farmers' Market,"across from Hyde Park Town Hall, 4390 Rt 9",4390 Route 9,Hyde Park,NY,12538,Dot Chenevert,8452299336,http://www.hydeparkfarmersmarket.org,Saturday  9am-2pm,June 6-October 31,Y,M,41.784484,-73.933188,N,"Hyde Park, NY 12538
(41.784484, -73.933188)"
Dutchess,Millerton Farmers' Market,Main St. & Railroad Plaza,12 Main Street,Millerton,NY,12546,Betsey McCall,5187894259,http://www.neccmillerton.org,Saturday  9am-1pm,May 23-October 31,Y,P/M,41.95333,-73.511632,Y,"Millerton, NY 12546
(41.95333, -73.511632)"
Dutchess,Pawling Farmers' Market,"Pawling Village Green, Charles Colman Blvd.","Village Green, Charles Colman Blvd.",Pawling,NY,12564,Terry Deegan,8458550633,http://www.pawlingfarmersmarket.org,Saturday  9am-1pm,June 13-September 19,Y,M,41.56315,-73.60143,N,"Pawling, NY 12564
(41.56315, -73.60143)"
Dutchess,Poughkeepsie Friday Mobile Market,"The Family Partnership Center, 29 N. Hamilton St.",29 North Hamilton Street,Poughkeepsie,NY,12601,Korey Findley,8452194174,,Friday  12pm-4pm,June 12-November 13,Y,M,41.70389,-73.92138,Y,"Poughkeepsie, NY 12601
(41.70389, -73.92138)"
Dutchess,Poughkeepsie Saturday Mobile Market,"Hudson River Housing's Underwear Factory, 517 Main St",517 Main Street,Poughkeepsie,NY,12601,Korey Findley,8452194174,,Saturday  11am-2pm,June 13-November 14,Y,M,41.70098,-73.91815,Y,"Poughkeepsie, NY 12601
(41.70098, -73.91815)"
Dutchess,Poughkeepsie Thursday Mobile Market,"Interfaith Towers Senior Housing, 66 Washington St.",66 Washington Street,Poughkeepsie,NY,12601,Korey Findley,8452194174,,Thursday  11am-2pm,June 11-November 12,Y,M,41.70773,-73.92935,Y,"Poughkeepsie, NY 12601
(41.70773, -73.92935)"
Dutchess,Poughkeepsie Tuesday Mobile Market,"New Hope Community Center, 104 Hudson St.",104 Hudson Street,Poughkeepsie,NY,12601,Korey Findley,8452194174,,Tuesdays  11am-2pm,June 9-November 10,Y,M,41.70938,-73.93856,Y,"Poughkeepsie, NY 12601
(41.70938, -73.93856)"
Dutchess,Rhinebeck Farmers' Market,"Municipal lot, 61 E. Market St.",61 East Market St,Rhinebeck,NY,12572,Cheryl Paff,9176921274,http://www.rhinebeckfarmersmarket.com,every Sunday  10am-2pm,May 11-November 23,Y,P/M,41.92738,-73.91021,N,"Rhinebeck, NY 12572
(41.92738, -73.91021)"
Dutchess,Share the Bounty Farmstand,"Hudson River Healthcare, 3360 Route 343, Amenia",3360 Route 343,Amenia,NY,12501,Edward Frederick,8458387038,,Tuesday  9am-2pm,June 2-November 3,Y,M,41.85035,-73.55065,Y,"Amenia, NY 12501
(41.85035, -73.55065)"
Erie,Alden Farmers' Market,"13119 Broadway (Route 20), btwn Tractor Supply & Save a Lot",13119 Broadway,Alden,NY,14004,Jenny Urbanski,7169376177,http://www.aldenny.org,Saturday  8:30am-1pm,May 16-October 10,Y,P/M,42.89784,-78.49904,N,"Alden, NY 14004
(42.89784, -78.49904)"
Erie,Blasdell Farmers' Market,4271 Lake Ave,4271 Lake Ave,Hamburg,NY,14219,Jamie Decker,7166497919,http://www.hamburg-chamber.org,Wednesday  9am-2pm,May 27-October 14,Y,M,42.79544,-78.81907,N,"Hamburg, NY 14219
(42.79544, -78.81907)"
Erie,Clarence Hollow Farmers' Market,"Town parking lot , 10717 Main St. (Rt. 5)",10717 Main St,Clarence,NY,14031,Cheryl Anthony,7167591075,http://www.clarencefarmersmarket.com,Saturday  8am-1pm,June 6-October 31,Y,M,42.9808,-78.58904,N,"Clarence, NY 14031
(42.9808, -78.58904)"
Erie,Clinton Bailey Farmers' Market,"1443-1517 Clinton St., Buffalo, corner of Clinton & Bailey Sts.",Bailey Ave and Clinton St,Buffalo,NY,14206,Sharon Baldi,7168222466,http://www.clintonbaileymarket.com,"Sat  6am-6pm, Winter: Sat 6am-12pm",Year-round,Y,YR,42.87205,-78.81998,Y,"Buffalo, NY 14206
(42.87205, -78.81998)"
Erie,Downtown Buffalo Country Market,"Buffalo Place, Main St., btwn Court & Church Streets",Main St and Church St,Buffalo,NY,14202,Erin Carmina,7168563150,http://www.buffaloplace.com,Tue/Thu  8am-2:30pm,May 14-October 22,Y,P/M,42.88316,-78.87526,Y,"Buffalo, NY 14202
(42.88316, -78.87526)"
Erie,East Aurora Farmers' Market,"Aurora Village (TOPS) Plaza, 123 Grey St.",123 Grey St,East Aurora,NY,14052,Jamie Dinero,7163482232,http://facebook.com/EastAuroraFarmersMarket,Sat/Wed  7am-1pm,May 2-November 25,Y,P/M,42.76593,-78.63413,N,"East Aurora, NY 14052
(42.76593, -78.63413)"
Erie,Elmwood-Bidwell Farmers' Market,"Elmwood Village, at Elmwood Ave & Bidwell Pkwy",Elmwood Ave and Bidwell Pkwy,Buffalo,NY,14222,Karen Vilonen,7166915388,http://www.elmwoodmarket.org,Saturday  8am-1pm,May 9-November 28,Y,P/M,42.92371,-78.87702,Y,"Buffalo, NY 14222
(42.92371, -78.87702)"
Erie,Farm 2 Preschool Kenmore Ave Farmers' Market,"500 Kenmore Ave., Buffalo",500 Kenmore Ave,Buffalo,NY,14223,Darla Ferrante,5856544745,,Tuesday  3:30pm-6pm,June 30-September 29,Y,M,42.95796,-78.83643,N,"Buffalo, NY 14223
(42.95796, -78.83643)"
Erie,Grider St. Farmers' Market,"351 Grider St., Buffalo",351 Grider St,Buffalo,NY,14215,Rachel Laster,7168981966,,Friday  10am-2pm,June 5-October 9,Y,M,42.924297,-78.828694,Y,"Buffalo, NY 14215
(42.924297, -78.828694)"
Erie,Hamburg Farmers' Market,"Village municipal parking lot, Main & Buffalo Sts., (entrance on Main & Union Sts)",30 Buffalo St,Hamburg,NY,14075,Jamie Decker,7166497919,http://www.hamburg-chamber.org,Saturday  7:30am-1pm,May 2-November 7,Y,P/M,42.71677,-78.82994,N,"Hamburg, NY 14075
(42.71677, -78.82994)"
Erie,Holland Farmers' Market,"Municipal lot, Route 16, Next to Fire Hall",25 North Main St,Holland,NY,14080,Marg Wnek,7165379590,http://www.townofhollandny.com/farmers-market/,Sunday  8:30am-2pm,May 3-November 22,Y,P/M,42.641822,-78.542516,N,"Holland, NY 14080
(42.641822, -78.542516)"
Erie,Kenmore Farmers' Market,"2919 Delaware Ave., at Delaware Rd.",2919 Delaware Ave,Buffalo,NY,14217,Katie DeCecco,7168602798,,Saturday  8am-12:30pm,June 20-October 24,Y,M,42.96362,-78.8698,N,"Buffalo, NY 14217
(42.96362, -78.8698)"
Erie,Lancaster Sunday Farmers' Market,4913 Transit Rd.,4913 Transit Rd.,Buffalo,NY,14221,Ann Jordan,7164812961,http://www.lancastervillagemarket.com,Sunday  9am-2pm,May 3-October 25,Y,P/M,42.98538,-78.69692,Y,"Buffalo, NY 14221
(42.98538, -78.69692)"
Erie,MAP ELIM Mobile Market,"70 Chalmers Ave., Buffalo",70 Chalmers Avenue,Buffalo,NY,14214,Danielle Rovillo,7168825338,http://www.mass-ave.org,Thursday  4pm-6pm,June 4-October 22,Y,M,42.93819,-78.8358,Y,"Buffalo, NY 14214
(42.93819, -78.8358)"
Erie,MAP Farm Stand,"389 Massachusetts Ave., Buffalo","City of Buffalo, Select Communities",Buffalo,NY,14213,Danielle Rovillo,7168825338,http://www.mass-ave.org,Tuesday  4pm-6pm,June 2-October 20,Y,M,42.91657,-78.89204,Y,"Buffalo, NY 14213
(42.91657, -78.89204)"
Erie,MAP FLARE Mobile Market,"307 Leroy Ave., Buffalo",307 Leroy Ave,Buffalo,NY,14214,Danielle Rovillo,7168825338,http://www.mass-ave.org,Wednesday  4pm-6pm,June 3-October 21,Y,M,42.9328,-78.83418,Y,"Buffalo, NY 14214
(42.9328, -78.83418)"
Erie,MAP Gerard Place Mobile Market,"2515 Bailey Ave., Buffalo",2515 Bailey Ave,Buffalo,NY,14215,Danielle Rovillo,7168825338,http://www.mass-ave.org,Wednesday  11am-1pm,June 3-October 21,Y,M,42.92323,-78.81325,Y,"Buffalo, NY 14215
(42.92323, -78.81325)"
Erie,MAP Harmac Mobile Market,"2201 Bailey Ave., Buffalo",2201 Bailey Ave,Buffalo,NY,14211,Danielle Rovillo,7168825338,http://www.mass-ave.org,Thursday  11am-1pm,June 4-October 22,Y,M,42.91408,-78.81292,Y,"Buffalo, NY 14211
(42.91408, -78.81292)"
Erie,MAP Salvation Army Mobile Market,"960 Main St., Buffalo",960 Main Street,Buffalo,NY,14202,Danielle Rovillo,7168825338,http://www.mass-ave.org,Friday  11am-1pm,June 5-October 23,Y,M,42.90008,-78.87024,Y,"Buffalo, NY 14202
(42.90008, -78.87024)"
Erie,South Buffalo Farmers' Market,"Cazenovia Park Casino, Buffalo, NY  14220","Cazenovia Casino, Cazenovia Park",Buffalo,NY,14220,Peggy Shea,7168515169,https://www.facebook.com/SouthBuffaloMarket,Sunday 10:00am - 2:00pm,June 1-September 28,N,M,42.847895,-78.805781,N,"Buffalo, NY 14220
(42.847895, -78.805781)"
Erie,Springville Farmers' Market,"Gentner Auction, 341 W. Main St. (Rt. 39)",341 West Main St,Springville,NY,14141,Donna Goldhawk,7165600198,,Wednesday  7am-3pm,May 6-November 25,Y,P/M,42.50906,-78.67989,N,"Springville, NY 14141
(42.50906, -78.67989)"
Erie,University Community Farmers' Market,"University at Buffalo - South Campus, 3435 Main Street at Kenmore",Main St and Kenmore Ave,Buffalo,NY,14214,Linwood Roberts,7168293524,,Saturday  8am-1pm,May 16-October 17,Y,P/M,42.95764,-78.81852,N,"Buffalo, NY 14214
(42.95764, -78.81852)"
Erie,Williamsville Mill Farmers' Market,"Island Park, 5565 Main St. Williamsville", 5565 Main St.,Williamsville,NY,14221,Ellie Grenauer,7169846572,http://www.williamsvillefarmersmarket.com,Saturday  8am-1pm,May 16-October 31,Y,P/M,42.962438,-78.745756,N,"Williamsville, NY 14221
(42.962438, -78.745756)"
Essex,Cheever Country Gardens Farmstand,4644 NYS Rt 9N,4644 Route 9N,Port Henry,NY,12974,Catherine or Timothy Sprague,5185467935,,Daily  10am-5pm,June 1-September 1,Y,M,44.06856,-73.45545,N,"Port Henry, NY 12974
(44.06856, -73.45545)"
Essex,Drinkwine Produce & Greenhouse,"Route 9N and Street Road, Ticonderoga","Street Road, 9N",Ticonderoga,NY,12883,Henry Drinkwine,5185856346,,"Daily  11am-5pm  , > July 2: Daily 10am-6pm",May 8-October 20,Y,P/M,43.86062,-73.44656,N,"Ticonderoga, NY 12883
(43.86062, -73.44656)"
Essex,Elizabethtown Farmers' Market,Behind Adirondack Center Museum,7590 Court St,Elizabethtown,NY,12932,Vicky Rayl,5186517680,http://www.adirondackfarmersmarket.com,Friday  9am-1pm,May 29-October 9,Y,P/M,44.21505,-73.59094,N,"Elizabethtown, NY 12932
(44.21505, -73.59094)"
Essex,Keene Farmers' Market,"Rt. 73, Marcy Airfield, 1 mi S of Rt. 9N jct.",2253 State Route 73,Keene Valley,NY,12943,Vicky Rayl,5186517680,http://www.adirondackfarmersmarket.com,Sunday  9:30am-2pm,June 14-October 11,Y,M,44.22067,-73.78561,N,"Keene Valley, NY 12943
(44.22067, -73.78561)"
Essex,Lake Placid Farmers' Market,"Lake Placid Center for the Arts, 17 Algonquin Dr., upper parking lot",17 Algonquin Dr,Lake Placid,NY,12946,Ian Ater,5188345012,http://www.ausablevalleygrange.com,Wednesday  9am-1pm,June 3-October 14,Y,M,44.29367,-73.99766,N,"Lake Placid, NY 12946
(44.29367, -73.99766)"
Essex,Schroon Lake Farmers' Market,"Town Hall parking lot, 15 Leland Ave",15 Leland Ave,Schroon Lake,NY,12870,Ian Ater,5188345012,http://www.ausablevalleygrange.com,Monday  9am-1pm,June 29-September 7,Y,M,43.83666,-73.76049,N,"Schroon Lake, NY 12870
(43.83666, -73.76049)"
Essex,Ticonderoga Farmers' Market,1114 Wicker Street,1114 Wicker Street,Ticonderoga,NY,12883,Mathew Courtright,5185856619,http://www.ticonderogany.com,"Saturday  10am-1pm, Downtown on July 25",June 4-October 10,Y,M,43.85568,-73.43758,N,"Ticonderoga, NY 12883
(43.85568, -73.43758)"
Essex,Willsboro Farmers' Market,"Route 22, South of Champlain National Bank",3900 NY Rt 22,Willsboro,NY,12996,Vicky Rayl,5186517680,http://www.adirondackfarmersmarket.com,Thursday  9am-1pm,June 18-September 3,Y,M,44.36971,-73.395629,N,"Willsboro, NY 12996
(44.36971, -73.395629)"
Franklin,Chateaugay Lake Farmers' Market,"State Route 374, lawn of the Hollywood Inn",4939 State Route 374,Merrill,NY,12955,Vicky Rayl,5186517680,http://www.adirondackfarmersmarket.com,Saturday  10am-2pm,June 20-September 5,Y,M,44.78327,-73.98388,N,"Merrill, NY 12955
(44.78327, -73.98388)"
Franklin,JCEO  Route 11 Garden Stand,"3400 State Rte 11, Malone",3400 State Route 11,Malone,NY,12953,Dick LaVigne,5183194028,http://jceo.org,"Mon-Fri  10am-6pm, Saturday 10am-4pm",July 6-September 20,Y,M,44.8476,-74.31148,N,"Malone, NY 12953
(44.8476, -74.31148)"
Franklin,JCEO Route 51 Garden Stand,"County Rt 51 (Creighton Rd.), Malone",394 County Highway 51,Malone,NY,12953,Dick LaVigne,5183194028,http://www.jceo.org,"Mon-Fri  10am-6pm, Saturday 10am-4pm",July 6-September 20,Y,M,44.857209,-74.338568,N,"Malone, NY 12953
(44.857209, -74.338568)"
Franklin,Malone Farmers' Market,"Malone Airport, Rt. 11, opposite Wal-Mart",Airport Road and US 11,Malone,NY,12953,Vicky Rayl,5186517680,http://www.adirondackfarmersmarket.com,Wed  12pm-4:30pm,June 10-October 14,Y,M,44.84733,-74.32773,Y,"Malone, NY 12953
(44.84733, -74.32773)"
Franklin,Saranac Lake Farmers' Market,"Fusion Market, across from Boat Launch",111 River St,Saranac Lake,NY,12983,Vicky Rayl,5186517680,http://www.adirondackfarmersmarket.com,Tuesday  10am-2pm,May 12-September 29,Y,P/M,44.32413,-74.12598,N,"Saranac Lake, NY 12983
(44.32413, -74.12598)"
Franklin,Saranac Lake Village Farmers' Market,"Riverside Park, Main & River Sts.",River St and Main St,Saranac Lake,NY,12983,Ian Ater,5188345012,http://www.ausablevalleygrange.com,Saturday  9am-2pm,June 6-October 17,Y,M,44.32503,-74.13178,N,"Saranac Lake, NY 12983
(44.32503, -74.13178)"
Franklin,Tupper Lake Farmers' Market,Wild Center Museum,1 Museum Drive,Tupper Lake,NY,12986,Vicky Rayl,5186517680,http://www.adirondackfarmersmarket.com,Thursday  11am-3pm,June 4-September 17,Y,M,44.21956,-74.43693,Y,"Tupper Lake, NY 12986
(44.21956, -74.43693)"
Fulton,Gloversville Farmers' Market,"Elm Street Pavilion, btwn Church & Spring Sts.",9 Elm Street,Gloversville,NY,,Michael Tillson,5188829306,http://www.fultonmontgomeryfarmersmarket.org,Sat  8:30am-12:30pm,March 7-October 17,Y,P/M,43.052604,-74.345796,Y,"Gloversville, NY
(43.052604, -74.345796)"
Fulton,Johnstown Farmers' Market,"City Park, West Main St.",Main and William,Johnstown,NY,12095,Michael Tillson,5188829306,http://www.fultonmontgomeryfarmersmarket.org,Tuesday  3pm-6pm,May 19-October 13,Y,P/M,43.00636,-74.37421,Y,"Johnstown, NY 12095
(43.00636, -74.37421)"
Fulton,Northville Farmers' Market,"Waterfront Park, S. Main St., behind Timeless Tavern",162 South Main St,Northville,NY,12134,Wendy Reu,5188634211,,Tue/Fri  2pm-5pm,May 22-October 9,Y,P/M,43.22568,-74.17102,N,"Northville, NY 12134
(43.22568, -74.17102)"
Genesee,Downtown Batavia Public Market,"Bank Street and Alva Place, In parking lot across from Jerome Center",Bank Street and Alva Place,Batavia,NY,14020,Don Burkel,5853440900,http://www.downtownbataviany.com,Thursday  9am-4pm,June 18-September 24,Y,M,42.99906,-78.18152,N,"Batavia, NY 14020
(42.99906, -78.18152)"
Genesee,Foodlink Mobile Market-UMMC Batavia,"The Jerome Center, 16 Bank St., Batavia",16 Bank Street,Batavia,NY,14020,Mitch Gruber,5853283380,http://www.foodlinkny.org,Monday  11:15am-12pm,July 6-November 30,Y,M,42.99863,-78.18105,Y,"Batavia, NY 14020
(42.99863, -78.18105)"
Genesee,Foodlink Mobile Mkt-Gillam Grant Comm Ctr,"6966 W. Bergen Rd., Bergen",6966 W Bergen Road,Bergen,NY,14416,Mitch Gruber,5853283380,http://www.foodlinkny.org,Monday  10am-10:45am,July 6-November 30,Y,M,43.0771,-78.00657,Y,"Bergen, NY 14416
(43.0771, -78.00657)"
Genesee,Genesee Country Farmers' Market,"Batavia Downs Casino parking lot, 8315 Park Rd.",8315 Park Rd,Batavia,NY,14020,Sharon Brent,7165600853,,Tue/Fri  8am-5pm,June 9-October 30,Y,M,43.01001,-78.20528,Y,"Batavia, NY 14020
(43.01001, -78.20528)"
Genesee,LeRoy Farmers' Market,"Trigon Park, Route 5 (Main St.)",Trigon Park,Le Roy,NY,14482,Sara Kent,5857703593,,Saturday  9am-12:30pm,June 27-October 10,Y,M,42.97756,-77.98592,N,"Le Roy, NY 14482
(42.97756, -77.98592)"
Greene,Black Horse Farms Farmstand,10094 Rt. 9W,10094 Rte 9W,Athens,NY,12015,Chellie Apa,5187318776,http://www.blackhorsefarms.com,"Mar-Sept: Daily 8a-6p, Oct-Dec 24: Daily 9a-5p",March 27-December 24,Y,P/M/X,42.24136,-73.8652,Y,"Athens, NY 12015
(42.24136, -73.8652)"
Greene,Bulich Creekside Farm,1682 Route 23B,1682 Route 23B,Leeds,NY,12451,Ron Bulich,,,"Mon-Fri  12pm-6pm, Sat/Sun 10am-6pm",May 15 - October 31,Y,M,42.26297,-73.92541,N,"Leeds, NY 12451
(42.26297, -73.92541)"
Greene,Coxsackie Riverside Farmers' Market,"Coxsackie Riverside Park, 2 South River Street",Coxsackie Boat Launch,Coxsackie,NY,12051,Kimberly Bender,5183303008,http://facebook.com/coxsackiefarmersmarket,Wednesday  4pm-7pm,May 27-September 30,Y,P/M,42.35292,-73.79595,N,"Coxsackie, NY 12051
(42.35292, -73.79595)"
Hamilton,Indian Lake Community Farmers' Market,"Town Park, Routes 28 & 30, Indian Lake",Route 28 and Route 30,Indian Lake,NY,12842,Brenda Valentine,5186485636,,Saturday  10am-2pm,July 11-September 26,Y,M,43.78247,-74.26541,N,"Indian Lake, NY 12842
(43.78247, -74.26541)"
Hamilton,Speculator Farmers & Crafters Farmers' Market,Speculator Village Pavilion,State Route 30 and Elliot Ln,Speculator,NY,12164,Anna Smith,5185484521,http://www.speculatorchamber.com,Thursday  2pm-5pm,June 25-September 24,Y,M,43.49679,-74.36073,N,"Speculator, NY 12164
(43.49679, -74.36073)"
Herkimer,Dolgeville Farmers' Market,"Kinney Drugs parking lot, N. Main Street-N. Helmer St",55 North Main Street,Dolgeville,NY,13329,Joseph Jablonski,3157177710,,Saturday  8am-12pm,May 9-October 31,Y,P/M,43.10522,-74.77016,N,"Dolgeville, NY 13329
(43.10522, -74.77016)"
Herkimer,Herkimer Farmers' Market,"Herkimer Arc Association parking lot, 420 E. German St.",420 East German St,Herkimer,NY,13350,Cat Macera,3158950138,,Monday  1pm-5pm,June 1-October 19,Y,M,43.03464,-74.9865,Y,"Herkimer, NY 13350
(43.03464, -74.9865)"
Herkimer,Ilion Farmers' Market,"Clapsaddle Farm, heated barns, 437 Otsego St. (State Rt 51 S)",437 Otsego St,Ilion,NY,13357,James Parker,3158944660,,"Friday  12pm-6pm, Saturday  10am-5pm",Year-round,Y,YR,43.00028,-75.04423,Y,"Ilion, NY 13357
(43.00028, -75.04423)"
Herkimer,Little Falls Farmers' & Flea Market,"M&T Bank parking lot, Albany St.",Albany Street and 2nd Street,Little Falls,NY,13365,Mary Davis,3158662619,,Saturday  8am-12pm,May 2-October 31,Y,P/M,43.04284,-74.85828,N,"Little Falls, NY 13365
(43.04284, -74.85828)"
Herkimer,MAWS Farm Stand,"7342 Main Street, Newport",7342 Main Street,Newport,NY,13416,Michael Skwara,3159850088,http://www.mawsfarm.com,"May-Oct: Daily 10am-6pm, Nov-Apr: Mon-Sat 10a-5p; , Sun 12pm-6pm",Year-round,Y,YR,43.18096,-75.01054,Y,"Newport, NY 13416
(43.18096, -75.01054)"
Herkimer,Mohawk Farmers' Market,"Weller Park, 41 E Main St.",41 West Main St,Mohawk,NY,13407,Marilyn Bridger,3158661671,,Wednesday  2pm-5pm,May 20-October 7,Y,P/M,43.01075,-75.00846,N,"Mohawk, NY 13407
(43.01075, -75.00846)"
Herkimer,Old Forge Farmers' Market,Park Ave. behind Old Forge Hardware,Crosby Blvd and Park Ave,Old Forge,NY,13420,Nicholas Rose,3153693353,http://www.cap-21.org,Friday  1pm-5pm,June 29-October 9,Y,M,43.70893,-74.97286,Y,"Old Forge, NY 13420
(43.70893, -74.97286)"
Herkimer,Salisbury Farmers' Market,"Fireman's Field, 2549 Route 29, Salisbury Center",2549 Route 29,Salisbury Center,NY,13329,Gina Thompson,3154299102,,Friday  9am-1pm,May 8-October 16,Y,P/M,43.13673,-74.80336,N,"Salisbury Center, NY 13329
(43.13673, -74.80336)"
Jefferson,Alexandria Bay Farmers' Market,"Kinney Drugs, Route 12",21 New York 12,Alexandria Bay,NY,13607,Keri Jobson,3154829531,http://www.visitalexbay.org,Friday  9am-3pm,May 22-September 18,Y,P/M,44.33191,-75.91425,N,"Alexandria Bay, NY 13607
(44.33191, -75.91425)"
Jefferson,Cape Vincent Farmers' Market,"Village Green, Gouvello St.",Broadway St and James St,Cape Vincent,NY,13618,Shelley Higgins,3156542481,http://www.capevincent.org,Saturday  8am-2pm,June 20-October 10,Y,M,44.12838,-76.33472,N,"Cape Vincent, NY 13618
(44.12838, -76.33472)"
Jefferson,Carthage Farmers' Market,"Farmers Market Pavilion, Riverside Dr., (behind Carthage Rescue Squad)",215 Spring St,Carthage,NY,13619,Lori Boland,3154933590,http://www.carthageny.com,Friday  7am-2pm,May 29-October 30,Y,P/M,43.97798,-75.61225,N,"Carthage, NY 13619
(43.97798, -75.61225)"
Jefferson,Clayton Chamber of Commerce Farmers' Market,Village Park Circle,615 East Line Road,Clayton,NY,13624,Tricia Bannister,3156863771,http://www.1000island-clayton.com,Thursday  11am-5pm,June 4-September 10,Y,M,44.2298,-76.07713,N,"Clayton, NY 13624
(44.2298, -76.07713)"
Jefferson,Little m Farm,16611 County Route 64,16611 County Rd 64,Watertown,NY,13601,Gail Millard,3154089752,,Tue-Sun  9am-6pm,April 30-December 15,Y,P/M/X,43.90772,-75.97562,Y,"Watertown, NY 13601
(43.90772, -75.97562)"
Jefferson,Sally Ploof Hunter Library Farmers' Market,"Sally Ploof Hunter Library, 101 Public Works Drive, Black River",101 Public Works Drive,Black River,NY,13612,Mary Louise Hunt,3157735163,,Tuesday  11am-5pm,June 2-September 15,Y,M,44.01594,-75.78625,N,"Black River, NY 13612
(44.01594, -75.78625)"
Jefferson,Stone Mills Farmers' Market,"NNYAHS Agricultural Museum, 30950 NYS Rt. 180 off Rt. 12, S. of LaFargeville, W from I-81 Ex. 49",30950 Route 180,Stone Mills,NY,13656,Alton Jones,3156582353,http://www.stonemillsmuseum.org,"Tuesday  4pm-7pm  , (contact museum for , event dates)",July 14-September 29,N,M,44.112708,-75.975516,N,"Stone Mills, NY 13656
(44.112708, -75.975516)"
Jefferson,The Cheese Store Farmers' Market,"19401 NYS Rt. 3, Outer Arsenal St., Jefferson Bulk Milk Co-op, Watertown",19401 Arsenal Street,Watertown,NY,13634,Brian Gorman,3157885257,http://www.jeffersonbulkmilk.com,Friday  2:30pm-6:30pm,June 12-October 2,Y,M,43.97182,-75.97377,N,"Watertown, NY 13634
(43.97182, -75.97377)"
Jefferson,Tickle the Earth Farm Stand,13501 County Route 155,13501 County Route 155,Adams Center,NY,13606,Almeda Grandjean,3155835660,,Daily  8am-9pm,May 1-October 31,Y,P/M,43.88524,-75.94957,Y,"Adams Center, NY 13606
(43.88524, -75.94957)"
Jefferson,Watertown Farm & Craft Market,"317 Washington St., Dulles State Office Bldg.",317 Washington Street,Watertown,NY,13601,Toni Miller,3157884400,,Wednesday  6:30am-3pm,May 27-October 7,Y,P/M,43.97173,-75.91116,Y,"Watertown, NY 13601
(43.97173, -75.91116)"
Jefferson,Watertown Saturday Farmers' Market,"J.B. Wise Pavilion pking lot ,175 Black River Pkway",175 Black River Parkway,Watertown,NY,13601,Gail Millard,3154089752,,Saturday  9am-2pm,June 13-November 7,Y,M,43.97651,-75.90988,Y,"Watertown, NY 13601
(43.97651, -75.90988)"
Jefferson,Windswept Meadows Farm,17025 Cty Rt 68,17025 County Road 68,Watertown,NY,13601,Delta Keeney,3157881933,,Daily  7am-9pm,June (end)-Oct 31,Y,M,43.91784,-75.87206,Y,"Watertown, NY 13601
(43.91784, -75.87206)"
Kings,Albee Square Farmers' Market,1 Dekalb Ave.,Fulton Street and Bond Street,Brooklyn,NY,11201,Johanna Safar,9143181067,http://www.bensidounusa.com,Friday  10am-4pm,June 5-October 30,Y,M,40.6897,-73.98296,Y,"Brooklyn, NY 11201
(40.6897, -73.98296)"
Kings,Bartel-Pritchard Square Greenmarket,"Prospect Park West, at 15th St. (inside park entrance)",Bartel Pritchard Square,Brooklyn,NY,11215,Chelsea Whittaker,2127887476,http://www.grownyc.org/greenmarket,Wednesday  8am-3pm,Year-round,Y,YR,40.66094,-73.97979,Y,"Brooklyn, NY 11215
(40.66094, -73.97979)"
Kings,Bay Ridge Greenmarket,"3rd Ave. & 95th St., inside Walgreen's parking lot",Third Ave and 95th St,Brooklyn,NY,11209,Chelsea Whittaker,2127887476,http://www.grownyc.org/greenmarket,Saturday  8am-3pm,May 9-November 21,Y,P/M,40.61724,-74.03362,Y,"Brooklyn, NY 11209
(40.61724, -74.03362)"
Kings,Bensonhurst Greenmarket,"18th Ave., btwn 81st & 82nd",Milestone Park,Brooklyn,NY,11214,Chelsea Whittaker,2127887476,http://www.grownyc.org/greenmarket,Sunday  9am-4pm,June 7-November 22,Y,M,40.60958,-73.99944,Y,"Brooklyn, NY 11214
(40.60958, -73.99944)"
Kings,Boro Park Greenmarket,14th Ave. btwn 49th & 50th Sts.,14th Ave and 49th St,Brooklyn,NY,11219,Chelsea Whittaker,2127887476,http://www.grownyc.org/greenmarket,Thursday  8am-3pm,July 9-November 19,Y,M,40.6337,-73.98992,Y,"Brooklyn, NY 11219
(40.6337, -73.98992)"
Kings,Brooklyn Borough Hall Greenmarket,"Court & Montague Sts., Supreme Court Plaza",Court St and Montague St,Brooklyn,NY,11201,Chelsea Whittaker,2127887476,http://www.grownyc.org/greenmarket,Tue/Thu/Sat  8am-6pm,Year-round,Y,YR,40.69375,-73.99047,Y,"Brooklyn, NY 11201
(40.69375, -73.99047)"
Kings,Brownsville Community Farmers' Market,514 Rockaway Ave. at Sutter Ave.,514 Rockaway Ave,Brooklyn,NY,11212,Taylor Gordon,9176182566,http://www.bmsfhc.org,Saturday  8am-4pm,July-November,Y,M,40.66746,-73.91048,N,"Brooklyn, NY 11212
(40.66746, -73.91048)"
Kings,Brownsville Pitkin Ave Youthmarket,"Thomas Boyland St., btwn Pitkin & Sutter Aves.",Thomas Boyland St and Pitkin Ave,Brooklyn,NY,11212,Kori Petrovic,2127887476,http://www.grownyc.org/youthmarket,Saturday 10:30am-4pm,July 11-November 21,Y,M,40.66925,-73.91358,Y,"Brooklyn, NY 11212
(40.66925, -73.91358)"
Kings,Brownsville Rockaway Youthmarket,Rockaway Ave btwn Livonia & Dumont Aves.,Rockaway Ave and Livonia Ave,Brooklyn,NY,11212,Kori Petrovic,2127887476,http://www.grownyc.org/youthmarket,Friday  1pm-6pm,July 10-November 20,Y,M,40.66255,-73.90895,Y,"Brooklyn, NY 11212
(40.66255, -73.90895)"
Kings,Bushwick Broadway Farmers' Market,Broadway btwn Halsey St. & Thomas Boyland,Halsey St and Broadway Ave.,Brooklyn,NY,11385,Travis Tench,5024940628,http://www.bushwickfarmersmarket.org,Thursday  2pm-7pm,July 9-November 12,Y,M,40.69952,-73.91106,Y,"Brooklyn, NY 11385
(40.69952, -73.91106)"
Kings,Bushwick Maria Hernandez Farmers' Market,"Maria Hernandez Park, Knickerbocker Ave. at Starr St.",Knickerbocker Ave and Starr St,Brooklyn,NY,11237,Travis Tench,5024940628,http://www.bushwickfarmersmarket.org,Saturday  9am-4pm,June 6-November 14,Y,M,40.70281,-73.92539,Y,"Brooklyn, NY 11237
(40.70281, -73.92539)"
Kings,Bushwick Myrtle Ave. Farmers' Market,Myrtle Ave. & Grove St.,Myrtle Ave and Grove St,Brooklyn,NY,11237,Travis Tench,5024940628,http://www.bushwickfarmersmarket.org,Friday  2pm-7pm,July 10-November 13,Y,M,40.69916,-73.91492,Y,"Brooklyn, NY 11237
(40.69916, -73.91492)"
Kings,Carroll Gardens Greenmarket,"Carroll St., btwn Court & Smith Sts.",Carroll St and Court St,Brooklyn,NY,11231,Chelsea Whittaker,2127887476,http://www.grownyc.org/greenmarket,Sunday  8am-3pm,Year-round,Y,YR,40.68106,-73.99653,Y,"Brooklyn, NY 11231
(40.68106, -73.99653)"
Kings,Coney Island Farm Stand,Surf Ave. & W. 16th St.,Surf Ave and West 16th Street,Brooklyn,NY,11224,Lisa Jones,7182664653,http://www.astelladevelopment.org,Sunday  9am-3pm,July 12-November 22,Y,M,40.57542,-73.98337,Y,"Brooklyn, NY 11224
(40.57542, -73.98337)"
Kings,Cortelyou Greenmarket,"Cortelyou Rd., btwn Argyle & Rugby Rds.",Cortelyou Rd and Argyle Rd,Brooklyn,NY,11226,Chelsea Whittaker,2127887476,http://www.grownyc.org/greenmarket,Sunday  8am-3pm,Year-round,Y,YR,40.64044,-73.96617,Y,"Brooklyn, NY 11226
(40.64044, -73.96617)"
Kings,Cypress Hills Youthmarket,"Fulton St., btwn Richmond & Logan Sts.",Fulton St. and Logan St.,Brooklyn,NY,11208,Kori Petrovic,2127887476,http://www.grownyc.org/youthmarket,Friday  12pm-7pm,July 10-November 20,Y,M,40.68206,-73.87788,Y,"Brooklyn, NY 11208
(40.68206, -73.87788)"
Kings,East New York Farmers' Market I,"Schenck Ave., United Comm. Centers, btwn New Lots & Livonia",613 New Lots Ave,Brooklyn,NY,11207,Ana Aguirre,7186497979,http://www.eastnewyorkfarms.org,Saturday  9am-3pm,June 27-November 14,Y,M,40.6647,-73.88659,Y,"Brooklyn, NY 11207
(40.6647, -73.88659)"
Kings,East New York Farmers' Market II,New Lots & Georgia Aves.,New Lots Ave and Georgia Ave,Brooklyn,NY,11207,Ana Aguirre,7186497979,http://www.eastnewyorkfarms.org,Wed  3:30pm- 6:30pm,July 1-October 28,Y,M,40.66075,-73.8955,Y,"Brooklyn, NY 11207
(40.66075, -73.8955)"
Kings,Flatbush Junction Youthmarket,Flatbush & Nostrand Aves.,Flatbush Ave and Nostrand Ave,Brooklyn,NY,11210,Kori Petrovic,2127887476,http://www.grownyc.org/greenmarket,Saturday  8:30am-3pm,July 11-November 21,Y,M,40.63286,-73.9477,Y,"Brooklyn, NY 11210
(40.63286, -73.9477)"
Kings,Fort Greene Park Greenmarket,"Washington Park, btwn Dekalb Ave. & Willoughby St.",Washington Park and DeKalb Ave,Brooklyn,NY,11205,Chelsea Whittaker,2127887476,http://www.grownyc.org/greenmarket,Saturday  8am-4pm,Year-round,Y,YR,40.68962,-73.97313,Y,"Brooklyn, NY 11205
(40.68962, -73.97313)"
Kings,Graham Avenue Farmers' Market,"Cook St., Graham Ave. & Dead End",Graham Ave and Cook St,Brooklyn,NY,11206,Betty Cooney,7183876643,http://www.grahamavenuebid.net,Saturday  8am-6pm,July 11-October 31,Y,M,40.70235,-73.94238,Y,"Brooklyn, NY 11206
(40.70235, -73.94238)"
Kings,Grand Army Plaza Greenmarket,Flatbush Ave. & Prospect Park West,Flatbush Ave and Grand Army Plaza,Brooklyn,NY,11238,Chelsea Whittaker,2127887476,http://www.grownyc.org/greenmarket,Saturday  8am-4pm,Year-round,Y,YR,40.67412,-73.9695,Y,"Brooklyn, NY 11238
(40.67412, -73.9695)"
Kings,Greenpoint McCarren Park Greenmarket,Union Ave btwn Driggs Ave & N 12th St,Union Ave & Driggs Ave,Brooklyn,NY,11222,Chelsea Whittaker,2127887476,http://www.grownyc.org/greenmarket,Saturday  8am-3pm,Year-round,Y,YR,40.72046,-73.95269,Y,"Brooklyn, NY 11222
(40.72046, -73.95269)"
Kings,Harvest Home Coney Island Farmers' Market,"Ocean Parkway, btwn Ave. Z & Shore Rd.",Ocean Pkwy and Avenue Z,Brooklyn,NY,11235,Maritza Owens,2128283361,http://www.harvesthomefm.org,Wed/Fri  8am-4pm,June 17-November 25,Y,M,40.58669,-73.96578,Y,"Brooklyn, NY 11235
(40.58669, -73.96578)"
Kings,Harvest Home Kings Co. Hospital Farmers' Market,"Clarkson Ave, btwn E 37th & E 38th Sts.",489 - 519 Clarkson Ave,Brooklyn,NY,11203,Maritza Owens,2128283361,http://www.harvesthomefm.org,Wednesday  8am-4pm,July 8-November 18,Y,M,40.65588,-73.94245,Y,"Brooklyn, NY 11203
(40.65588, -73.94245)"
Kings,Harvest Home Marcy Park Farmers' Market,Myrtle & Marcy Aves.,Myrtle Ave and Marcy Ave,Brooklyn,NY,11206,Maritza Owens,2128283361,http://www.harvesthomefm.org,Thursday  8am-4pm,July 9-November 19,Y,M,40.69537,-73.94922,Y,"Brooklyn, NY 11206
(40.69537, -73.94922)"
Kings,Hattie Carthan After Church Farmers' Market,"49 Van Buren St., Hattie Carthan Herban Farm",49 Van Buren St,Brooklyn,NY,11221,Yonnette Fleming,7186383566,http://www.hattiecarthancommunitymarket.com,Sunday  1pm-6pm,August 2-November 22,Y,M,40.69024,-73.94359,Y,"Brooklyn, NY 11221
(40.69024, -73.94359)"
Kings,Hattie Carthan Community Farmers' Market,"363-365 Clifton Pl., Nostrand & Marcy Aves.",365 Clifton Pl,Brooklyn,NY,11216,Yonnette Fleming,7186383566,http://www.hattiecarthancommunitymarket.com,Saturday  9am-3pm,July 11-November 21,Y,M,40.68965,-73.94879,Y,"Brooklyn, NY 11216
(40.68965, -73.94879)"
Kings,High School for Public Service Youth Market,600 Kingston Ave.,600 Kingston Ave,Brooklyn,NY,11203,Steve Frillman,2125942155,http://www.hspsfarm.blogspot.com,Wed  2:30pm-6:30pm,June 24-October 28,Y,M,40.65866,-73.94384,Y,"Brooklyn, NY 11203
(40.65866, -73.94384)"
Kings,Isabahlia Farmers' Market,"Powell Street Garden, 410 Livonia Ave.",410 Livonia Ave,Brooklyn,NY,11212,Brenda Thompson-Duchene,7184983174,,Saturday  8am-3pm,June 27-November 7,Y,M,40.6635,-73.90234,Y,"Brooklyn, NY 11212
(40.6635, -73.90234)"
Kings,Isabahlia WINTER Farmers' market,93 New Lots Ave.,93 New Lots Ave,Brooklyn,NY,11212,Brenda Thompson-Duchene,7184983174,,Saturday 9am-12pm,November 14-Febrary 27,Y,M/X/W,40.65817,-73.90181,Y,"Brooklyn, NY 11212
(40.65817, -73.90181)"
Kings,Kensington Youthmarket,"Ft. Hamilton Pkwy, btwn E. 4th & E. 5th Sts.",Fort Hamilton Pkwy and East 5th St,Brooklyn,NY,11218,Kori Petrovic,2127887476,http://www.grownyc.org/youthmarket,Saturday  8am-4pm,July 11-November 21,Y,M,40.64915,-73.97662,Y,"Brooklyn, NY 11218
(40.64915, -73.97662)"
Kings,Malcolm X Blvd. Community Farmers' Market,"Jackie Robinson Park, btwn Chauncy & Marion Sts.",Malcolm X Blvd and Marion St,Brooklyn,NY,11233,Rev. Robert Jackson,9173016747,http://www.brooklynrescuemission.org,Saturday  8am-4pm,July 11-November 14,Y,M,40.67975,-73.92865,Y,"Brooklyn, NY 11233
(40.67975, -73.92865)"
Kings,Marcy Plaza Community Farmers' Market,Marcy Plaza & Fulton St.,1368 Fulton Street,Brooklyn,NY,11216,Rev. Robert Jackson,9173016747,http://www.brooklynrescuemission.org,Wednesday  9am-6pm,July 8-November 11,Y,M,40.68007,-73.94565,Y,"Brooklyn, NY 11216
(40.68007, -73.94565)"
Kings,McGolrick Park Farmers' Market,"McGolrick Park, center near Pavilion, Russel St. off Nassau Ave., Greenpoint",McGolrick Park,Brooklyn,NY,11222,Dagmar Kostkova,9149234837,http://www.downtoearthmarkets.com,Sunday  10am-4pm,May 3-November 29,Y,M,40.72444,-73.94336,Y,"Brooklyn, NY 11222
(40.72444, -73.94336)"
Kings,McGolrick Park WINTER Farmers' Market,"Lutheran Church of the Messiah, 129 Russell St.",129 Russell St.,Brooklyn,NY,11222,Dagmar Kostkova,9149234837,http://www.downtoearthmarkets.com,Sunday  11am-4pm,December 6-April 26,N,X/W/P,40.72481,-73.94467,Y,"Brooklyn, NY 11222
(40.72481, -73.94467)"
Kings,Park Slope Sunday Farmers' Market,"Fouth Street, off Fifth Ave, near PS 51",Fourth Street and Fifth Avenue,Brooklyn,NY,11215,Dagmar Kostkova,9149234837,http://www.downtoearthmarkets.com,"Sunday  10am-5pm , Jan-Apr: Sun 10am-4pm",Year-round,Y,YR,40.6722,-73.98379,Y,"Brooklyn, NY 11215
(40.6722, -73.98379)"
Kings,Park Slope Wednesday Farmers' Market,"4th St. at 5th Ave., in front of Washington Park",4th Street at 5th Avenue,Brooklyn,NY,11215,Dagmar Kostkova,9149234837,http://www.downtoearthmarkets.com,Wednesday  3pm-7pm,May 13-November 25,Y,P/M,40.6722,-73.98379,Y,"Brooklyn, NY 11215
(40.6722, -73.98379)"
Kings,Pitkin-Verde Farmers' Market,"2094 Pitkin Ave., Brooklyn",2094 Pitkin Ave,Brooklyn,NY,11207,Cassandra Flechsig,9178938801,http://www.cypresshills.org,Tuesday  9am-5pm,June 23-November 24,Y,M,40.67175,-73.89525,N,"Brooklyn, NY 11207
(40.67175, -73.89525)"
Kings,Project EATS Brooklyn Museum Farmstand,200 Eastern Parkway,200 Eastern Parkway,Brooklyn,NY,11238,Charlie Wirene,2126121528,http://www.projectEATS.org,Thursday  2pm-6pm,June 18-November 12,Y,M,40.67115,-73.96348,Y,"Brooklyn, NY 11238
(40.67115, -73.96348)"
Kings,Project EATS Marcus Garvey Village Farmstand,300 Chester St. (at Dumont Ave),300 Chester Street,Brooklyn,NY,11212,Charlie Wirene,2126121528,http://www.projectEATS.org,Saturday  11am-3pm,June 13-October 17,Y,M,40.66432,-73.91036,Y,"Brooklyn, NY 11212
(40.66432, -73.91036)"
Kings,Red Hook Farmstand,"Red Hook Farm, 580 Columbia St., across from IKEA",580 Columbia St,Brooklyn,NY,11231,Corey Blant,7182886752,http://www.added-value.org,Saturday  8am-3pm,June 20-November 21,Y,M,40.67198,-74.00901,Y,"Brooklyn, NY 11231
(40.67198, -74.00901)"
Kings,Sunset Park Greenmarket,4th Ave. btwn 59th & 60th Sts.,4th Ave and 60th St,Brooklyn,NY,11220,Chelsea Whittaker,2127887476,http://www.grownyc.org/greenmarket,Saturday  8am-3pm,July 11-November 21,Y,M,40.64081,-74.01836,Y,"Brooklyn, NY 11220
(40.64081, -74.01836)"
Kings,Urban Oasis Farm Stand,"Kingsboro Psychiatric Center,, 681 Clarkson Ave., btwn Troy Ave & 43rd St.",681 Clarkson Ave,Brooklyn,NY,11203,Beatrix McLeod,7182217132,,Wednesday  2pm-5:30pm,June 24-November 11,Y,M,40.65621,-73.93741,Y,"Brooklyn, NY 11203
(40.65621, -73.93741)"
Kings,Walt Shamel Farmers' Market,"Walt Shamel Community Garden, 1095 Dean St.",1095 Dean Street,Brooklyn,NY,11217,Desiree Ortiz,7186858148,,Saturday  8am-3pm,June 6-October 24,Y,M,40.67725,-73.95377,Y,"Brooklyn, NY 11217
(40.67725, -73.95377)"
Kings,Williamsburg Greenmarket,Taylor St btwn Bedford & Lee Ave,Taylor St & Lee Ave,Brooklyn,NY,11211,Chelsea Whittaker,2127887476,http://www.grownyc.org/greenmarket,Thursday  8am-4pm,July 9-November 19,Y,M,40.70701,-73.96139,Y,"Brooklyn, NY 11211
(40.70701, -73.96139)"
Kings,Windsor Terrace PS 154 Greenmarket,"11th Ave., btwn Sherman St. & Windsor Pl",1625 11th Avenue,Brooklyn,NY,11215,Chelsea Whittaker,2127887476,http://www.grownyc.org/greenmarket,Sunday  9am-3pm,May 10-December 20,Y,P/M/X,40.65699,-73.97597,Y,"Brooklyn, NY 11215
(40.65699, -73.97597)"
Lewis,Colwell's Farmstand and Garden Center,"6007 NYS Route 12, Glenfield",6007 State Route 12,Glenfield,NY,13343,Michael & Violet Colwell,3153767402,http://www.colwellsfarmmarket.com,"Mon-Sat  8am-7pm, Sunday  9am-6pm",April 1-December 25,Y,P/M/X,43.71844,-75.41148,Y,"Glenfield, NY 13343
(43.71844, -75.41148)"
Lewis,Lewis Co. General Hospital Farmers' Market,"7785 N. State St. - Lowville, near Children's Clinic back parking lot",7785 North State St,Lowville,NY,13367,Tina Schell,3153765087,http://lcgh.net,Thursday  11am-3pm,June 25-September 24,Y,M,43.79521,-75.49955,Y,"Lowville, NY 13367
(43.79521, -75.49955)"
Lewis,Lowville Farmers' Market,"Lewis County Fairgrounds, 5473 Bostwick St.",5473 Bostwick Street,Lowville,NY,13367,Chris Bush,3157838642,,Saturday  8am-2pm,May 30-October 31,Y,P/M,43.79319,-75.4909,Y,"Lowville, NY 13367
(43.79319, -75.4909)"
Lewis,Lyons Falls Farmers' Market,"Riverside Park, 6904 Laura St.",6904 Laura St,Lyons Falls,NY,13368,Gary Mavis,3153485167,http://www.lyonsfallsalive.org,Tuesday  12pm-6pm,June 16-October 6,Y,M,43.61458,-75.3562,Y,"Lyons Falls, NY 13368
(43.61458, -75.3562)"
Lewis,Simmons Farmstand,"10188 State Route 12, Copenhagen",10188 State Rte 12,Copenhagen,NY,13626,Shari Simmons,3156884470,,Mon-Sat  9am-6pm,May 7-December 25,Y,P/M/X,43.89599,-75.67776,Y,"Copenhagen, NY 13626
(43.89599, -75.67776)"
Livingston,Dansville Farmers' Market,"Airport Hanger parking lot, 50 Maple St.",50 Maple St,Dansville,NY,14437,Gary Roth,5853352963,,Friday  10am-4:30pm,June 5-October 9,Y,M,42.56598,-77.70836,Y,"Dansville, NY 14437
(42.56598, -77.70836)"
Livingston,Foodlink MM-Tri County Fam. Med. Dansville,"60 Red Jacket St., Dansville",60 Red Jacket Street,Dansville,NY,14437,Mitch Gruber,5853283380,http://www.foodlinkny.org,Thursday  10am-10:45am,July 9-November 19,Y,M,42.55055,-77.69462,Y,"Dansville, NY 14437
(42.55055, -77.69462)"
Livingston,Geneseo Farmers' Market,lower Center St. at Main St.,Main St and Center St,Geneseo,NY,14454,Cate Concannon,5858804456,http://www.geneseofarmersmarket.org,Thursday  3pm-6:30pm,June 25-October 22,Y,M,42.79624,-77.81679,Y,"Geneseo, NY 14454
(42.79624, -77.81679)"
Livingston,Lima Presbyterian Church Farmers' Market,"7295 W. Main St., Corner of  Route 15A & Routes 20&5",West Main St and Rochester St,Lima,NY,14485,Beverly Gillette,5855821737,,Tuesday  3pm-6pm,June 16-October 27,Y,M,42.90496,-77.61175,N,"Lima, NY 14485
(42.90496, -77.61175)"
Livingston,Mount Morris Village Farmers' Market,36 N Main St.,36 North Main St,Mount Morris,NY,14510,Lisa Torcello,5856584160,,Tuesday  11am-4:30pm,June 2-October 6,Y,M,42.73078,-77.87658,Y,"Mount Morris, NY 14510
(42.73078, -77.87658)"
Madison,Cazenovia Farmers' Market,"Cannon Park, Albany St.",Albany St and Sullivan St,Cazenovia,NY,13035,Anna Marie Neuland,3156554429,http://www.cazenoviachamber.com,Saturday  9am-2pm,May 16-October 31,Y,P/M,42.92987,-75.8552,N,"Cazenovia, NY 13035
(42.92987, -75.8552)"
Madison,Cazenovia WINTER Farmers' Market,"American Legion Hall, 26 Chenango St",26 Chenango Street,Cazenovia,NY,13035,Anna Marie Neuland,3156554429,http://www.cazenoviachamber.com,"Monthly, 3rd Sat  10am-1pm",November - April,Y,X/W/P,42.9243,-75.85111,N,"Cazenovia, NY 13035
(42.9243, -75.85111)"
Madison,Earlville Farmers' Market,"Village Park, East & North Streets",Route 12B and Route 14A,Earlville,NY,13332,Kelly Beach,3156912121,https://www.facebook.com/pages/Earlville-Farmers-Market/164953266885448,Fri/Sat  7am-6pm,May 1-October 31,Y,P/M,42.73969,-75.54511,N,"Earlville, NY 13332
(42.73969, -75.54511)"
Madison,Hamilton Farmers' Market,"Village Green, 3 Broad St.",Broad St and Payne St,Hamilton,NY,13346,Kim Taranto,3158241111,http://www.hamilton-ny.gov,Saturday  8am-1pm,May 2-October 31,Y,P/M,42.82684,-75.54436,Y,"Hamilton, NY 13346
(42.82684, -75.54436)"
Madison,Town of Lenox/Canastota Farmers' Market,Corner of Hickory & Main St.,South Main St and West Hickory St,Canastota,NY,13032,Lois Brown,3156979291,,Saturday  9am-2pm,July 11-October 17,Y,M,43.07476,-75.75539,N,"Canastota, NY 13032
(43.07476, -75.75539)"
Monroe,441 Ministries Farm Stand,"441 Parsells Ave., Rochester",441 Paresells Ave,Rochester,NY,14609,Mitch Gruber,5853283380,,Wednesday  3pm-7pm,July 8-September 2,Y,M,43.165768,-77.566616,Y,"Rochester, NY 14609
(43.165768, -77.566616)"
Monroe,Aenon Baptist Farm Stand,"175 Genesee St., Rochester",175 Genesee St,Rochester,NY,14611,Mitch Gruber,5853283380,,Wednesday  12am-6pm,July 8-September 2,Y,M,43.1466,-77.63608,Y,"Rochester, NY 14611
(43.1466, -77.63608)"
Monroe,Berlin-Wilkins St. Block Club Farmstand,"101 Berlin St., Rochester",101 Berlin Street,Rochester,NY,14621,Mitch Gruber,5853283380,http://www.foodlink.org,Tuesday  3pm-6pm,July 7-September 8,Y,M,43.17878,-77.6049,Y,"Rochester, NY 14621
(43.17878, -77.6049)"
Monroe,Bridges to Wellness Farm Stand,"Gantt Community Center, 700 North St., Rochester",700 North Street,Rochester,NY,14605,Mitch Gruber,5853283380,,Tuesday  11am-2pm,July 7-September 8,Y,M,43.17027,-77.59682,Y,"Rochester, NY 14605
(43.17027, -77.59682)"
Monroe,Brighton Farmers' Market,"Brighton High School lot, 1150 Winton Rd. South",1150 Winton Rd South,Rochester,NY,14618,Sue Gardner-Smith,5852698918,http://www.brightonfarmersmarket.org,Sunday  9am-1pm,May 24-October 25,Y,P/M,43.12204,-77.56808,Y,"Rochester, NY 14618
(43.12204, -77.56808)"
Monroe,Brighton WINTER Farmers' Market,"Brookside Center, 220 Idlewood Rd.",220 Idlewood Road,Rochester,NY,14618,Sue Gardner-Smith,5852698918,http://www.brightonfarmersmarket.org,Sunday  1pm-4pm,November 1 - May 22,Y,X/W/P,43.11275,-77.56809,Y,"Rochester, NY 14618
(43.11275, -77.56809)"
Monroe,Brockport Farmers' Market,Market St. (off Main St.),Main St and Market St,Brockport,NY,14420,Charlene Veltz,5857503382,,Sunday  8am-1pm,June 21-October 25,Y,M,43.21556,-77.9385,N,"Brockport, NY 14420
(43.21556, -77.9385)"
Monroe,Cathedral Community Farm Stand,"296 Flower City Park, Rochester",296 Flower City Park,Rochester,NY,14615,Mitch Gruber,5853283380,,Wednesday  12pm-6pm,July 8-September 2,Y,M,43.19312,-77.63275,Y,"Rochester, NY 14615
(43.19312, -77.63275)"
Monroe,Chili Farmers' Market,"3240 Chili Ave., Rochester",3240 Chili Ave,Rochester,NY,14624,Michael Curley,5858894680,http://www.townofchili.org,Saturday  8am-1pm,May 2-October 31,Y,M,43.10501,-77.75199,N,"Rochester, NY 14624
(43.10501, -77.75199)"
Monroe,Fairport Farmers' Market,"58 S. Main St., parking lot, behind Bank of America",58 South Main St,Fairport,NY,14450,Fritz May,5854213209,,Saturday  7am-12pm,May 2-November 21,Y,P/M,43.09992,-77.44214,N,"Fairport, NY 14450
(43.09992, -77.44214)"
Monroe,"Faith, Hope & Charity Worship Ctr Farmstand","Columbia and Plymouth Ave., Rochester",Columbia Ave and South Plymouth Ave,Rochester,NY,14608,Mitch Gruber,5853283380,http://www.foodlink.org,Thursday  3pm-7pm,July 9-September 10,Y,M,43.14153,-77.6204,Y,"Rochester, NY 14608
(43.14153, -77.6204)"
Monroe,Farm 2 Preschool Lake Ave Farmers' Market,"214 Lake Ave, Rochester",214 Lake Ave,Rochester,NY,14608,Darla Ferrante,5856544745,,Thursday  2pm-5:30pm,June 1-September 30,Y,M,43.16846,-77.6253,Y,"Rochester, NY 14608
(43.16846, -77.6253)"
Monroe,Farm 2 Preschool Main St. Farmers' Market,"444 E. Main St., Rochester",444 East Main Street,Rochester,NY,14604,Darla Ferrante,5856544745,,Wed  3pm-6pm,June 24-September 30,Y,M,43.1588,-77.60064,Y,"Rochester, NY 14604
(43.1588, -77.60064)"
Monroe,Farm 2 Preschool South Ave Farmers' Market,"941 South Ave, Rochester",941 South Ave,Rochester,NY,14604,Darla Ferrante,5856544745,,Monday  2pm-4:30pm,June 1-September 30,Y,M,43.13663,-77.60895,Y,"Rochester, NY 14604
(43.13663, -77.60895)"
Monroe,Foodlink MM-Oak Orchard Health Albion,"301 West Ave., Albion",301 West Ave,Albion,NY,14411,Mitch Gruber,5853283380,http://www.foodlinkny.org,Wed  11:15am-12pm,July 8-November 25,Y,M,43.24124,-78.20258,Y,"Albion, NY 14411
(43.24124, -78.20258)"
Monroe,Foodlink MM-Oak Orchard Health Brockport,"300 West Ave., Brockport",300 West Avenue,Rochester,NY,14420,Mitch Gruber,5853283380,http://www.foodlinkny.org,Wed 10:00am-10:50am,July 8-November 25,Y,M,43.149964,-77.646425,Y,"Rochester, NY 14420
(43.149964, -77.646425)"
Monroe,Foodlink Mobile Market-Affinity Place,"1 Affinity Ln, Rochester",1 Affinity Lane,Rochester,NY,14616,Mitch Gruber,5853283380,http://www.foodlinkny.org,Friday  4pm-4:45pm,July 10-November 27,Y,M,43.24028,-77.67841,Y,"Rochester, NY 14616
(43.24028, -77.67841)"
Monroe,Foodlink Mobile Market-AJHC Brown Sq,"322 Lake Ave., Rochester",322 Lake Ave,Rochester,NY,14608,Mitch Gruber,5853283380,http://www.foodlinkny.org,Monday  3pm-3:45pm,July 6-November 30,Y,M,43.17101,-77.62734,Y,"Rochester, NY 14608
(43.17101, -77.62734)"
Monroe,Foodlink Mobile Market-AJHC Holland,"80 Holland St., Rochester",82 Holland Street,Rochester,NY,14605,Mitch Gruber,5853283380,http://www.foodlinkny.org,Tuesday  10am-10:50am,July 7-December 1,Y,M,43.1693,-77.60223,Y,"Rochester, NY 14605
(43.1693, -77.60223)"
Monroe,Foodlink Mobile Market-AJHC Woodward,"480 Genesee St., Rochester",480 Genesee Street,Rochester,NY,14611,Mitch Gruber,5853283380,http://www.foodlinkny.org,Monday  11am-11:50am,July 6-November 30,Y,M,43.14061,-77.63585,Y,"Rochester, NY 14611
(43.14061, -77.63585)"
Monroe,Foodlink Mobile Market-Andrews Terrace,"125 St. Paul St., Rochester",125 Saint Paul Street,Rochester,NY,14604,Mitch Gruber,5853283380,http://www.foodlinkny.org,Tuesday  1:30pm-2:15pm,July 7-December 1,Y,M,43.15872,-77.61047,Y,"Rochester, NY 14604
(43.15872, -77.61047)"
Monroe,Foodlink Mobile Market-Buena Vista,"229 Avenue A, Rochester",229 Avenue A,Rochester,NY,14621,Mitch Gruber,5853283380,http://www.foodlinkny.org,Thursday 10am-10:50am,July 9-November 19,Y,M,43.17777,-77.61842,Y,"Rochester, NY 14621
(43.17777, -77.61842)"
Monroe,Foodlink Mobile Market-Carlson Commons,"70 Coretta Scott Crossing, Rochester",70 Coretta Scott Crossing,Rochester,NY,14608,Mitch Gruber,5853283380,http://www.foodlinkny.org,Tuesday  4pm-4:45pm,July 7-December 1,Y,M,43.14336,-77.61973,Y,"Rochester, NY 14608
(43.14336, -77.61973)"
Monroe,Foodlink Mobile Market-Carriage Factory Apts,"33 Litchfield St., Rochester",33 Litchfield Street,Rochester,NY,14608,Mitch Gruber,5853283380,http://www.foodlinkny.org,Thursday  4pm-4:45pm,July 9-November 19,Y,M,43.15396,-77.62575,Y,"Rochester, NY 14608
(43.15396, -77.62575)"
Monroe,Foodlink Mobile Market-Charles House,"71 Parkway, Rochester",71 Parkway,Rochester,NY,14608,Mitch Gruber,5853283380,http://www.foodlinkny.org,Friday  11am-11:50am,July 10-November 27,Y,M,43.16603,-77.63234,Y,"Rochester, NY 14608
(43.16603, -77.63234)"
Monroe,Foodlink Mobile Market-Danforth Towers,"140 West Ave, Rochester",140 West Avenue,Rochester,NY,14611,Mitch Gruber,5853283380,http://www.foodlinkny.org,Thurs 1:30pm-2:15pm,July 9-November 19,Y,M,43.15038,-77.64166,Y,"Rochester, NY 14611
(43.15038, -77.64166)"
Monroe,Foodlink Mobile Market-DePaul Ridgeview,"109 Marburger St., Rochester",109 Marburger Street,Rochester,NY,14621,Mitch Gruber,5853283380,http://www.foodlinkny.org,Thursday  4pm-4:45pm,July 9-November 19,Y,M,43.19459,-77.60782,Y,"Rochester, NY 14621
(43.19459, -77.60782)"
Monroe,Foodlink Mobile Market-Dunn Tower,"100 Dunn Tower Dr., Rochester",Dunn Tower Drive,Rochester,NY,14606,Mitch Gruber,5853283380,http://www.foodlinkny.org,Monday  1:30pm-2:15pm,July 6-November 23,Y,M,43.16924,-77.69727,Y,"Rochester, NY 14606
(43.16924, -77.69727)"
Monroe,Foodlink Mobile Market-Glenwood Gardens,"41 Kestrel St., Rochester",41 Kestrel St,Rochester,NY,14613,Mitch Gruber,5853283380,http://www.foodlinkny.org,Monday 4pm-4:45pm,July 6-November 30,Y,M,43.175465,-77.644124,Y,"Rochester, NY 14613
(43.175465, -77.644124)"
Monroe,Foodlink Mobile Market-Hudson Ridge,"401 Seneca Manor, Rochester",401 Seneca Manor Drive,Rochester,NY,14621,Mitch Gruber,5853283380,http://www.foodlinkny.org,Wed  2:45pm-3:30pm,July 8-November 25,Y,M,43.19309,-77.60324,Y,"Rochester, NY 14621
(43.19309, -77.60324)"
Monroe,Foodlink Mobile Market-James A Dobson Apts,"150 Van Auker St., Rochester",150 Van Auker Street,Rochester,NY,14608,Mitch Gruber,5853283380,http://www.foodlinkny.org,Tuesday  4pm-4:45pm,July 7-December 1,Y,M,43.14997,-77.62109,Y,"Rochester, NY 14608
(43.14997, -77.62109)"
Monroe,Foodlink Mobile Market-Kennedy Towers,"666 S Plymouth Ave., Rochester",666 South Plymouth Ave,Rochester,NY,14608,Mitch Gruber,5853283380,http://www.foodlinkny.org,Tuesday  4pm-4:45pm,July 7-December 1,Y,M/X,43.14251,-77.61894,Y,"Rochester, NY 14608
(43.14251, -77.61894)"
Monroe,Foodlink Mobile Market-Lena Gantt,"86 Vienna St., Rochester",86 Vienna Street,Rochester,NY,14605,Mitch Gruber,5853283380,http://www.foodlinkny.org,Tuesday  11am-11:50am,July 7-December 1,Y,M,43.17032,-77.60607,Y,"Rochester, NY 14605
(43.17032, -77.60607)"
Monroe,Foodlink Mobile Market-Los Flamboyanes,"100 Borinquen Plaza, Rochester",100 Borinquen Plaza,Rochester,NY,14605,Mitch Gruber,5853283380,http://www.foodlinkny.org,Wed  4pm-4:45pm,July 8-November 25,Y,M,43.17086,-77.61262,Y,"Rochester, NY 14605
(43.17086, -77.61262)"
Monroe,Foodlink Mobile Market-Maplewood YMCA,"25 Driving Park Ave, Rochester",25 Driving Park Ave,Rochester,NY,14613,Mitch Gruber,5853283380,http://www.foodlinkny.org,Friday  10am-10:50am,July 10-November 27,Y,M,43.18033,-77.63015,Y,"Rochester, NY 14613
(43.18033, -77.63015)"
Monroe,Foodlink Mobile Market-Monroe Co. WIC,"250 Waring Rd., Rochester",250 Waring Rd,Rochester,NY,14609,Mitch Gruber,5853283380,http://www.foodlinkny.org,Wed  3pm-3:45pm,July 8-November 25,Y,M,43.184115,-77.565038,Y,"Rochester, NY 14609
(43.184115, -77.565038)"
Monroe,Foodlink Mobile Market-Montgomery Center,"10 Cady St., Rochester",10 Cady Street,Rochester,NY,14608,Mitch Gruber,5853283380,http://www.foodlinkny.org,Thursday  11am-11:50am,July 9-November 19,Y,M,43.14584,-77.62107,Y,"Rochester, NY 14608
(43.14584, -77.62107)"
Monroe,Foodlink Mobile Market-Pinnacle Place,"919 Clinton Ave. S, Rochester",919 Clinton Ave South,Rochester,NY,14620,Mitch Gruber,5853283380,http://www.foodlinkny.org,Tuesday  3pm-3:45pm,July 7-December 1,Y,M,43.14006,-77.59637,Y,"Rochester, NY 14620
(43.14006, -77.59637)"
Monroe,Foodlink Mobile Market-Saint Ann's,"1500 Portland Ave., Rochester",1500 Portland Avenue,Rochester,NY,14621,Mitch Gruber,5853283380,http://www.foodlinkny.org,Wed  1:30pm-2:15pm,July 6-November 27,Y,M,43.19411,-77.5813,Y,"Rochester, NY 14621
(43.19411, -77.5813)"
Monroe,Foodlink Mobile Market-Saint Simons,"360 St. Paul St., Rochester",360 Saint Paul Street,Rochester,NY,14605,Mitch Gruber,5853283380,http://www.foodlinkny.org,Tuesday  2:45pm-3:30pm,July 7-December 1,Y,M,43.16357,-77.61088,Y,"Rochester, NY 14605
(43.16357, -77.61088)"
Monroe,Foodlink Mobile Market-Savannah Towers I,"15 Savannah St., Rochester",15 Savannah Street,Rochester,NY,14607,Mitch Gruber,5853283380,http://www.foodlinkny.org,Thursday  2:45pm-3:30pm,July 9-November 19,Y,M,43.154309,-77.598867,Y,"Rochester, NY 14607
(43.154309, -77.598867)"
Monroe,Foodlink Mobile Market-South View Towers,"500 South Ave., Rochester",500 South Ave,Rochester,NY,14620,Mitch Gruber,5853283380,http://www.foodlinkny.org,Monday  2:45pm-3:30pm,July 6-November 30,Y,M,43.1465,-77.60524,Y,"Rochester, NY 14620
(43.1465, -77.60524)"
Monroe,Foodlink Mobile Market-St. Jude Apartments,"Lyell Rd., Rochester",Crerand Cir,Rochester,NY,14606,Mitch Gruber,5853283380,http://www.foodlinkny.org,Friday  3pm-3:45pm,July 10-November 27,Y,M,43.16448,-77.73933,Y,"Rochester, NY 14606
(43.16448, -77.73933)"
Monroe,Foodlink Mobile Market-SW Family YMCA,"597 Thurston Rd., Rochester",597 Thurston Rd,Rochester,NY,14619,Mitch Gruber,5853283380,http://www.foodlinkny.org,Monday  10am-10:50am,July 6-November 30,Y,M,43.132866,-77.651137,Y,"Rochester, NY 14619
(43.132866, -77.651137)"
Monroe,Foodlink Mobile Market-The Center,"133 State St., Sweden",133 State St,Brockport,NY,14420,Mitch Gruber,5853283380,http://www.foodlinkny.org,Wed  11am-11:50am,July 8-December 1,Y,M,43.21383,-77.93284,Y,"Brockport, NY 14420
(43.21383, -77.93284)"
Monroe,Foodlink Mobile Market-The Hamilton,"185 Mt. Hope Ave, Rochester",185 Mount Hope Avenue,Rochester,NY,14620,Mitch Gruber,5853283380,http://www.foodlinkny.org,Monday  4pm-4:45pm,July 6-November 30,Y,M,43.14573,-77.61013,Y,"Rochester, NY 14620
(43.14573, -77.61013)"
Monroe,Foodlink Mobile Market-Unity St. Mary's,"89 Genesee St., Rochester",89 Genesee Street,Rochester,NY,14611,Mitch Gruber,5853283380,http://www.foodlinkny.org,Thursday  3pm-3:45pm,July 9-November 19,Y,M,43.14844,-77.63718,Y,"Rochester, NY 14611
(43.14844, -77.63718)"
Monroe,Foodlink Mobile Market-YWCA Apartments,"175 N. Clinton Ave., Rochester",175 North Clinton Ave,Rochester,NY,14604,Mitch Gruber,5853283380,http://www.foodlinkny.org,Wed  4pm-4:45pm,July 8-November 25,Y,M,43.16073,-77.6082,Y,"Rochester, NY 14604
(43.16073, -77.6082)"
Monroe,Foodlink Mobile Mkt-Charlotte Harbortown,"4575 Lake Ave, Rochester",4575 Lake Avenue,Rochester,NY,14612,Mitch Gruber,5853283380,http://www.foodlinkny.org,Friday  1:30pm-2:15pm,July 10-November 27,Y,M,43.25492,-77.61411,Y,"Rochester, NY 14612
(43.25492, -77.61411)"
Monroe,Foodlink Mobile Mkt-Charlotte Harbortown II,"60 River St., Rochester",60 River Street,Rochester,NY,14612,Mitch Gruber,5853283380,http://www.foodlinkny.org,Friday  2:45pm-3:30pm,July 10-November 27,Y,M,43.2444,-77.61607,Y,"Rochester, NY 14612
(43.2444, -77.61607)"
Monroe,Foodlink Mobile Mkt-Creek House Commons,"2000 White Swan Dr., Rochester",2000 White Swan Dr,Rochester,NY,14626,Mitch Gruber,5853283380,http://www.foodlinkny.org,Friday  4pm-4:45pm,July 10-November 27,Y,M,43.21894,-77.73798,Y,"Rochester, NY 14626
(43.21894, -77.73798)"
Monroe,Genesee Valley RMA Farmers' Market,"Administration Bldg. (south parking lot), 900 Jefferson Rd., Henrietta",900 Jefferson Rd.,Henrietta,NY,14623,"William Mulligan, Jr.",5854244600,http://www.geneseevalleyregionalmarketauthority.com,Friday  11am-5pm,June 5-October 30,Y,M,43.09005,-77.61401,N,"Henrietta, NY 14623
(43.09005, -77.61401)"
Monroe,Greece Ridge Mall Farmers' Market,"271 Greece Ridge Center Drive, Rochester",217 Greece Ridge Center Dr,Greece,NY,14626,Melanie Fazio,5852251140,http://www.themallatgreeceridge.com,Thu/Sat  8am-3pm,June 6-October 31,Y,M,43.20503,-77.68772,N,"Greece, NY 14626
(43.20503, -77.68772)"
Monroe,Irondequoit Farmers' Market,"Town Hall Lawn, 1280 Titus Ave., Rochester",1280 Titus Ave,Rochester,NY,14617,Rebecca Merrill,5853366034,http://www.irondequoit.org/community/special-events/farmers-market,"Thursday  4pm-8pm, (closed July 2)",May 28-October 22,Y,P/M,43.21118,-77.58154,Y,"Rochester, NY 14617
(43.21118, -77.58154)"
Monroe,Jefferson Ave. Farm Stand,"7th Day Adventest Church, 309 Jefferson Ave., Rochester",309 Jefferson Ave,Rochester,NY,14611,Mitch Gruber,5853283380,,Tuesday  1pm-6pm,July 7-September 8,Y,M,43.14878,-77.62944,Y,"Rochester, NY 14611
(43.14878, -77.62944)"
Monroe,Mendon Farmers' Market,101 Mendon lonia Rd.,101 Mendon lonia Road,Mendon,NY,14506,Michael Slusser,5852082933,http://www.mendonfarmersmkt.com,Tuesday  4pm-7pm,June 2-October 13,Y,M,42.99082,-77.50241,Y,"Mendon, NY 14506
(42.99082, -77.50241)"
Monroe,Monroe Village Farmers' Market,"Blessed Sacrament Church lot, 730 Monroe Ave, Rochester",730 Monroe Ave,Rochester,NY,14607,Allen Krisiloff,5854734470,http://www.monroevillagefarmersmarket.org,Wednesday  4pm-7pm,June 10-October 14,Y,M,43.14357,-77.58848,Y,"Rochester, NY 14607
(43.14357, -77.58848)"
Monroe,North Chili Farmers' Market,"Methodist Church, 2200 Westside Drive, Rochester",2200 Westside Dr,North Chilli,NY,14514,Roger Dart,5855949222,,Saturday  8am-1pm,June 13-October 31,Y,M,43.12648,-77.78969,N,"North Chilli, NY 14514
(43.12648, -77.78969)"
Monroe,Project Hope Farm Stand,"Conkey Corner Park, 92 Conkey Ave., Rochester",Clifford Ave and Conkey Ave,Rochester,NY,14621,Mitch Gruber,5853283380,,Saturday  10am-3pm,July 11-September 5,Y,M,43.17472,-77.6196,Y,"Rochester, NY 14621
(43.17472, -77.6196)"
Monroe,Rochester Public Market,"280 N. Union St., off East Main St.",280 North Union St.,Rochester,NY,14609,Cindy De Coste,5854286907,http://www.cityofrochester.gov/publicmarket,"Tue/Thu  6am-1pm, Sat  5am-3pm",Year-round,Y,YR,43.1657,-77.59016,Y,"Rochester, NY 14609
(43.1657, -77.59016)"
Monroe,Saint Mark's & Saint John's Farm Stand,"1245 Culver Road, Rochester",1245 Culver Rd,Rochester,NY,14609,Mitch Gruber,5853283380,,Saturday  10am-3pm,July 11-September 5,Y,M,43.16807,-77.56219,Y,"Rochester, NY 14609
(43.16807, -77.56219)"
Monroe,Saint Stephen's Farm Stand,"350 Chili Ave., Rochester",350 Chili Avenue,Rochester,NY,14611,Mitch Gruber,5853283380,http://www.foodlinkny.org,Thursday  3pm-7pm,July 9-September 3,Y,M,43.1473,-77.64607,Y,"Rochester, NY 14611
(43.1473, -77.64607)"
Monroe,Scottsville Midweek Farmers' Market,"61 Main Street, American Legion Pkg Lot",61 Main St,Scottsville,NY,14546,Marcy McCall,5858893981,,Wednesday  4pm-7pm,June 3-September 30,Y,M,43.0193,-77.75548,N,"Scottsville, NY 14546
(43.0193, -77.75548)"
Monroe,South Wedge Farmers' Market,"151 Mt. Hope Ave., Rochester",151 Mt. Hope Ave,Rochester,NY,14620,Jesse Knoth,5852561740,http://www.swfm.org,Thursday  4pm-7pm,June 11-October 15,Y,M,43.14684,-77.60934,Y,"Rochester, NY 14620
(43.14684, -77.60934)"
Monroe,Washington Square Farmers' Market,"Washington Square Park,, St Marys Place & 181 S. Clinton Ave., Rochester",181 South Clinton Ave,Rochester,NY,14604,Mitch Gruber,5853283380,http://www.foodlinkny.org,Wednesday  11am-2pm,July 1-September 2,Y,M,43.15352,-77.60533,Y,"Rochester, NY 14604
(43.15352, -77.60533)"
Monroe,Webster's Joe Obbie Farmers' Market,"Webster Town Center, 1028 Ridge Rd.",Holt Road and Ridge Road,Webster,NY,14580,Fedele Noto,3155898703,http://www.webstersjoeobbiefarmersmarketinc.org/,"Wednesday  2pm-6pm, Saturday  8am-1pm",June 13-October 31,Y,M,43.21035,-77.44665,Y,"Webster, NY 14580
(43.21035, -77.44665)"
Monroe,Westside Farmers' Market,"St. Monica's Church parking lot, 831 Genesee St., Rochester",831 Genesee St,Rochester,NY,14611,Jackie Farrell,5854368999,http://www.westsidemarketrochester.com,Tuesday  4pm-7:30pm,June 9-October 13,Y,M,43.134058,-77.636523,Y,"Rochester, NY 14611
(43.134058, -77.636523)"
Montgomery,Amsterdam E. Main St. Farmers Market,"East Main St., Downtown Amsterdam",East Main St and Liberty St,Amsterdam,NY,12010,David DeFazio,5185245545,,Saturday  10am-2pm,June 6-October 10,Y,M,42.9355,-74.188826,N,"Amsterdam, NY 12010
(42.9355, -74.188826)"
Montgomery,Amsterdam Saturday Farmers' Market,"Walter Elwood Museum, 100 Church St.", 100 Church St.,Amsterdam,NY,12010,Ben Wallach,5182217828,https://www.facebook.com/AmsterdamSaturdayFarmersMarket/timeline?ref=page_internal,Saturday  10am-2pm,May 23-September 26,Y,M,42.939823,-74.18503,N,"Amsterdam, NY 12010
(42.939823, -74.18503)"
Montgomery,Amsterdam Uptown Farmers' Market,"Saint Mary's Healthcare Pking lot, Rt 30N",4988 Route 30,Amsterdam,NY,12010,Michael Tillson,5188829306,http://www.fultonmontgomeryfarmersmarket.org,Wednesday  3pm-6pm,May 13-October 14,Y,P/M,42.95893,-74.18742,Y,"Amsterdam, NY 12010
(42.95893, -74.18742)"
Montgomery,Fort Plain Farmers' Market,"Parking lot on 12 Willet St., Ft Plain",12 Willet Street,Fort Plain,NY,13339,Annette Rorick,5189934271,,Thursday  1pm-5pm,May 28 - November 26,Y,P/M,42.93177,-74.62118,N,"Fort Plain, NY 13339
(42.93177, -74.62118)"
Montgomery,Haven of Hope Farm Stand,"19 Cemetery St, Fonda, opposite Fonda-Fultonville Central School",19 Cemetary Street,Fonda,NY,12068,Pat Brooking,5187701390,http://www.havenofhopefarm.org,"Friday 12pm-6pm, Saturday  9am-4pm",May 1-December 24,Y,P/M/X,42.95692,-74.37054,N,"Fonda, NY 12068
(42.95692, -74.37054)"
Nassau,Anna House Farmstand,"2150 Hempstead Turnpike, Elmont",2150 Hempstead Turnpike,Elmont,NY,11003,Dana Youkilis,5163589250,,Tuesday  10am-2pm,June 23-September 22,Y,M,40.7125,-73.72211,Y,"Elmont, NY 11003
(40.7125, -73.72211)"
Nassau,East Meadow Farmers' Market,"832 Merrick Ave., CCE Nassau County",832 Merrick Avenue,East Meadow,NY,11554,Carol Morgenstern,5162971894,,"Friday  3pm-6pm, Saturday  9am-12pm",July 10-November 30,Y,M,40.70092,-73.56747,Y,"East Meadow, NY 11554
(40.70092, -73.56747)"
Nassau,Farmingdale Farmers' Market,"Village Green, Town Hall, 361 Main st.",211-A Main St.,Farmingdale,NY,11735,Jim Thompson,5166942859,http://www.eatlocallongisland.com,Sunday  10am-3pm,May 31-November 22,Y,P/M,40.7341,-73.44576,N,"Farmingdale, NY 11735
(40.7341, -73.44576)"
Nassau,Freeport Community Youth Market,"Freeport Rec. Center N. Parking Lot, 130 East Merrick Rd., Opening day (7/11) at Hofstra University",130 East Merrick Rd,Freeport,NY,11520,Debra Wheat-Williams,5164427188,http://www.cedarmore.org,Saturday  11am-4pm,July 11-October 31,Y,M,40.65449,-73.57474,Y,"Freeport, NY 11520
(40.65449, -73.57474)"
Nassau,Freeport Northeast Youth Farmers' Market,312 Grand Ave (parking lot across St.),312 Grand Ave,Freeport,NY,11520,Debra Wheat-Williams,5164427188,http://www.cedarmore.org,Saturday  12pm-4pm,August 1-August 29,Y,M,40.66524,-73.57278,Y,"Freeport, NY 11520
(40.66524, -73.57278)"
Nassau,Garden City Farmers' Market,"101 Cty Seat Dr., off Old Country Rd, 3rd parking lot behind Supreme Ct. Bldg.",County Seat Dr and Supreme Court Dr,Garden City,NY,11530,Ethel Terry,6313233653,http://www.longislandgrowersmarket.com,Tuesday  7am-1pm,June 2-November 23,Y,M,40.73609,-73.63505,N,"Garden City, NY 11530
(40.73609, -73.63505)"
Nassau,Hempstead Community Farmers Market,"Village pkg lot #16;  bordered by Washington, Clinton & Front sts.",393 Front St,Hempstead,NY,11550,Clara Gillens-Eromosele,5165442955,http://rooseveltfarmersmarket.com,Thursday  12pm-6pm,July 23-October 29,Y,M,40.70735,-73.619311,Y,"Hempstead, NY 11550
(40.70735, -73.619311)"
Nassau,Kennedy Plaza Farmers' Market,"1 West Chester St., at City Hall, Long Beach",1 West Chester St,Long Beach,NY,11561,Bernadette Martin,6316785227,,"Wed 10am-2pm &, 4pm-7pm, Sat  9am-2pm",May 2-November 25,Y,P/M,40.58941,-73.66594,Y,"Long Beach, NY 11561
(40.58941, -73.66594)"
Nassau,New Cassel Farmers' Market,"First Baptist Church parking lot, 212 Garden St., Westbury, Opening day (7/11) at Hofstra University",212 Garden St,Westbury,NY,11590,Traci Caines,5169979939,https://www.facebook.com/pages/New-Cassel-Farmers-Market/138769932883107,Saturday  11am-3pm,July 11-October 31,Y,M,40.7622,-73.56767,Y,"Westbury, NY 11590
(40.7622, -73.56767)"
Nassau,New Hyde Park Farmers' Market,"Municipal parking lot, near Village Hall, 1441 Jericho Turnpike",1441 Jericho Turnpike,New Hyde Park,NY,11040,Lona Graepel,6319442661,http://www.longislandfarmersmarkets.com,Saturday  8am-1pm,June 6-November 21,Y,M,40.73386,-73.68046,Y,"New Hyde Park, NY 11040
(40.73386, -73.68046)"
Nassau,Port Washington Organic Farmers' Market,"Port Washington Town Dock, 347 Main St.",Main St and Covert St,Port Washington,NY,11050,Patti Wood,5168830887,http://www.grassrootsinfo.org,Saturday  8am-12pm,June 13-October 31,Y,M,40.83153,-73.7019,N,"Port Washington, NY 11050
(40.83153, -73.7019)"
Nassau,Rockville Centre Farmers' Market,Sunrise Hgwy & Longbeach Rd.,Sunrise Hwy and Long Beach Rd,Rockville Centre,NY,11570,Ethel Terry,6313233653,http://www.longislandgrowersmarket.com,Sunday  7am-12pm,May 31-November 22,Y,P/M,40.65712,-73.6321,N,"Rockville Centre, NY 11570
(40.65712, -73.6321)"
Nassau,Roosevelt Community Youth Market,"380 Nassau Rd., Family Health Clinic parking lot",380 Nassau Rd,Roosevelt,NY,11575,Clara Gillens-Eromosele,5165442955,http://www.rooseveltfarmersmarket.com,Sunday  11am-4pm,July 19-October 25,Y,M,40.68185,-73.59092,Y,"Roosevelt, NY 11575
(40.68185, -73.59092)"
Nassau,Roslyn-North Hills Farmers' Market,"Christopher Morley Park, 500 Searing Town Rd.",500 Searingtown Rd,Roslyn Heights,NY,11577,Ethel Terry,6313233653,http://www.longislandgrowersmarket.com,Wednesday  7am-1pm,May 27-November 25,Y,P/M,40.78188,-73.66277,N,"Roslyn Heights, NY 11577
(40.78188, -73.66277)"
Nassau,Seaford Farmers' Market,"Seaford Railroad Station, Parking Lot 3, Sunrise Highway, Across from 7-Eleven",Seaford Railroad Station,Seaford,NY,11783,Ethel Terry,6313233653,http://www.longislandgrowersmarket.com,Saturday  7am-12pm,May 30-November 21,Y,P/M,40.67572,-73.48657,N,"Seaford, NY 11783
(40.67572, -73.48657)"
Nassau,Spinney Hill Farmers' Market,"125 Community Drive,, Northshore LIJ parking lot, Great Neck",125 Community Drive,Great Neck,NY,11021,Bernadette Martin,6316785227,http://www.ligreenmarket.org,Sunday  9am-2pm,July 12-November 1,Y,M,40.78414,-73.70454,Y,"Great Neck, NY 11021
(40.78414, -73.70454)"
Nassau,YALE Farmers' Market,"Yale Child Care Cntr 160 Baldwin Rd., Hempstead",160 Baldwin Road,Hempstead,NY,11550,Dana Youkilis,5163589250,,Wed 3:30pm-6:30pm,June 24-September 23,Y,M,40.69657,-73.61598,Y,"Hempstead, NY 11550
(40.69657, -73.61598)"
New York,125th Street Fresh Connect Farmers' Market,"Adam Clayton Powell Jr. State Bldg Plaza, 163 W 125th St.",163 West 125th Street,New York,NY,10027,Tupacamaru Tiwoni,6463517611,http://125thstreetfarmersmarket.com/?page_id=138,Tuesday  10am-7pm,June 9-November 24,Y,M,40.80912,-73.94724,Y,"New York, NY 10027
(40.80912, -73.94724)"
New York,"82 St., Saint Stephen's Greenmarket","E 82nd St., btwn 1st & York Aves.",408 East 82nd Street,New York,NY,10028,Chelsea Whittaker,2127887476,http://www.grownyc.org/greenmarket,Saturday  9am-2:30pm,Year-round,Y,YR,40.77394,-73.9506,Y,"New York, NY 10028
(40.77394, -73.9506)"
New York,Abingdon Square Greenmarket,W 12th St. & 8th Ave.,8th Ave and W 12 St,New York,NY,10014,Chelsea Whittaker,2127887476,http://www.grownyc.org/greenmarket,Saturday  8am-2pm,Year-round,Y,YR,40.73755,-74.00573,Y,"New York, NY 10014
(40.73755, -74.00573)"
New York,Bowling Green Greenmarket,"Broadway, at Battery Place",1 Broadway,New York,NY,10004,Chelsea Whittaker,2127887476,http://www.grownyc.org/greenmarket,Tue/Thu  8am-5pm,Year-round,Y,YR,40.70453,-74.01327,Y,"New York, NY 10004
(40.70453, -74.01327)"
New York,Broadway French Farmers' Market,"Broadway, btwn 35th & 36th Sts.",1344 Broadway,New York,NY,10018,Johanna Safar,9143181067,http://www.bensidounusa.com,Mon/Wed/Fri  11am-6pm,May 1-November 25,N,P/M,40.751012,-73.987759,N,"New York, NY 10018
(40.751012, -73.987759)"
New York,Chelsea Farmers' Market,Sidewalk on N. side of 23rd St. btwn 8th & 9th Aves.,23rd Street and 9th Avenue,New York,NY,10011,Dagmar Kostkova,9149234837,http://www.downtoearthmarkets.com,Saturday  9am-5pm,June 6-December 26,Y,M/X,40.74651,-74.00137,Y,"New York, NY 10011
(40.74651, -74.00137)"
New York,City Hall Park Greenmarket,"Broadway, btwn Chambers & Warren Sts.",Broadway and Chambers St,New York,NY,10007,Chelsea Whittaker,2127887476,http://www.grownyc.org/greenmarket,Tue/Fri  8am-4pm,March 3-December 22,Y,P/M/X,40.71419,-74.0063,Y,"New York, NY 10007
(40.71419, -74.0063)"
New York,Columbia Greenmarket,"Broadway, btwn W 114th &  W 116th Sts.",Broadway and West 116th St,New York,NY,10027,Chelsea Whittaker,2127887476,http://www.grownyc.org/greenmarket,Sun/Thu  8am-5pm,Year-round,Y,YR,40.80738,-73.96449,Y,"New York, NY 10027
(40.80738, -73.96449)"
New York,Dag Hammarskjold Plaza Greenmarket,"E 47th St., btwn 1st & 2nd Aves",East 47th St and Second Ave,New York,NY,10017,Chelsea Whittaker,2127887476,http://www.grownyc.org/greenmarket,Wednesday  8am-4pm,Year-round,Y,YR,40.75298,-73.96989,Y,"New York, NY 10017
(40.75298, -73.96989)"
New York,East 92 St. Greenmarket,"1st Ave., btwn 92nd & 93rd Sts.",East 92nd St and First Ave,New York,NY,10128,Chelsea Whittaker,2127887476,http://www.grownyc.org/greenmarket,Sunday  9am-4pm,June 28-November 22,Y,M,40.78071,-73.94658,Y,"New York, NY 10128
(40.78071, -73.94658)"
New York,El Barrio Youth Marqueta,116th St. at Park Ave.,116th Street and Park Ave.,New York,NY,10029,Kori Petrovic,2127887476,http://www.grownyc.org,Sat/Sun  12pm-5pm,July 11-November 22,Y,M,40.79925,-73.9431,Y,"New York, NY 10029
(40.79925, -73.9431)"
New York,Fort Washington Greenmarket,"Fort Washington Ave., btwn 168th & 169th Sts.",Fort Washington Ave and West 168th St,New York,NY,10032,Chelsea Whittaker,2127887476,http://www.grownyc.org/greenmarket,Tuesday  8am-4pm,June 2-November 24,Y,M,40.84217,-73.94229,Y,"New York, NY 10032
(40.84217, -73.94229)"
New York,Gouverneur Hospital Youthmarket,"Madison St., btwn Clinton & Jefferson",227 Madison Street,New York,NY,10002,Kori Petrovic,2127887476,http://www.grownnyc.org/youthmarket,Thursday  12pm-5pm,July 9-November 19,Y,M,40.71321,-73.98779,Y,"New York, NY 10002
(40.71321, -73.98779)"
New York,Grass Roots Farmers' Market,"Around Jackie Robinson Park, 145th St., btwn Edgecomb & Bradhurst Aves.",West 145th St and Edgecombe Ave,New York,NY,10030,Sonya Simmons,2129961514,,Sat/Tue  9am-4pm,July 7-November 28,Y,M,40.82365,-73.94385,Y,"New York, NY 10030
(40.82365, -73.94385)"
New York,Hamilton Heights Green Youth Market,"Johnny Hartman Plaza, Amsterdam Ave btwn 143rd & 144th sts.",143rd Street and Amsterdam Ave,Manhattan,NY,10031,Nando Rodriguez,2122837044,http://brotherhood-sistersol.org/programs/environmental-program,Wednesday  11am-6pm,July 1-November 25,Y,M,40.82396,-73.94855,Y,"Manhattan, NY 10031
(40.82396, -73.94855)"
New York,Harvest Home East Harlem Farmers' Market,E 104th St. & Third Ave.,East 104th St and Third Ave,New York,NY,10029,Maritza Owens,2128283361,http://www.harvesthomefm.org,Thursday  8am-4pm,July 9-November 25,Y,M,40.79024,-73.94564,Y,"New York, NY 10029
(40.79024, -73.94564)"
New York,Harvest Home Harlem Hospital Farmers' Market,"506 Lenox Ave., btwn W 135th & W 137th Sts.",137th Street and Lennox Avenue,New York,NY,10037,Maritza Owens,2128283361,http://www.harvesthomefm.org,Friday  8am-7pm,Year-round,Y,YR,40.81539,-73.93985,Y,"New York, NY 10037
(40.81539, -73.93985)"
New York,Harvest Home Lenox Ave. Farmers' Market,"Lenox Ave , btwn W 117th & W 118th Sts.",150 Lenox Avenue,New York,NY,10027,Maritza Owens,2128283361,http://www.harvesthomefm.org,Saturday  8am-7pm,June 13-November 21,Y,M,40.80295,-73.9489,Y,"New York, NY 10027
(40.80295, -73.9489)"
New York,Harvest Home Metropolitan Farmers' Market,99th St. & 3rd Ave.,East 99th St and Third Ave,New York,NY,10029,Maritza Owens,2128283361,http://www.harvesthomefm.org,Friday  8am-4pm,July 10-November 20,Y,M,40.78713,-73.94792,Y,"New York, NY 10029
(40.78713, -73.94792)"
New York,Harvest Home West Harlem Farmers' Market,137th St. & Broadway,137th St and Broadway,New York,NY,10031,Maritza Owens,2128283361,http://www.harvesthomefm.org,Tuesday  8am-4pm,July 7-November 24,Y,M,40.82136,-73.95404,Y,"New York, NY 10031
(40.82136, -73.95404)"
New York,Inwood Park Greenmarket,"Isham St., btwn Seaman Ave. & Cooper St.",Isham St and Seaman St,New York,NY,10034,Chelsea Whittaker,2127887476,http://www.grownyc.org/greenmarket,Saturday  8am-3pm,Year-round,Y,YR,40.86988,-73.9209,Y,"New York, NY 10034
(40.86988, -73.9209)"
New York,Lower East Side Youthmarket,Grand St. btwn Pitt & Willett Sts.,Grand St and Pitt St,New York,NY,10002,Kori Petrovic,2127887476,http://www.grownyc.org/youthmarket,Thursday  11am-6pm,July 9-November 19,Y,M,40.71523,-73.9843,Y,"New York, NY 10002
(40.71523, -73.9843)"
New York,Marcus Garvey Park HERBan Farmers' Market,"Marcus Garvey Park , 124th St. & 5th Ave.",124th St and 5th Ave,New York,NY,10027,Tupacamaru Tiwoni,6463517611,http://www.herbanfarmersmarket.org,Saturday  9am-5pm,June 27-November 14,Y,M,40.80501,-73.94486,Y,"New York, NY 10027
(40.80501, -73.94486)"
New York,Morningside Park Farmers' Market,W 110th St. & Manhattan Ave.,West 110th St and Manhattan Ave,New York,NY,10025,Dagmar Kostkova,9149234837,http://www.downtoearthmarkets.com,Saturday  9am-5pm,May 23-December 26,Y,P/M/X,40.80116,-73.95965,Y,"New York, NY 10025
(40.80116, -73.95965)"
New York,Mount Sinai Hospital Greenmarket,Madison Ave. at E 99th St.,East 99th St and Madison Ave,New York,NY,10029,Chelsea Whittaker,2127887476,http://www.grownyc.org/greenmarket,Wednesday  8am-5pm,June 24-November 25,Y,M,40.78918,-73.95276,Y,"New York, NY 10029
(40.78918, -73.95276)"
New York,Project EATS Frederick Douglass Houses Farmstand,"Frederick Douglass Houses, W 100th Street, btwn Columbus & Amsterdam Aves.",830 Amsterdam Ave,New York,NY,10025,Charlie Wirene,2126121528,http://www.projecteats.org,Saturday  10am-4pm,June 13-November 14,Y,M,40.79703,-73.96822,Y,"New York, NY 10025
(40.79703, -73.96822)"
New York,Rachel Mae's Farmers' Market,"Seward Pk (Fountain Area), Essex St., btwn Hester & Canal Sts.",Seward Park,New York,NY,10002,Rachel McGrath,5162413620,,Saturday  9am-5pm,May 2-December 19,Y,P/M/X,40.71491,-73.98925,N,"New York, NY 10002
(40.71491, -73.98925)"
New York,Rockefeller Center Greenmarket,"Rockefeller Plaza, at 50th St.",Rockefeller Plaza and West 50th St,New York,NY,10112,Chelsea Whittaker,2127887476,http://www.grownyc.org/greenmarket,Wed/Thu/Fri  8am-5pm,July 22-August 28,Y,M,40.75907,-73.97846,N,"New York, NY 10112
(40.75907, -73.97846)"
New York,Saint Mark's Church Greenmarket,"E 10th St., at 2nd Ave.",East 10th St and Second Ave,New York,NY,10003,Chelsea Whittaker,2127887476,http://www.grownyc.org/greenmarket,Tuesday  8am-6pm,June 2-November 24,Y,M,40.72975,-73.98682,Y,"New York, NY 10003
(40.72975, -73.98682)"
New York,SoHA Square 1 Farmers' Market,"Renaissance Health Care Network Diagnostic &, Treatment Center, 264 W 118th Street",264 West 118th Street,Manhattan,NY,10026,Tiffany Simone,6312137642,http://www.sohasquare.com,Thu/Fri  8am-5pm,June 11-December 24,Y,P/M/X,40.80511,-73.95487,Y,"Manhattan, NY 10026
(40.80511, -73.95487)"
New York,SoHA Square 2 Farmers' Market,"A. Philip Randolph Square Park, 7 Av, St Nicholas Av, W 117 St",7th Avenue and 117th Street,New York,NY,10026,Tiffany Simone,6312137642,http://www.sohasquare.com,Sat/Sun  8am-5pm,May 1-December 24,Y,P/M/X,40.80394,-73.95209,Y,"New York, NY 10026
(40.80394, -73.95209)"
New York,Staten Island Ferry Whitehall Greenmarket,"4 South St., inside Ferry Terminal Bldg.",4 South St,New York,NY,10005,Chelsea Whittaker,2127887476,http://www.grownyc.org/greenmarket,Tue/Fri  8am-7pm,Year-round,Y,YR,40.70155,-74.01213,Y,"New York, NY 10005
(40.70155, -74.01213)"
New York,Stuyvesant Town Greenmarket,"14th St. Loop & Ave A, South end of oval",1 Stuyvesant Oval,New York,NY,10009,Chelsea Whittaker,2127887476,http://www.grownyc.org/greenmarket,Sunday  9:30am-4pm,May 17-November 22,Y,P/M,40.73146,-73.97875,Y,"New York, NY 10009
(40.73146, -73.97875)"
New York,Tompkins Square Greenmarket,"Tompkins Square Park, E 7 St. at Ave A",Avenue A and East 7th St,New York,NY,10009,Chelsea Whittaker,2127887476,http://www.grownyc.org/greenmarket,Sunday  9am-6pm,Year-round,Y,YR,40.72602,-73.98353,Y,"New York, NY 10009
(40.72602, -73.98353)"
New York,Tribeca Greenmarket,"Greenwich St., btwn Chambers & Duane Sts.",Greenwich St and Chambers St,New York,NY,10007,Chelsea Whittaker,2127887476,http://www.grownyc.org/greenmarket,Wed/Sat  8am-3pm,Year-round,Y,YR,40.7163,-74.01097,Y,"New York, NY 10007
(40.7163, -74.01097)"
New York,Tucker Square Greenmarket,Columbus Ave btwn W 66th & W 65th Sts.,Columbus and West 66th St,New York,NY,10023,Chelsea Whittaker,2127887476,http://www.grownyc.org/greenmarket,Thu/Sat  8am-5pm,Year-round,Y,YR,40.77361,-73.98158,Y,"New York, NY 10023
(40.77361, -73.98158)"
New York,Union Square Greenmarket,"E 17 St & Broadway, West & North side of Union Sq. Pk",Broadway and East 17th St,New York,NY,10003,Chelsea Whittaker,2127887476,http://www.grownyc.org/greenmarket,M/W/F/Sat  8am-6pm,Year-round,Y,YR,40.73712,-73.99029,Y,"New York, NY 10003
(40.73712, -73.99029)"
New York,Water Street at Coenties Greenmarket,Water Street at Coenties Slip,Water Street and Coenties Slip,New York,NY,10004,Chelsea Whittaker,2127887476,http://www.grownyc.org/greenmarket,Thursday  8am-6pm,July 2-November 19,Y,M,40.70328,-74.01024,Y,"New York, NY 10004
(40.70328, -74.01024)"
New York,West 175th St. Greenmarket,"W 175th St., btwn Wadsworth & St. Nicholas Ave",West 175th St and Broadway,New York,NY,10033,Chelsea Whittaker,2127887476,http://www.grownyc.org/greenmarket,Thursday  8am-5pm,June 25-November 19,Y,M,40.84622,-73.93847,Y,"New York, NY 10033
(40.84622, -73.93847)"
New York,West 57th St. Greenmarket,"Ninth Ave., btwn 56th & 57th Sts.",West 57th St and Ninth Ave,New York,NY,10019,Chelsea Whittaker,2127887476,http://www.grownyc.org/greenmarket,Sat/Wed  8am-5pm,May 6-December 23,Y,P/M/X,40.76792,-73.98572,Y,"New York, NY 10019
(40.76792, -73.98572)"
New York,West 79th St. Greenmarket,"Columbus Ave., btwn W 78th &  W 81st Sts.",West 79th St and Columbus Ave,New York,NY,10024,Chelsea Whittaker,2127887476,http://www.grownyc.org/greenmarket,Sunday  9am-5pm,Year-round,Y,YR,40.78195,-73.97548,Y,"New York, NY 10024
(40.78195, -73.97548)"
New York,West 97th Street Greenmarket,"97th St., Amsterdam & Columbus Aves.",West 97th St and Columbus Ave,New York,NY,10025,Chelsea Whittaker,2127887476,http://www.grownyc.org/greenmarket,Friday  8am-2pm,Year-round,Y,YR,40.79356,-73.96701,Y,"New York, NY 10025
(40.79356, -73.96701)"
Niagara,Lockport Community Farmer's Market,57 Canal Street,57 Canal Street,Lockport,NY,14094,Heather Peck,7164340212,http://www.lockportcommunitymarket.com,Saturday  9am-2pm,July 4-October 3,Y,M,43.17073,-78.69438,Y,"Lockport, NY 14094
(43.17073, -78.69438)"
Niagara,Lockport Farmers' Market,"South lot on Walnut St., West of Pine St.",Walnut St and Pine St,Lockport,NY,14094,Richelle Pasceri,7164396674,,Daily  9am-9pm; FMNP available M/T/Sat,May 15-November 30,Y,P/M,43.16882,-78.69197,N,"Lockport, NY 14094
(43.16882, -78.69197)"
Niagara,Middleport Community Farmers' Market,"7 Eleven parking lot, 81 Rochester Rd.","Wilson Farms, Rte. 31",Middleport,NY,14105,Lynn & Stacey McAvoy,7165149645,,Wednesday  2pm-6pm,June 10-October 28,Y,M,43.20569,-78.49963,Y,"Middleport, NY 14105
(43.20569, -78.49963)"
Niagara,Niagara Falls City Market,"Pine Ave., Market Square, btwn 18th & 19th Sts.",Pine Ave and 18th St,Niagara Falls,NY,14301,Victor Muto,7167540798,http://www.local-farmers-markets.com/market/3569/niagara-falls/niagara-falls-city-market,Mon/Wed/Fri  9am-5pm,Year-round,Y,YR,43.09511,-79.04017,N,"Niagara Falls, NY 14301
(43.09511, -79.04017)"
Niagara,North Tonawanda City Farmers' Market,Robinson Rd. & Payne Ave.,Robinson St and Bryant Street,North Tonawanda,NY,14120,John Long,7168306025,,Tue/Thu/Sat  7am-1pm,Year-round,Y,YR,43.03386,-78.86971,Y,"North Tonawanda, NY 14120
(43.03386, -78.86971)"
Niagara,Prudom Farms Farmstand,2575 Carmen Rd.,2575 Carmen Road,Middleport,NY,14105,Stacey McAvoy,7165149645,http://www.prudomfarms.com,Daily  10am-8pm,Year-round,Y,YR,43.28346,-78.48709,Y,"Middleport, NY 14105
(43.28346, -78.48709)"
Niagara,Schwab Farm Market,"9035 Rochester Rd, Gasport",9035 Rochester Rd,Gasport,NY,14067,Sharon Brent,7165600853,http://www.schwabsfarm.com,"Sunday 9am-5pm, Mon-Fri 8am-7pm, Saturday 8am-6pm",Year Round,Y,YR,43.20425,-78.52308,Y,"Gasport, NY 14067
(43.20425, -78.52308)"
Oneida,Berkshire Rome Vendors Market,"101 W. Dominick St., Berkshire Bank parking lot",101 West Dominick Street,Rome,NY,13440,Judith Wagner,3153395182,https://www.facebook.com/pages/Berkshire-Rome-Vendors-Market/903457103006178,Friday  9am-6pm,May 1-November 13,Y,P/M,43.21208,-75.46034,Y,"Rome, NY 13440
(43.21208, -75.46034)"
Oneida,Boonville Farmers' Market,222 Schuyler St.,222 Schuyler St,Boonville,NY,13309,Kelly Ulrich,3153359851,,Thursday  12pm-6pm,June 18-October 15,Y,M,43.48178,-75.34404,N,"Boonville, NY 13309
(43.48178, -75.34404)"
Oneida,City of Sherrill Farmers' Market,"377 Sherrill Rd., Next to the Gazebo",377 Sherrill Rd.,Sherrill,NY,13641,Sara Getman,3153636525,http://www.sherrillny.org,Tuesday  3pm-7pm,June 2-October 6,Y,M,43.07179,-75.59931,N,"Sherrill, NY 13641
(43.07179, -75.59931)"
Oneida,Clinton Farmers' Market,"Village Green, West Park Row",Village Green,Clinton,NY,13323,Ferris Betrus Jr.,3158531735,http://www.clintonnychamber.org,Thursday  10am-4pm,June 4-October 8,Y,M,43.04823,-75.37883,N,"Clinton, NY 13323
(43.04823, -75.37883)"
Oneida,Oneida County Public Market,"REA Wing,  Union Station,  321 Main St. Downtown Utica",321 Main Street,Utica,NY,13501,Elizabeth Irons,3157983639,http://www.oneidacountymarket.com,Saturday  9am-1pm,May 16-October 31,Y,P/M,43.10393,-75.2239,Y,"Utica, NY 13501
(43.10393, -75.2239)"
Oneida,Oneida County WINTER Public Market,"Main Lobby Union Station, 312 Main Street, Downtown Utica",321 Main Street,Utica,NY,13501,Elizabeth Irons,3157983639,http://www.oneidacountymarket.com,"Alt. Saturdays  , 9am-1pm",November 7-April 9,Y,X/W/P,43.10393,-75.2239,Y,"Utica, NY 13501
(43.10393, -75.2239)"
Oneida,Rome Farmers' Market,"1106 N James St., Franklyn's Field (City Park)",1106 North James Street,Rome,NY,13440,Lori Frieden,3152717090,http://www.positivelyrome.com,Wednesday  2pm-7pm,June 17-October 28,Y,M,43.22396,-75.44779,N,"Rome, NY 13440
(43.22396, -75.44779)"
Oneida,Trenton Farmers' Market,"Village Green, Holland Patent",Main St and Church St,Holland Patent,NY,13354,Nick Keblish,3158654423,http://www.trentonmarket.com,Saturday  9am-1pm,June 13-October 10,Y,M,43.24131,-75.25753,Y,"Holland Patent, NY 13354
(43.24131, -75.25753)"
Oneida,Utica Farmers' Market,"Chancellor Park, Bleeker/Elizabeth St.",Bleeker St and 1st St,Utica,NY,13501,Thalia Hunter,3157920114,,Wednesday  8am-5pm,June-October,Y,M,43.10043,-75.22483,Y,"Utica, NY 13501
(43.10043, -75.22483)"
Oneida,Wagner Farms,"5841 Old Oneida Rd., Rome",5841 Old Oneida Rd,Rome,NY,13440,Ronald Wagner,3153395182,https://www.facebook.com/pages/Wagner-Farms/320403351460689?rf=100489860011908,Daily (except Fri)  9am-6pm,Mid May-December 24,Y,M/X,43.1805,-75.50086,Y,"Rome, NY 13440
(43.1805, -75.50086)"
Oneida,Westmoreland Farmers' Market,"Seymour's Diner, 4825 State Route 233",4834 State Route 233,Westmoreland,NY,13490,Denise & Bernie Szarek,3158535901,,Sunday  9am-1pm,June 7-October 4,Y,M,43.16264,-75.41751,N,"Westmoreland, NY 13490
(43.16264, -75.41751)"
Oneida,Westmoreland WINTER Farmers' Market,"Westmoreland Fire Dept., 100 Station Rd.",100 Station Rd,Westmoreland,NY,13490,Denise & Bernie Szarek,3158535901,,Saturday  9am-12pm,November 7-April 2,N,X/W/P,43.11608,-75.40039,N,"Westmoreland, NY 13490
(43.11608, -75.40039)"
Oneida,Whitesboro Farmers' Market,"Whitesboro Village Green, Main & Clinton Streets",Main St and Clinton St,Whitesboro,NY,13492,Beth Park,3157361613,http://www.whitesborofarmersmarket.com,Monday  3pm-7pm,June 2-October 12,N,M,43.121773,-75.291136,N,"Whitesboro, NY 13492
(43.121773, -75.291136)"
Onondaga,Brownson Family Farm,"8149 Bridgeport Kirkville Rd., Kirkville",8149 Kirkville Bridgeport Rd,Kirkville,NY,13082,James A Brownson,3156562025,http://www.brownsonfamilyfarm.com,Daily  10am-7pm,April 1-January 1,Y,P/M/X,43.12132,-75.95507,Y,"Kirkville, NY 13082
(43.12132, -75.95507)"
Onondaga,Central NY Regional Market Authority,"2100 Park St., Syracuse",2100 Park Street,Syracuse,NY,13208,Eugene Elemos,3154228647,http://www.cnyrma.com,"Sat/Sun 7a-2p Year-round, Thu  7am-2pm  May-Nov",Year-round,Y,YR,43.07269,-76.16835,Y,"Syracuse, NY 13208
(43.07269, -76.16835)"
Onondaga,Cicero Farmers' Market,"Northern Onondaga Public Library-Cicero, 8686 Knowledge Lane",8686 Knowledge Lane,Cicero,NY,13039,Adrienne Canino,3156992534,http://www.nopl.org/,Tuesday  3pm-7pm,May 26-September 8,Y,P/M,43.19061,-76.12718,N,"Cicero, NY 13039
(43.19061, -76.12718)"
Onondaga,Downtown Syracuse Farmers' Market,100 Clinton Square,Clinton St and Water St,Syracuse,NY,13202,Charles McFadden,3154228284,,Tuesday  7am-3pm,June 9-October 13,Y,M,43.05054,-76.15354,Y,"Syracuse, NY 13202
(43.05054, -76.15354)"
Onondaga,Fayetteville Farmers' Market,Fayetteville Town Center,Genesee Turnpike and South Manlius Street,Fayetteville,NY,13066,Stephanie Lipsey,3157509124,http://www.fayettevillefarmersmarketcny.com,Thursday 12pm-6pm,June 4-October 15,Y,M,43.02999,-76.00452,N,"Fayetteville, NY 13066
(43.02999, -76.00452)"
Onondaga,Liverpool Bayberry Plaza Farmers' Market,"Kinney lot, 7608 Oswego Rd.",Blackberry Rd and Oswego Rd,Liverpool,NY,13090,Kathy Parrotta,3156521463,,Wednesday  8am-3pm,May 6-October 28,Y,P/M,43.14036,-76.22751,N,"Liverpool, NY 13090
(43.14036, -76.22751)"
Onondaga,Skaneateles Farmers' Market,"1 East Austin St., Austin Park Pavilion",Austin St and Jordan St,Skaneateles,NY,13152,Sue Murphy,3157279320,http://www.townofskaneateles.com,"Thursday  3:30-6:30, Saturday  10am-1pm",May 14-October 10,Y,P/M,42.95089,-76.4309,N,"Skaneateles, NY 13152
(42.95089, -76.4309)"
Onondaga,Syracuse Eastside Neighborhood Market,"Westcott Community Ctr, 826 Euclid Ave",826 Euclid Ave,Syracuse,NY,13210,Jennifer Walton,3154788634,http://www.wescottcc.org/farmers-market,Wednesday  2pm-6pm,June 17-October 28,Y,M,43.03662,-76.1192,Y,"Syracuse, NY 13210
(43.03662, -76.1192)"
Ontario,Canandaigua Farmers' Market,167 Mill St.,Beeman St and Mill St,Canandaigua,NY,14424,Phillip Munson,5853297666,http://www.canandaiguafarmersmarket.com,Sat  8:30am-12:30pm,June 6-October 31,Y,M,42.88534,-77.27837,N,"Canandaigua, NY 14424
(42.88534, -77.27837)"
Ontario,Canandaigua VA Farmers' Market,"VA Medical Center, Parking lot 1A, 400 Fort Hill Rd.",400 Fort Hill Ave,Canandaigua,NY,14424,Debbie Brahm,5853937803,,Tuesday  1:30pm-5pm,June 16-October 13,N,M,42.90096,-77.27033,N,"Canandaigua, NY 14424
(42.90096, -77.27033)"
Ontario,Clifton Springs Farmers' Market,Kendal St. & Railroad Ave.,17-31 Railroad Ave,Clifton Springs,NY,14432,Natalie Baris,3157303981,,Friday  3pm-6pm,June 5-September 25,N,M,42.963153,-77.139598,Y,"Clifton Springs, NY 14432
(42.963153, -77.139598)"
Ontario,Foodlink Mobile Market-Thompson Health,"350 Parrish St., Canandaigua",350 Parrish Street,Canandaigua,NY,14424,Mitch Gruber,5853283380,http://www.foodlinkny.org,Friday  11:15am-12pm,July 10-November 27,Y,M,42.87616,-77.28907,Y,"Canandaigua, NY 14424
(42.87616, -77.28907)"
Ontario,Foodlink Mobile Mkt-Clifton Springs Hospital,"2 Coulter Rd., Clifton Springs",2 Coulter Road,Clifton Springs,NY,14432,Mitch Gruber,5853283380,http://www.foodlinkny.org,Tuesday  10am-10:45am,July 7-December 1,Y,M,42.96042,-77.13637,Y,"Clifton Springs, NY 14432
(42.96042, -77.13637)"
Ontario,Foodlink Mobile Mkt-Geneva General Hospital,"196 North St., Geneva",196 North Street,Geneva,NY,14456,Mitch Gruber,5853283380,http://www.foodlinkny.org,Friday  10am-10:45am,July 10-November 27,Y,M,42.87649,-76.9883,Y,"Geneva, NY 14456
(42.87649, -76.9883)"
Ontario,Geneva Farmers' Market,"Municipal parking lot, Exchange St.",400 Exchange St,Geneva,NY,14456,Marie Milligan,3157895957,http://visitgenevany.com/current-residents/genevas-farmers-market,Thursday  7am-1pm,June 11-October 22,Y,M,42.8691,-76.98096,N,"Geneva, NY 14456
(42.8691, -76.98096)"
Ontario,Victor Farmers' Market,"Village Hall Parking Lot, 60 East Main St.",60 East Main St,Victor,NY,14564,Kathy Rayburn,5857425073,http://www.victorldc.org,Wednesday  3pm-7pm,June 3-October 28,Y,M,42.98134,-77.40859,N,"Victor, NY 14564
(42.98134, -77.40859)"
Orange,City of Port Jervis Farmers' Market,"Mini Mall Parking Lot, Front St.",54-56 Front St,Port Jervis,NY,12771,Mary Ann Schultes,8458584017,,Saturday  8am-1pm,July 18-October 17,Y,M,41.373036,-74.691185,N,"Port Jervis, NY 12771
(41.373036, -74.691185)"
Orange,Cornwall Farmers' Market,"Town Hall, 183 Main St. Cornwall, NY  12518",183 Main St,Cornwall,NY,12518,Erin O'Dell,8455342070,http://www.cornwallcoop.com/farmer%E2%80%99s-market/,"Sat  10am-2pm, Wed  12am-6pm (ends Oct 8)",June 3-Oct 31,N,YR,41.438985,-74.028493,N,"Cornwall, NY 12518
(41.438985, -74.028493)"
Orange,Florida Farmers' Market,"Routes 17 A & 94, Village of Florida, across from Quick Check",133 N Main Street,Florida,NY,10921,Louise Schultz,8456414482,,Tuesday  9am-2pm,June 16-October 27,Y,M,41.33775,-74.35873,N,"Florida, NY 10921
(41.33775, -74.35873)"
Orange,Goshen Farmers' Market,Chruch Park at Main St & S. Church St.,Main St and Church St,Goshen,NY,10924,Terri Smallin,8452947741,http://www.goshennychamber.com,Friday  10am-5pm,May 29-October 30,Y,P/M,41.40219,-74.32408,N,"Goshen, NY 10924
(41.40219, -74.32408)"
Orange,Healthy Orange Farmers' Market,"130 Broadway, next to DMV bldg, btwn Johnston & Landers St., Newburgh",131 Broadway,Newburgh,NY,12550,Meg Oakes,8453606691,,Tuesday  10am-2pm,July 7-October 20,Y,M,41.50009,-74.01254,Y,"Newburgh, NY 12550
(41.50009, -74.01254)"
Orange,JADS Farm Stand,"641 County Route 1, Pine Island",641 County Route 1,Pine Island,NY,19069,Kristie Madura,8452581102,,Daily  9am-5pm,April 1-December 24,Y,P/M/X,41.29566,-74.46214,N,"Pine Island, NY 19069
(41.29566, -74.46214)"
Orange,Middletown Farmers' Market,"Erie Way, btwn Montgomery & Cottage Sts.",32-48 Cottage Street,Middletown,NY,10940,Anne Kelly,8453438075,http://www.middletownbid.org,Saturday  8am-1pm,June 6-October 24,Y,M,41.44814,-74.41459,N,"Middletown, NY 10940
(41.44814, -74.41459)"
Orange,Monroe Museum Village Farmers' Market,"1010 Rt. 17M, Museum Village parking lot",1010 State Route 17M,Monroe,NY,10950,John Lupinski,8452945557,,Wednesday  9am-3pm,June 17-October 28,Y,M,41.344,-74.19742,N,"Monroe, NY 10950
(41.344, -74.19742)"
Orange,Monroe Park & Ride,"Park & Ride Commuter Lot, Millpond Parkway",68 Millpond Pkwy,Monroe,NY,10950,Irene Conklin,8457828341,,Sunday 9am-2pm,M,N,June 14-November1,41.32983,-74.189196,N,"Monroe, NY 10950
(41.32983, -74.189196)"
Orange,Montgomery/Crossroads Market,Lawn @ Intersection of 17K & Rte 208,1040 State Route 17K,Montgomery,NY,12549,Roxana Baly,8456160126,,,,N,,41.525547,-74.20095,N,"Montgomery, NY 12549
(41.525547, -74.20095)"
Orange,Municipal Square Farmers' Market,"One Municipal Square, Walden",5 Scofield St,Walden,NY,12586,Kerri-Ann Lynch,8454766241,http://www.villageofwalden.org,Thursday  2pm-7pm,July 2-October 1,Y,M,41.55983,-74.1895,Y,"Walden, NY 12586
(41.55983, -74.1895)"
Orange,Newburgh Mall Farmers' Market,"Newburgh Mall Parking lot, 1401 Route 300 Newburgh",1401 New York 300,Newburgh,NY,12550,Katie Levato,8455641400,http://www.newburghmall.com,Saturday  10am-2pm,July 11-September 26,Y,M,41.51758,-74.0714,N,"Newburgh, NY 12550
(41.51758, -74.0714)"
Orange,Pine Bush Farmers' Market,"62 Main St., municipal parking lot, behind Town Hall",62 Main St,Pine Bush,NY,12566,Ron Carter,8459780298,http://www.pinebushfarmersmarket.com,Saturday  9am-2pm,May 30-October 17,Y,P/M,41.60953,-74.30034,N,"Pine Bush, NY 12566
(41.60953, -74.30034)"
Orange,Sugar Loaf Farmers Market,"Sugar Loaf Business Center Parking Lot, Kings hwy",1398 Kings Hwy,Chester,NY,10918,Veronica vero,8484678427,,Thursday 3pm-7pm,M,N,June 11-October 31,41.320391,-74.285101,N,"Chester, NY 10918
(41.320391, -74.285101)"
Orange,Tuxedo Farmers' Market,"Tuxedo Train Station lot, 240 Rt. 17",240 State Route 17,Tuxedo,NY,10987,Christina Tremblay,8459154058,http://www.tuxedofarmersmarket.com,Saturday  9am-2pm,June 20-October 31,Y,M,41.19447,-74.18447,N,"Tuxedo, NY 10987
(41.19447, -74.18447)"
Orange,Tuxedo WINTER Farmers' Market,"Tuxedo Train Station lot, indoor, 240 Rt. 17",240 New York 17,Tuxedo Park,NY,10987,Christina Tremblay,8459154058,,1st Saturday of the month  10am-2pm,X,N,December-April,41.194475,-74.184519,N,"Tuxedo Park, NY 10987
(41.194475, -74.184519)"
Orange,Warwick Valley Farmers' Market,"South St. parking lot, Municipal lot, 1 block east of Main St.",South St and Bank St,Warwick,NY,10990,Penny Steyer,8459860043,http://www.warwickvalleyfarmersmarket.org,Sunday  9am-2pm,May 10-November 22,Y,P/M,41.25656,-74.35858,Y,"Warwick, NY 10990
(41.25656, -74.35858)"
Orange,West Point/Town of Highlands Farmers' Market,"Main St, Municipal lot, across from Visitor's Center",Main St and Cozzens Ave,Highlands,NY,10928,Hannah Decker,8459778016,https://www.facebook.com/pages/West-Point-Town-of-Highlands-Farmers-Market/217461788363902,Sunday  9am-2pm,June 14-November 8,Y,M,41.3723,-73.96434,N,"Highlands, NY 10928
(41.3723, -73.96434)"
Orleans,Canal Village Farmers' Market,"127 W Center St., Medina",127 W Center St.,Medina,NY,14103,Gail Miller,5857983904,http://www.bentshall.org/market,Saturday  8am-1pm,July 11-October 31,Y,M,43.220217,-78.38851,N,"Medina, NY 14103
(43.220217, -78.38851)"
Orleans,Foodlink MM-Medina Memorial Hospital,"200 Ohio St., Medina",200 Ohio Street,Medina,NY,14103,Mitch Gruber,5853283380,http://www.foodlinkny.org,Wed  10am-10:45am,July 8-November 25,Y,M,43.22401,-78.3976,Y,"Medina, NY 14103
(43.22401, -78.3976)"
Orleans,Watt Farms Country Market,"3121 Oak Orchard Rd, Albion",3121 Oak Orchard Rd,Albion,NY,14411,Karen Watt,5855898000,http://www.wattfarms.com,"Daily  9am-8pm May-Oct, Sat-Mon 10am-4pm Nov&Dec",May 1-December 24,Y,P/M/X,43.265158,-78.192266,N,"Albion, NY 14411
(43.265158, -78.192266)"
Oswego,Fulton Farmers' Market,"Canalview Park & Shop lot, South Second St. (Rt. 481)",South Second St and Canalview Mall,Fulton,NY,13069,Greg Mills,3153437681,,Saturday  8am-12pm,May 30-October 24,Y,P/M,43.32321,-76.41577,Y,"Fulton, NY 13069
(43.32321, -76.41577)"
Oswego,Hillside Antique & Farmers' Market,"7753 State Route 3 (Seaway Trail), Pulaski",7753 State Route 3,Pulaski,NY,13142,Dennis Palmer,6316031650,,"Friday  10am-4pm, Sat/Sun  9am-5pm",May 1-September 27,Y,P/M,43.58759,-76.17348,N,"Pulaski, NY 13142
(43.58759, -76.17348)"
Oswego,New Haven Farmers' Market,"Town Hall, 4279 State Route 104",4279 State Route 104,New Haven,NY,13121,Debra Allen,3159633900,http://www.newhavenny.com,Monday  3pm-6pm,June 1-August 31,Y,M,43.47981,-76.31714,N,"New Haven, NY 13121
(43.47981, -76.31714)"
Oswego,Oswego Farmers' Market,"West First St., btwn Bridge & W. Oneida Sts.",West Bridge St and West 1st St,Oswego,NY,13126,Greg Mills,3153437681,,Thursday  4:30pm-8pm,May 28-October 8,Y,P/M,43.45656,-76.51127,Y,"Oswego, NY 13126
(43.45656, -76.51127)"
Oswego,Pulaski Farmers' Market,"South Park, Main St.",Lake St and Broad St,Pulaski,NY,13142,Brian Leary,3155589976,http://www.pulaskifarmersmarket.com,Friday  4pm-8pm,June 5-September 25,Y,M,43.56714,-76.12813,N,"Pulaski, NY 13142
(43.56714, -76.12813)"
Otsego,Cooperstown Farmers' Market,101 Main St. in Pioneer Alley,101 Main St,Cooperstown,NY,13326,Lyn Weir,6075476195,http://www.cooperstownfarmersmarket.org,"Sat 8am-2pm May-Aug;,  9am-2pm Sept-Dec; , 10am-2pm Jan-Apr",Year-round,Y,YR,42.70001,-74.92526,Y,"Cooperstown, NY 13326
(42.70001, -74.92526)"
Otsego,Morris Farmers' Market,"Guy Rathbon Park, Main St. behind Firehouse",Main St and Church St,Morris,NY,13808,Paul Tourtellotte,6072635423,,Thursday  4pm-6pm,May 28-October 8,Y,P/M,42.54813,-75.24686,Y,"Morris, NY 13808
(42.54813, -75.24686)"
Otsego,Oneonta Farmers' Market,"Muller Plaza, 205 Main St. (Rt. 7)",202 Main Street,Oneonta,NY,13820,Dana LaCroix,6074370158,http://www.destinationoneonta.com,Saturday  9am-1pm,May-October,Y,P/M,42.454,-75.06185,N,"Oneonta, NY 13820
(42.454, -75.06185)"
Otsego,Richfield Springs Area Farmers' Market,"Spring Park, Main St. (Rt. 20), across from Post Office",Main St and Church St,Richfield Springs,NY,13439,Ronald Bayzon,3158582703,http://farmmarket.herkimerhealthnet.com/richfieldsprings.html,"Thursday  2pm-6pm, Saturday  8am-1pm",June 20-October 31,Y,M,42.85342,-74.98512,N,"Richfield Springs, NY 13439
(42.85342, -74.98512)"
Putnam,Brewster Farmers' Market,"Municipal lot, 208 E. Main St., Larry Jewell Municipal Bldg",208 E. Main St,Brewster,NY,10509,Jennifer Hinsman,8452797927,http://www.brewsterfarmersmarket.com,Wed/Sat  9am-2pm,June 13-November 21,Y,M,41.39526,-73.60705,N,"Brewster, NY 10509
(41.39526, -73.60705)"
Putnam,Cold Spring Farmers' Market Inc.,"Boscobel House & Gardens, 1601 Rt 9D, Garrison",1601 State Route 9D,Cold Spring,NY,10516,Krystal Ford,8452145441,http://www.csfarmmarket.org,Saturday  8:30am-1:30pm,May 11-Nov 20,Y,P/M,41.41779,-73.94122,N,"Cold Spring, NY 10516
(41.41779, -73.94122)"
Putnam,Hudson Valley Regional Farmers' Market,"15 Mt Ebo Dr, Brewster",15 Mt Ebo Drive,Brewster,NY,10509,Melissa Kamin,8456292824,http://www.hudsonvalleyregionalfarmersmarket.org,Sunday  11am-3pm,Year-round,Y,YR,41.43643,-73.57217,N,"Brewster, NY 10509
(41.43643, -73.57217)"
Queens,Astoria Greenmarket,"14th St., btwn 31st Ave. & 31st Rd.",14th St and 31st Ave,Astoria,NY,11106,Chelsea Whittaker,2127887476,http://www.grownyc.org/greenmarket,Wednesday  8am-3pm,July 1-November 18,Y,M,40.76825,-73.93203,Y,"Astoria, NY 11106
(40.76825, -73.93203)"
Queens,Corona Greenmarket,"Roosevelt Ave., btwn 103rd & 104th Sts.",Roosevelt Ave and 103rd St,Corona,NY,11368,Chelsea Whittaker,2127887476,http://www.grownyc.org/greenmarket,Friday  8am-3pm,July 10-November 20,Y,M,40.74988,-73.86271,Y,"Corona, NY 11368
(40.74988, -73.86271)"
Queens,Culinary Kids Farmers' Market,"30-15 Seagirt Blvd. & Beach 31 St., Far Rockaway",Seagirt Blvd and Beach 31st St,Far Rockaway,NY,11691,Malisa Rivera,3473210423,http://www.culinarykidsdaycamp.org,Saturday  10am-3pm,June 20-September 26,Y,M,40.59581,-73.76384,Y,"Far Rockaway, NY 11691
(40.59581, -73.76384)"
Queens,Culinary Kids Farm Rockaway Farmers' Market,444 Beach 58th St. & Beach Channel Dr.,58th Street and Beach Channel Drive,Queens,NY,11692,Marion Moses,3473210423,http://www.culinarykidsdaycamp.org,Sun/Fri  10am-4pm,June 20-October 24,Y,M,40.59446,-73.78804,Y,"Queens, NY 11692
(40.59446, -73.78804)"
Queens,Edgemere Farm Farmstand,"385 Beach 45th St., Far Rockaway",385 Beach 45th Street,Queens,NY,11691,Elizabeth Gilchrist,3477214610,http://www.edgemerefarm.org,Saturday  9am-3pm,May 2-November 7,Y,P/M,40.59536,-73.77654,Y,"Queens, NY 11691
(40.59536, -73.77654)"
Queens,Elmhurst Hospital Greenmarket,"41st Ave., btwn 80th & 81st Sts.",41st Ave and 80th St,Elmhurst,NY,11373,Chelsea Whittaker,2127887476,http://www.grownyc.org,Tuesday  8am-4pm,June 2-November 24,Y,M,40.7458,-73.88548,Y,"Elmhurst, NY 11373
(40.7458, -73.88548)"
Queens,Forest Hills Greenmarket,"at Post Office, South side of Queens Blvd at 70th Ave.",Queens Blvd and 70th Ave,Queens,NY,11375,Chelsea Whittaker,2127887476,http://www.grownyc.org/greenmarket,Sunday  8am-3pm,Year-round,Y,YR,40.72188,-73.84639,Y,"Queens, NY 11375
(40.72188, -73.84639)"
Queens,Harvest Home City Line Farmers' Market,"Drew St., btwn 101st & Liberty Aves., Jamaica",Liberty Ave and 101st Ave,Brooklyn,NY,11208,Maritza Owens,2128283361,http://www.harvesthomefm.org,Saturday  8am-4pm,July 11-November 21,Y,M,40.67922,-73.86376,Y,"Brooklyn, NY 11208
(40.67922, -73.86376)"
Queens,Jackson Heights Greenmarket,34th Ave. at 78th St,34th Ave and 78th St,Jackson Heights,NY,11372,Chelsea Whittaker,2127887476,http://www.grownyc.org/greenmarket,Sunday  8am-3pm,Year-round,Y,YR,40.75322,-73.88968,Y,"Jackson Heights, NY 11372
(40.75322, -73.88968)"
Queens,Jamaica Friday Farmers' Market,160th St. off Jamaica Ave.,160th St and Jamaica Ave,Jamaica,NY,11432,Dagmar Kostkova,9149234837,http://www.downtoearthmarkets.com,Friday 8:30am-4pm,June 19-November 20,Y,M,40.70374,-73.79914,Y,"Jamaica, NY 11432
(40.70374, -73.79914)"
Queens,Jamaica Saturday Farmers' Market,160th St. off Jamaica Ave.,160th Street and Jamaica Avenue,Queens,NY,11432,Dagmar Kostkova,9149234837,http://www.downtoearthmarkets.com,Saturday  8:30am-4pm,June 20-November 21,Y,M,40.70374,-73.79914,Y,"Queens, NY 11432
(40.70374, -73.79914)"
Queens,Joseph Addabbo FHC Farmers' Market,"6200 Beach Channel Dr., parking lot, Arverne",6200 Beach Channel Dr,Arverne,NY,11692,Viviana Fajardo,7189457150,http://www.addabbo.org,Saturday  8am-2pm,July 12-November 22,Y,M,40.59322,-73.79174,N,"Arverne, NY 11692
(40.59322, -73.79174)"
Queens,Long Island City Youthmarket,Hunters Point South Park,Vernon Blvd and 48th Ave,Long Island City,NY,11101,Kori Petrovic,2127887476,http://www.grownyc.org/youthmarket,Saturday  9am-3pm,September 5-26,Y,M,40.74401,-73.9537,Y,"Long Island City, NY 11101
(40.74401, -73.9537)"
Queens,Pomonok Community Farmers' Market,"67-09 Kissena Blvd., Flushing, Btwn Melbourne & 65 Aves.",67-09 Kissena Blvd,Flushing,NY,11365,Amy Tam-Liao,7185916060,https://www.facebook.com/QCHFarmersMarket,Wednesday  9am-4pm,June 17-November 25,Y,M,40.73513,-73.8141,Y,"Flushing, NY 11365
(40.73513, -73.8141)"
Queens,Queens Botanical Garden Farmers' Market,"sidewalk outside Garden, Dahlia Ave. at Main St.",Main St and Dahlia Ave,Flushing,NY,11355,Dagmar Kostkova,9149234837,http://www.downtoearthmarkets.com,Friday  8:30am-4pm,June 19-November 20,Y,M,40.75186,-73.82636,Y,"Flushing, NY 11355
(40.75186, -73.82636)"
Queens,Queens Farm Farmstand,"73-50 Little Neck Pkway 73rd & Elkmont Ave, Floral Park",73-50 Little Neck Parkway,Queens,NY,11004,Leah Retherford,7183473276,http://www.queensfarm.org,Wed-Sun 12pm-5pm,June 3-October 31,Y,M,40.74818,-73.72124,N,"Queens, NY 11004
(40.74818, -73.72124)"
Queens,Queens Hospital Center Farmers' Market,82-68 164th St. in front of Ambulatory Care Pavilion,82-68 164th St,Jamaica,NY,11432,Sandra Springer,7188836635,http://www.nyc.gov,Thursday  8am-4pm,July 9-November 19,Y,M,40.71753,-73.80373,N,"Jamaica, NY 11432
(40.71753, -73.80373)"
Queens,Queens Hospital Center Farmers' Market II,"114-02 Guy R Brewer Blvd., Jamaica",114-02 Guy R Brewer Blvd,Queens,NY,11434,Sandra Springer,7188836635,http://www.nyc.gov,Thursday  8am-4pm,July 9-November 19,Y,M,40.68851,-73.78588,N,"Queens, NY 11434
(40.68851, -73.78588)"
Queens,Ridgewood Youthmarket,"Cypress Ave., btwn Myrtle & Putnam Aves.",Myrtle Ave and Cypress Ave,Ridgewood,NY,11385,Kori Petrovic,2127887476,http://www.grownyc.org/youthmarket,Saturday  8am-4pm,July 11-November 21,Y,M,40.70011,-73.90619,Y,"Ridgewood, NY 11385
(40.70011, -73.90619)"
Queens,Rockaway Youthmarket,Beach 58th St. & Beach Channel Drive,58th Street & Beach Channel Drive,Arverne,NY,11692,Kori Petrovic,2127887476,http://www.grownyc.org/youthmarket,Saturday  9:30am-3pm,July 11-November 21,Y,M,40.59454,-73.78811,Y,"Arverne, NY 11692
(40.59454, -73.78811)"
Queens,Socrates Sculpture Park Greenmarket,"Vernon Blvd. & Broadway, inside park",Vernon Blvd and Broadway,Astoria,NY,11106,Chelsea Whittaker,2127887476,http://www.grownyc.org/greenmarket,Saturday  8am-4pm,June 6-November 21,Y,M,40.76769,-73.93618,Y,"Astoria, NY 11106
(40.76769, -73.93618)"
Queens,Sunnyside Greenmarket,"Skillman Ave., btwn 42nd & 43rd Sts.",Skillman Ave and 42nd St,Sunnyside,NY,11104,Chelsea Whittaker,2127887476,http://www.grownyc.org/greenmarket,Saturday  8am-3pm,Year-Round,Y,YR,40.74699,-73.92173,Y,"Sunnyside, NY 11104
(40.74699, -73.92173)"
Rensselaer,Farm to Preschool IV Farmers' Market,"Lansingburgh Family Resource Center, 754 4th Ave., Troy",754 4th Ave,Troy,NY,12182,Darlene Yule,5184267181,http://www.cdcccc.org,Wednesday  2pm-5pm,June 17-September 16,Y,M,42.78096,-73.67137,Y,"Troy, NY 12182
(42.78096, -73.67137)"
Rensselaer,North Greenbush Farmers' Market,"Twin Town Little League Park, Williams Rd.",95 Williams Rd,North Greenbush,NY,12180,Kathryn Conolly,5182834306,http://www.townofng.com,Thursday  2:30pm-6pm,June 11-September 10,Y,M,42.69013,-73.67672,N,"North Greenbush, NY 12180
(42.69013, -73.67672)"
Rensselaer,Sprout - Thursday,"Unity Sunshine/Sweeney Apartments, 4th & Jackson Sts., Troy",4th Street and Jackson Street,Troy,NY,12180,Will Malcolm,5182748685,http://www.capitalroots.org,Thu 3:30pm-4:30pm,Year-round,Y,YR,42.71548,-73.69303,Y,"Troy, NY 12180
(42.71548, -73.69303)"
Rensselaer,Sprout - Thursday,"Burns Apartments, 720 Federal St., Troy",720 Federal Street,Troy,NY,12180,Will Malcolm,5182748685,http://www.capitalroots.org,Thu 12:30pm-1:30pm,Year-round,Y,YR,42.733148,-73.684555,Y,"Troy, NY 12180
(42.733148, -73.684555)"
Rensselaer,Sprout - Thursday,"Franciscan Heights Senior Comm. Ctr., 1 St. Francis Pl., Rensselaer",1 Saint Francis Place,Rensselaer,NY,12144,Will Malcolm,5182748685,http://www.capitalroots.org,Thu 2pm-2:45pm,Year-round,Y,YR,42.6616,-73.72084,Y,"Rensselaer, NY 12144
(42.6616, -73.72084)"
Rensselaer,Sprout - Tuesday,"Blooming Grove Senior Housing, 105 Bloomingrove Dr., Troy",105 Bloomingrove Drive,Troy,NY,12180,Will Malcolm,5182748685,http://www.capitalroots.org,Tue 12:30pm-1:15pm,Year-round,Y,YR,42.68802,-73.68097,Y,"Troy, NY 12180
(42.68802, -73.68097)"
Rensselaer,Sprout - Tuesday,"Martin Luther King Apartments, 1 Eddy's Lane, Troy",1 Eddys Lane,Troy,NY,12180,Will Malcolm,5182748685,http://www.capitalroots.org,Tue 2:45pm-3:30pm,Year-round,Y,YR,42.75082,-73.67201,Y,"Troy, NY 12180
(42.75082, -73.67201)"
Rensselaer,Sprout - Tuesday,"Brunswick Senior Housing, 3 Country Way, Troy",3 Country Way,Troy,NY,12180,Will Malcolm,5182748685,http://www.capitalroots.org,Tue 3:45pm-4:30pm,Year-round,Y,YR,42.74304,-73.6309,Y,"Troy, NY 12180
(42.74304, -73.6309)"
Rensselaer,Sprout - Tuesday,"Barker Park, Corner 3rd & State St., Troy",Barker Park,Troy,NY,12180,Will Malcolm,5182748685,http://www.capitalroots.org,Tue 11am-11:45am,Year-round,Y,YR,42.72979,-73.69036,Y,"Troy, NY 12180
(42.72979, -73.69036)"
Rensselaer,Sprout - Tuesday,"John P. Taylor Apartments, Front & River St., Troy",River Street and Front Street,Troy,NY,12180,Will Malcolm,5182748685,http://www.capitalroots.org,Tue 1:45pm-2:15pm,Year-round,Y,YR,42.73321,-73.68986,Y,"Troy, NY 12180
(42.73321, -73.68986)"
Rensselaer,Sprout - Wednesday,"Griswold Heights, Troy",Griswold Heights,Troy,NY,12180,Will Malcolm,5182748685,http://www.capitalroots.org,Wed 3pm-4:30pm,Year-round,Y,YR,42.71129,-73.67599,Y,"Troy, NY 12180
(42.71129, -73.67599)"
Rensselaer,Sprout - Wednesday,"O'Neil Apartments, 2121 6th Ave., Troy",2121 6th Ave.,Troy,NY,12180,Will Malcolm,5182748685,http://www.capitalroots.org,Wed 1pm-2:15pm,Year-round,Y,YR,42.73436,-73.68587,Y,"Troy, NY 12180
(42.73436, -73.68587)"
Rensselaer,Sprout - Wednesday,"Lansingburgh Apartments, 41 114th Street, Troy",41 114th Street,Troy,NY,12182,Will Malcolm,5182748685,http://www.capitalroots.org,Wed 11am-12:15pm,Year-round,Y,YR,42.77277,-73.67227,Y,"Troy, NY 12182
(42.77277, -73.67227)"
Rensselaer,Troy Waterfront Farmers' Market,"282 River Street, Downtown Troy",282 River St,Troy,NY,12180,Monica Kurzejeski,5187084216,http://www.troymarket.org,Saturday  9am-2pm,May 2-October 31,Y,P/M,42.73214,-73.6905,Y,"Troy, NY 12180
(42.73214, -73.6905)"
Rensselaer,Veggie Mobile - Saturday,"Sanctuary for Independent Media, 6th Ave. & 101st St., Troy",6th Ave and 101st Street,Troy,NY,12180,Will Malcolm,5182748685,http://www.capitalroots.org,Sat 3pm-4pm,Year-round,Y,YR,42.7537,-73.68127,Y,"Troy, NY 12180
(42.7537, -73.68127)"
Rensselaer,Veggie Mobile - Thursday,"Kennedy Towers Apartments, 2100 6th Ave., Troy",2100 6th Avenue,Troy,NY,12180,Will Malcolm,5182748685,http://www.capitalroots.org,Thu 2:45pm-3:45pm,Year-round,Y,YR,42.73471,-73.68416,Y,"Troy, NY 12180
(42.73471, -73.68416)"
Rensselaer,Veggie Mobile - Thursday,"Van Rensselaer Heights, 460 Forbes Ave., Rensselaer",460 Forbes Avenue,Rensselaer,NY,12144,Will Malcolm,5182748685,http://www.capitalroots.org,Thu 10:45am-11:15am,Year-round,Y,YR,42.65924,-73.72879,Y,"Rensselaer, NY 12144
(42.65924, -73.72879)"
Rensselaer,Veggie Mobile - Thursday,"Renwyck Place, 18 4th Ave., Rensselaer",18 4th Ave,Troy,NY,12180,Will Malcolm,5182748685,http://www.capitalroots.org,Thu 11:30am-12pm,Year-round,Y,YR,42.73315,-73.68824,Y,"Troy, NY 12180
(42.73315, -73.68824)"
Richmond,Saint George Greenmarket,St. Mark's Place & Hyatt St.,St Marks Pl and Hyatt St,Staten Island,NY,10301,Chelsea Whittaker,2127887476,http://www.grownyc.org/greenmarket,Saturday  8am-2pm,May 2-December 26,Y,P/M/X,40.64159,-74.07791,Y,"Staten Island, NY 10301
(40.64159, -74.07791)"
Richmond,Staten Island Mall Greenmarket,"Richmond Ave. entrance, in parking lot",2655 Richmond Ave,Staten Island,NY,10314,Chelsea Whittaker,2127887476,http://www.grownyc.org/greenmarket,Saturday  8am-3pm,June 13-November 21,Y,M,40.58199,-74.16607,Y,"Staten Island, NY 10314
(40.58199, -74.16607)"
Rockland,Haverstraw Farmers' Market,Haverstraw Village Hall,New Main St and Maple Ave,Haverstraw,NY,10927,Mariely Urena,8454290300,,Sunday  9am-1pm,June 14-October 11,Y,M,41.19639,-73.96645,Y,"Haverstraw, NY 10927
(41.19639, -73.96645)"
Rockland,Nyack Farmers' Market,"Municipal parking lot, Main St.",Main St and Franklin St,Nyack,NY,10960,Pam Moskowitz,8453532221,http://www.nyackchamber.org,Thursday  8am-2pm,April 2-November 25,Y,P/M,41.09154,-73.9216,Y,"Nyack, NY 10960
(41.09154, -73.9216)"
Rockland,Pearl River Farmers' Market,"The River Church parking lot, 253 Ehrhardt Road",253 Ehrhardt Road,Pearl River,NY,10695,Sarah Binkele,7183445785,http://pearlriverfarmersmar.wix.com/pearlriverfarmersmkt,Friday  10am-4pm,June 5-October 30,Y,M,41.07263,-74.00455,N,"Pearl River, NY 10695
(41.07263, -74.00455)"
Rockland,Piermont Farmers' Market,"M & T Bank lot, Ash St. & Piermont Ave.",Ash St and Piermont Ave,Piermont,NY,10968,Dagmar Kostkova,9149234837,http://www.downtoearthmarkets.com,Sunday  9:30am-3pm,May 24-November 22,Y,P/M,41.04136,-73.91642,N,"Piermont, NY 10968
(41.04136, -73.91642)"
Rockland,Ramapo Farmers' Market,"Eugene Levy Park, 920 Route 45",New York 45 and North Side Plaza,Pomona,NY,10970,Michelle Antosca,8453576100,http://www.ramapoparks.org,Sunday  9am-4pm,July 12-October 25,Y,M,41.1636,-74.03411,N,"Pomona, NY 10970
(41.1636, -74.03411)"
Rockland,Spring Valley Farmers' Market,corner of Main and Church Sts.,Main St and Church St,Spring Valley,NY,10977,Alexandr Kravets,9173628917,,Wed  8am-3pm,July 1-November 25,Y,M,41.113281,-74.044617,N,"Spring Valley, NY 10977
(41.113281, -74.044617)"
Rockland,Suffern Farmers' Market,"Commuter parking lot A, Lafayette & Orange Aves.",Orange Ave & Lafayette Ave,Suffern,NY,10901,Alexandria Evans,6463394746,http://www.suffernfarmersmarket.wordpress.com,Saturday  8:30am-1pm,May 9-October 31,N,M,41.11636,-74.154625,Y,"Suffern, NY 10901
(41.11636, -74.154625)"
Saratoga,Arnold's Farm Fresh Produce,"1319 Sacadanga Rd., West Charlton",1319 Sacandaga Rd,West Charlton,NY,12010,Jason Arnold,5182699562,http://www.arnoldsproduce.com,Daily  10am-6pm,June 1-October 31,Y,M,42.97177,-74.02945,N,"West Charlton, NY 12010
(42.97177, -74.02945)"
Saratoga,Ballston Spa Farmers' Market,"Wiswall Park, Front & Low Sts.",Front St and Low St,Ballston Spa,NY,12020,Ellen Mottola,5188852772,http://www.ballston.org,"Saturday  9am-12pm, Thursday  3pm-6pm",June 11-September 26,Y,M,43.00256,-73.84964,N,"Ballston Spa, NY 12020
(43.00256, -73.84964)"
Saratoga,Burnt Hills Farmers' Market,Lakehill Rd. & Route 50,Lakehill Road and Saratoga Road,Burnt Hills,NY,12027,Gaynell Bliss,5188859314,https://www.facebook.com/BurntHillsFarmersMarket,Saturday  9am-1pm,May-October,Y,P/M,42.91032,-73.89824,N,"Burnt Hills, NY 12027
(42.91032, -73.89824)"
Saratoga,Clifton Park Farmers' Market,"St. George's Church, 912 Rt. 146 at Maxwell Drive",912 State Route 146,Clifton Park,NY,12065,Justine Denison,5186642510,http://www.saratogafarmersmarket.org,Thursday  2pm-5pm,July 2-October 29,Y,M,42.866,-73.79782,N,"Clifton Park, NY 12065
(42.866, -73.79782)"
Saratoga,Gansevoort Farmers' Market,"Gansevoort Village Park, Catherine St.",Main St. at Catherine St.,Gansevoort,NY,12831,Linda Gifford,5187920198,,Thursday  3pm-6pm,June 4-October 29,Y,M,43.19612,-73.65167,N,"Gansevoort, NY 12831
(43.19612, -73.65167)"
Saratoga,Malta Farmers' Market,"Allerdice Ace Hardware parking lot, 2570 Route 9",2570 Route 9,Ballston Spa,NY,12020,Justine Denison,5186642510,http://www.saratogafarmersmarket.org,Tuesday  3pm-6pm,June 30-October 27,Y,M,42.97694,-73.78945,N,"Ballston Spa, NY 12020
(42.97694, -73.78945)"
Saratoga,Saratoga Farmers' Market,"High Rock Park, High Rock Avenue",High Rock Ave and Lake Ave,Saratoga Springs,NY,12866,Justine Denison,5186642510,http://www.saratogafarmersmarket.com;,"Saturday  9am-1pm, Wednesday  3pm-6pm",May 2-October 31,Y,M,43.08288,-73.78304,Y,"Saratoga Springs, NY 12866
(43.08288, -73.78304)"
Saratoga,Saratoga WINTER Farmers' Market,"Lincoln Baths bldg, Saratoga Spa State Park",65 South Broadway,Saratoga,NY,12866,Justine Denison,5186642510,http://www.saratogafarmersmarket.org/saratoga-farmers-market/,Saturday  9am-1pm,November 7-April 30,Y,M/X/W/P,43.06464,-73.79044,Y,"Saratoga, NY 12866
(43.06464, -73.79044)"
Saratoga,South Glens Falls Farmers' Market,"Village Park, 5th St.",64 Spring St,South Glens Falls,NY,12803,Linda Gifford,5187920198,,Monday  10am-1pm,June 1-October 26,Y,M,43.30035,-73.63221,N,"South Glens Falls, NY 12803
(43.30035, -73.63221)"
Saratoga,Spa City Sunday Farmers' Market,"Lincoln Bath, South Broadway, Saratoga Spa State Park",Saratoga Spa State Park,Saratoga,NY,12866,Colleen Zorbas,5183390958,http://www.spacityfarmersmarket.com;https://www.facebook.com/SpaCityFarmersMarket/info?tab=overview,Sunday  10am-3pm,Year-round,N,YR,43.06161,-73.79047,N,"Saratoga, NY 12866
(43.06161, -73.79047)"
Saratoga,Town of Galway Farmers' Market,"Pavilion at Town playing fields, 5078 Sacandaga Rd., Route 147",5078 Sacandaga Road,Galway,NY,12074,Susan Sutch,5188826070,http://www.galwayfarmersmarket.org,Friday  3pm-6pm,June 12-September 18,Y,M,43.00913,-74.03011,N,"Galway, NY 12074
(43.00913, -74.03011)"
Saratoga,Waterford Harbor Farmers' Market,"1 Tugboat Alley, along Erie Canal, Waterford Harbor Visitor's Center",1 Tugboat Alley,Waterford,NY,12188,Mary Stalker,5186658344,http://www.waterfordmarket.org,Sunday  9am-1pm,June 7-October 25,N,M,42.78755,-73.67924,N,"Waterford, NY 12188
(42.78755, -73.67924)"
Schenectady,Farm to Preschool I Farmers' Market,"YWCA NENY, 44 Washington Ave., Schenectady",44 Washington Ave,Schenectady,NY,12305,Darlene Yule,5184267181,,Tuesday  2:30pm-5:30pm,June 16-September 15,Y,M,42.81645,-73.9492,Y,"Schenectady, NY 12305
(42.81645, -73.9492)"
Schenectady,Farm to Preschool II Farmers' Market,"Parsons Child and Family Center, 125 Bigelow Ave., Schenectady",125 Bigelow Ave,Schenectady,NY,12304,Darlene Yule,5184267181,,Thursday  2pm-5pm,June 18-September 17,Y,M,42.79534,-73.92505,Y,"Schenectady, NY 12304
(42.79534, -73.92505)"
Schenectady,Schenectady Bellevue Farmers' Market,2176 Broadway,2176 Broadway,Schenectady,NY,12306,Jacqueline Hurd,5183930403,,"Thursday  4pm-7pm, September 10, 17, 24: 3:30pm-6:30pm",June 11-September 24,Y,M,42.797,-73.96735,Y,"Schenectady, NY 12306
(42.797, -73.96735)"
Schenectady,Schenectady City Hall Farmers' Market,"City Hall, 105 Jay St.",Franklin St and Jay St,Schenectady,NY,12305,Steve Feeney,5183862225,http://www.schenectadyfarmersmarket.com,Thursday  9am-1:30pm,May 7-November 19,Y,P/M,42.81378,-73.94032,Y,"Schenectady, NY 12305
(42.81378, -73.94032)"
Schenectady,Schenectady Greenmarket,"Jay & Franklin Sts., near City Hall",Franklin St and Jay St,Schenectady,NY,12305,Jennifer Jennings,5189860318,http://www.schenectadygreenmarket.org,Sunday  10am-2pm,May 3-October 25,Y,P/M,42.81253,-73.94137,Y,"Schenectady, NY 12305
(42.81253, -73.94137)"
Schenectady,Schenectady Saint Luke's Farmers' Market,"St. Luke's Church, 1241 State Street",1241 State St,Schenectady,NY,12304,Steve Feeney,5183862225,http://www.schenectadyfarmersmarket.com,Tuesday  10am-1pm,July 7-October 27,Y,M,42.79894,-73.92413,Y,"Schenectady, NY 12304
(42.79894, -73.92413)"
Schenectady,Schenectady Sheridan Plaza Farmers' Market,1344 Gerling St.,1344 Gerling St.,Schenectady,NY,12308,Steve Feeney,5183862225,http://www.schenectadyfarmersmarket.com,Friday  2pm-6pm,May 8-October 30,Y,P/M,42.82311,-73.91062,Y,"Schenectady, NY 12308
(42.82311, -73.91062)"
Schenectady,Schenectady Union St. Farmers' Market,1760 Union St.,1760 Union St,Niskayuna,NY,12309,Al Lansing,5182752570,https://www.facebook.com/UpperUnionStreetFarmersMarket,Saturday  9am-1:30pm,May 2-October 31,Y,P/M,42.8022,-73.8992,N,"Niskayuna, NY 12309
(42.8022, -73.8992)"
Schenectady,Veggie Mobile - Friday,"Hamilton Hill Arts Center, 409 Schenectady St., Schenectady",409 Schenectady Street,Schenectady,NY,42.80556,Will Malcolm,5182748685,http://www.capitalroots.org,Fri 3:20pm-4pm,Year-round,Y,YR,42.80556,-73.9406,Y,"Schenectady, NY 42.80556
(42.80556, -73.9406)"
Schenectady,Veggie Mobile - Friday,"Summit Towers, 720 Albany St., Schenectady",720 Albany street,Schenectady,NY,12307,Will Malcolm,5182748685,http://www.capitalroots.org,Fri 1:30pm-2:15pm,Year-round,Y,YR,42.80923,-73.93822,Y,"Schenectady, NY 12307
(42.80923, -73.93822)"
Schenectady,Veggie Mobile - Friday,"Ten Eyck Apartments, 375 Broadway, Schenectady",375 Broadway,Schenectady,NY,12305,Will Malcolm,5182748685,http://www.capitalroots.org,Fri 2:20pm-3:15pm,Year-round,Y,YR,42.80919,-73.94511,Y,"Schenectady, NY 12305
(42.80919, -73.94511)"
Schenectady,Veggie Mobile - Saturday,"Steinmetz Homes, 120 Emmons St., Schenectady",120 Emmons Road,Schenectady,NY,12304,Will Malcolm,5182748685,http://www.capitalroots.org,Sat 11am-11:45am,Year-round,Y,YR,42.79178,-73.92259,Y,"Schenectady, NY 12304
(42.79178, -73.92259)"
Schoharie,Schoharie Co. Festival Farmers' Market,"McCarthy Tire Center parking lot, 942 E. Main, Rt. 7E, Cobleskill",942 East Main St,Cobleskill,NY,12043,Donna Olsen,5182842609,,"Saturday 10am-2pm , 7/22-9/30:, Wed 3pm-5pm",July 11-October 10,Y,M,42.67886,-74.46711,Y,"Cobleskill, NY 12043
(42.67886, -74.46711)"
Schoharie,Sharon Springs Farmers' Market,Main Street (near Roseboro Hotel),Main Street and Washington Street,Sharon Springs,NY,13459,Kate Miller,5189350940,http://www.sharonspringsfarmersmarket.net,Saturday  9am-1pm,May 23-September 26,Y,P/M,42.79545,-74.61721,Y,"Sharon Springs, NY 13459
(42.79545, -74.61721)"
Schuyler,Watkins Glen Farmers' Market,"Lafayette Park, 4th St.",Fifth St and Porter St,Watkins Glen,NY,14891,Jylle Benson-Gauss,6072271333,,Friday  3pm-7pm,May 22-October 30,Y,P/M,42.38096,-76.86954,Y,"Watkins Glen, NY 14891
(42.38096, -76.86954)"
Seneca,Seneca Falls Farmers' Market,"People's Park, Water Street, by the Canal",Water St and Bridge St,Seneca Falls,NY,13148,Patti Battley,3155399251,,Wednesday  9am-1:30pm,June 3-October 21,Y,M,42.90412,-76.80005,Y,"Seneca Falls, NY 13148
(42.90412, -76.80005)"
Seneca,Wyckoff's Farm Stand,"3795 County Rd. 139, Ovid",3795 County Road 139,Ovid,NY,14521,Richard Wyckoff,6075324822,,"Daily, 10am-6pm",May 1 - October 31,Y,M,42.66144,-76.71323,Y,"Ovid, NY 14521
(42.66144, -76.71323)"
Steuben,Bath Saturday Farmers' Market,"Pulteney Park, Steuben St.",Steuben St and Liberty St,Bath,NY,14810,Phillip Glosick,6077763577,,Saturday  9am-2pm,May 9-October 31,Y,P/M,42.33353,-77.31842,N,"Bath, NY 14810
(42.33353, -77.31842)"
Steuben,Bath VA Farmers' Market,"Bath VA Medical Center, 76 Veterans Ave.",76 Veterans Ave,Bath,NY,14810,Kelley Elliot,6075833358,,Tuesday  3pm-6pm  (2nd & 4th Tuesdays),June 9-October 13,Y,M,42.34342,-77.34613,N,"Bath, NY 14810
(42.34342, -77.34613)"
Steuben,Bath Wednesday Farmers' Market,"Pulteney Square Park, Steuben St.",Steuben St and Liberty St,Bath,NY,14810,David Clarke,6075275045,,Wednesday  9am-3pm,May 6-October 28,Y,P/M,42.33353,-77.31842,Y,"Bath, NY 14810
(42.33353, -77.31842)"
Steuben,Corning Farmers' Market,"Riverfront Centennial Park, Gaffer District","Centennial Park, East Tioga Ave",Corning,NY,14830,Lin Kotlinski,6079376292,http://www.gafferdistrict.com,Thursday  10am-3pm,June 4-October 29,Y,M,42.1443,-77.05339,Y,"Corning, NY 14830
(42.1443, -77.05339)"
Steuben,Corning WINTER Farmers' Market,1 West Market Street,1 West Market Street,Corning,NY,14830,Cathy Halm,6075278730,http://www.facebook.com/corningwinterfarmersmarket,"Alternate Saturdays  , 11am-3pm",November 8-April 25,Y,M/X/W,42.14351,-77.05495,Y,"Corning, NY 14830
(42.14351, -77.05495)"
Steuben,Hornell Farmers' Market,32-33 Broadway Mall,13-17 Elm Street,Hornell,NY,14843,Shelly Stevens,6073249786,http://www.hornellhpg.com,"Thursdays  2pm-6:30pm, Sat.  10am-3pm on 6/20, 7/18, 8/1 & 9/26",June 4-October 29,Y,M,42.32495,-77.66028,N,"Hornell, NY 14843
(42.32495, -77.66028)"
Steuben,Painted Post Farmers' Market,227 Steuben Street,277 Steuben Street,Painted Post,NY,14870,Cathy Halm,6075278730,http://www.facebook.com/paintedpostfarmersmarket,Saturday  10am-2pm,June 6-October 31,Y,M,42.16242,-77.09126,N,"Painted Post, NY 14870
(42.16242, -77.09126)"
St. Lawrence,Canton Farmers' Market,"Canton Park, corner of Park & Main Sts.",Main St and Park St,Canton,NY,13617,Zoe Baker,3152448475,http://www.cantonnychamber.org,Tue/Fri  9am-2pm,May 8-October 30,Y,P/M,44.59564,-75.16921,Y,"Canton, NY 13617
(44.59564, -75.16921)"
St. Lawrence,Dekalb Farmers' Market,"4420 US Hwy 11, Dekalb Junction Bldg Supply",4420 New York State Bicycle Route 11,De Kalb,NY,13630,Zoe Baker,3152448475,,Wednesday  1pm-6pm,May 20-TBD,Y,P/M,44.50803,-75.27015,Y,"De Kalb, NY 13630
(44.50803, -75.27015)"
St. Lawrence,Fowler Farmers' Market,"Bob's Market, Route 58, next to Tripp Fuels",1447 County Rd 22,Gouverneur,NY,13642,Lorraine Taylor,3152120456,,Friday  3pm-6pm,June 6-September 26,N,M,44.283007,-75.391982,N,"Gouverneur, NY 13642
(44.283007, -75.391982)"
St. Lawrence,Gouverneur Farmers' Market,"Village Park, Church St.",Church St and John St,Gouverneur,NY,13642,Lorraine Taylor,3152120456,http://www.gouverneurchamber.net,Thursday  9am-2pm,June 4-October 22,Y,M,44.33524,-75.46764,Y,"Gouverneur, NY 13642
(44.33524, -75.46764)"
St. Lawrence,Hammond Farmers and Artisans Market,"Hammond Museum, 1A N. Main St./Rt 37",Hammond Museum,Hammond,NY,13646,Lori Thistle,3153245032,https://www.facebook.com/thehammondfarmersmarket,Wednesday  3:30pm-7pm,July 8-September 2,Y,M,44.44895,-75.69412,Y,"Hammond, NY 13646
(44.44895, -75.69412)"
St. Lawrence,Martin's Farmstand,"11 Needham Rd., Potsdam",11 Needham Rd.,Potsdam,NY,13676,Daniel Martin,3152651246,http://martinsfarmstand.com,Mon-Sat  10am-6pm,May 6-November 30,Y,P/M,44.67107,-74.90401,Y,"Potsdam, NY 13676
(44.67107, -74.90401)"
St. Lawrence,Massena Farmers' Market,Triple A parking lot,345 E Orvis St,Massena,NY,13362,Shirley Peck,3157695322,,Thursday & Monday  10am-5pm;  Sunday 10-3,July 9-October 29,Y,M,44.93605,-74.87095,Y,"Massena, NY 13362
(44.93605, -74.87095)"
St. Lawrence,Potsdam Main Street Farmers' Market,"Main St., Ives Park, Opposite Roxy Theater",Main St and Union St,Potsdam,NY,13676,Laura Popielski,7167257782,http://www.potsdamfarmersmarket.org,Sat/Wed  9am-2pm,May 10-October 31,Y,P/M,44.66865,-74.98493,Y,"Potsdam, NY 13676
(44.66865, -74.98493)"
St. Lawrence,Potsdam WINTER Farmers' Market,"Cheel Arena, Clarkson University",8 Clarkson Ave,Potsdam,NY,13676,Laura Popielski,7167257782,http://www.thepotsdamfarmersmarket.org,Saturday  8:30am-12pm,November 1-April 25,Y,X/W/P,44.66391,-75.00202,Y,"Potsdam, NY 13676
(44.66391, -75.00202)"
St. Lawrence,Whitten Family Farmstand,"1101 Cty 49, Winthrop",1101 County Road 49,Winthrop,NY,13697,Cherie Whitten,3153285559,http://www.whittenfarmwinthrop.locallygrown.net,Daily (except Sun)  9am-6pm,May 7-November 25,Y,P/M,44.74885,-74.75351,Y,"Winthrop, NY 13697
(44.74885, -74.75351)"
St. Lawrence,Whitten Mobile Market-Assisted Living LBSH,"32 South Church St., Brasher Falls",32 South Church Street,Brasher Falls,NY,13613,Cherie Whitten,3153285559,,Friday 10am-11am,June 16-September 18,Y,M,44.80281,-74.77382,Y,"Brasher Falls, NY 13613
(44.80281, -74.77382)"
St. Lawrence,Whitten Mobile Market-Downtown,"211 Park St., Tupper Lake",211 Park St.,Tupper Lake,NY,12986,Cherie Whitten,3153285559,,Friday  4pm-6pm,June 16 - September 18,Y,M,44.22445,-74.45898,Y,"Tupper Lake, NY 12986
(44.22445, -74.45898)"
St. Lawrence,Whitten Mobile Market-Laurel Ave Sr Housing,"Laurel Ave, Massena",Laurel Ave,Massena,NY,13662,Cherie Whitten,3153285559,,Tuesday  10am-11am,June 16-September 18,Y,M,44.92833,-74.88923,Y,"Massena, NY 13662
(44.92833, -74.88923)"
St. Lawrence,Whitten Mobile Market-Massena Mem. Hospital,"Massena Memorial Hospital, 1 Hospital Dr.",1 Hospital Drive,Massena,NY,13662,Cherie Whitten,3153285559,,Tuesday  3pm-5pm,June 16-September 18,Y,M,44.93579,-74.90736,Y,"Massena, NY 13662
(44.93579, -74.90736)"
St. Lawrence,Whitten Mobile Market-Mayfield Sr. Apts,"22 Mayfield Drive, Potsdam (off May rd)",22 Mayfield Drive,Potsdam,NY,13676,Cherie Whitten,3153285559,,Friday 12pm-1:30pm,June 23 - September 19,Y,M,44.68556,-74.98308,Y,"Potsdam, NY 13676
(44.68556, -74.98308)"
Suffolk,Babylon Village Farmers' Market,"LIRR Babylon Station parking lot, Railroad and Deer Park Aves.",Railroad Ave and Deer Park Ave,Babylon,NY,11702,Lona Graepel,6319442661,http://www.longislandfarmersmarkets.com,Sunday  8am-1pm,June 7-November 22,Y,M,40.69954,-73.32597,Y,"Babylon, NY 11702
(40.69954, -73.32597)"
Suffolk,Bridgehampton Hayground Farmers' Market,"Hayground School,, 151 Mitchells Lane, Bridghampton",151 Mitchells Lane,Bridgehampton,NY,11932,Michael Denslow,6319873553,,Friday  3pm - 6:30pm,May 24 - August 30,N,P/M,40.94127,-72.314546,N,"Bridgehampton, NY 11932
(40.94127, -72.314546)"
Suffolk,East Hampton Farmers' Market,"Nick & Toni's lot, 136 N. Main St.",136 North Main St,Easthampton,NY,11937,Katherine Plumb,6317259133,,Friday  9am-1pm,May 22-September 4,Y,P/M,40.97017,-72.18133,Y,"Easthampton, NY 11937
(40.97017, -72.18133)"
Suffolk,Flanders Farm Fresh Youth Market,"Crohan Community Senior Center, 655 Flanders Road (Rt 24)",655 Flanders Rd,Flanders,NY,11901,Nancy Lynott,6317022417,http://www.southhamptontownny.gov,Saturday  10am-1pm,June 27-October 17,Y,M,40.90867,-72.63666,Y,"Flanders, NY 11901
(40.90867, -72.63666)"
Suffolk,Greater Bellport Community Youth Market,"Boys & Girls Club, 471 Atlantic Ave.",471 Atlantic Avenue,Bellport,NY,11713,Tracie Romandetti,6312869090,,Saturday  11am-4pm,July 11-October 24,Y,M,40.77519,-72.94828,Y,"Bellport, NY 11713
(40.77519, -72.94828)"
Suffolk,Greenport Farmers' Market,170 South St.,170 South St,Greenport,NY,11944,Lara McNeil,6317409330,http://www.greenportfarmersmarket.com,Saturday  9am-1pm,June 13-September 12,Y,M,41.103267,-72.361801,Y,"Greenport, NY 11944
(41.103267, -72.361801)"
Suffolk,Hampton Bays Farmers' Market,"165 Ponquogue Ave., St. Mary's Church lawn",165 Ponquogue Ave,Hampton Bays,NY,11946,Paula Godfrey,6317230902,,Saturday  9am-1pm,May 23-September 5,Y,P/M,40.8593,-72.51301,N,"Hampton Bays, NY 11946
(40.8593, -72.51301)"
Suffolk,Huntington Village Farmers' Market,"Downtown Huntington Village, Main St. Rt. 25A, E. of Rt. 110",State Route 110 and Main St,Huntington,NY,11743,Ethel Terry,6313233653,http://www.longislandgrowersmarket.com,Sunday  7am-12pm,May 24-November 22,Y,P/M,40.87121,-73.42629,N,"Huntington, NY 11743
(40.87121, -73.42629)"
Suffolk,Islip Farmers' Market,"Town Hall lot, Rt. 27A (Montauk Hwy)",State Route 27A and State Route 111,Islip,NY,11751,Ethel Terry,6313233653,http://www.longislandgrowersmarket.com,Saturday  7am-12pm,May 23-November 21,Y,P/M,40.73028,-73.20731,N,"Islip, NY 11751
(40.73028, -73.20731)"
Suffolk,Kings Park Farmers' Market,"Route 25A, Main St. Municipal Lot, Across from Fire Dept., 2 Main St.",1 E. Main St.,Kings Park,NY,11754,Bernadette Martin,6316785227,http://www.ligreenmarket.org/,Sunday  9am-2pm,June 7-November 22,Y,P/M,40.88422,-73.25243,Y,"Kings Park, NY 11754
(40.88422, -73.25243)"
Suffolk,Marks of Excellence Farmers' Market,"Marks of Excellence Child Care Center, 455 Albany Ave., Amityville",455 Albany Ave,Amityville,NY,11701,Dana Youkilis,5163589250,http://www.childcarenassau.org/farmtopreschool.aspx,Thursday  3pm-6pm,June 25-September 24,Y,M,40.69899,-73.40921,Y,"Amityville, NY 11701
(40.69899, -73.40921)"
Suffolk,Montauk Farmers' Market,"Montauk Village Green, 743 Montauk Hwy",742 Montauk Hwy,Montauk,NY,11954,Laraine Creegan,6316682355,,"Thurs  9am-2pm to Sept 3, Fri 9am-2pm Sept 11-Oct2",June 11-October 2,Y,M,41.03436,-71.94424,N,"Montauk, NY 11954
(41.03436, -71.94424)"
Suffolk,Nesconset Plaza Farmers' Market,"Nesconset Plaza, 127 Smithtown Blvd.",127 Smithtown Boulevard,Nesconset,NY,11767,Bernadette Martin,6316785227,http://www.ligreenmarket.org,Saturday  9am-1pm,June 6-November 21,Y,M,40.83836,-73.16174,Y,"Nesconset, NY 11767
(40.83836, -73.16174)"
Suffolk,Patchogue #1 Farmers' Market,"225 East Main St., Patchogue",225 East Main Street,Patchogue,NY,11772,Ethel Terry,6313233653,http://www.longislandgrowersmarket.com,Friday  8am-1pm,July 3-November 20,Y,M,40.76664,-73.00872,N,"Patchogue, NY 11772
(40.76664, -73.00872)"
Suffolk,Patchogue # 2 Farmers' Market,31 W Main St. Patchogue,31 W Main St.,Patchogue,NY,11772,Ethel Terry,6313233653,http://www.longislandgrowersmarket.com,Sunday  8am-1pm,June 14-November 6,Y,M,40.766166,-73.015857,N,"Patchogue, NY 11772
(40.766166, -73.015857)"
Suffolk,Port Jefferson Farmers' Market,"Steam Room parking lot, Rts. 25A & 112",State Route 25A and State Route 112,Port Jefferson,NY,11776,Ethel Terry,6313233653,http://www.longislandgrowersmarket.com,Thursday  10am-4pm,July 9-October 8,Y,M,40.93177,-73.05283,N,"Port Jefferson, NY 11776
(40.93177, -73.05283)"
Suffolk,Riverhead Saturday Farmers' Market,"Town of Riverhead Parking Lot, District Riverfront Area",117 East Main Street,Riverhead,NY,11901,Raymond Pickersgill,6315939349,,Saturday  9am-2pm,May 23-September 5,Y,P/M,40.91709,-72.66031,N,"Riverhead, NY 11901
(40.91709, -72.66031)"
Suffolk,Rocky Point Farmers Market,"Old Depot Park (Broadway & Prince Rd.), Rocky Point",Broadway and Prince Rd,Rocky Point,NY,11778,Charles Bevington,6318493488,http://www.rockypointfarmersmarket.wordpress.com,Sunday  8am-1pm,May 10-November 22,Y,P/M,40.94927,-72.92391,N,"Rocky Point, NY 11778
(40.94927, -72.92391)"
Suffolk,Sag Harbor Farmers' Market,"Breakwater Yacht Club parking lot, Bay St.",Bay St and Burke St,Sag Harbor,NY,11963,Jean Gaul,5709566943,http://www.sagharborfarmersmarket.org,Saturday  9am-1pm,May 16-October 31,Y,P/M,41.00106,-72.29134,Y,"Sag Harbor, NY 11963
(41.00106, -72.29134)"
Suffolk,Shiloh Community Youth Farmers' Market,"221 Merritt Ave., New Shiloh Baptist Church, Wyandanch",221 Merritt Ave,Wyandanch,NY,11798,Sondra Cochran,6316434786,http://www.wyandanchcdc.org/farmersmarket.html,Saturday  1pm-4pm,July 11-October 3,Y,M,40.75311,-73.36709,Y,"Wyandanch, NY 11798
(40.75311, -73.36709)"
Suffolk,Tanger Outlets Farmers' Market,"152 The Arches Circle, Tanger Outlets, Deer Park",152 The Arches Circle,Deer Park,NY,11729,Jim Thompson,5166942859,http://www.eatlocallongisland.com,Saturday  10am-3pm,June 7-October 31,Y,M,40.76401,-73.30346,N,"Deer Park, NY 11729
(40.76401, -73.30346)"
Suffolk,TFCU Amityville Artisanal Farmers' Market,"9/11 Memorial Park, Broadway",Louden Ave and Broadway,Amityville,NY,11701,Cindy Sierra,6313970197,,Saturday  9am-1pm,June 27-September 26,Y,M,40.68353,-73.41786,N,"Amityville, NY 11701
(40.68353, -73.41786)"
Suffolk,TFCU Artisanal Farmers' Market,"Teachers Federal Credit Union, 102 Motor Pkwy, Hauppauge",102 Motor Parkway,Hauppague,NY,11788,Cindy Sierra,6313970197,,Thursday  10am-2pm,June 11-September 24,Y,M,40.80711,-73.26663,N,"Hauppague, NY 11788
(40.80711, -73.26663)"
Suffolk,Westhampton Beach Farmers' Market,"85 Mill Rd., Westhampton Beach, next to Historical Society",85 Mill Road,Westhampton Beach,NY,11978,Gabby Morrow,6312883337,http://www.westhamptonchamber.org,Saturday  9am-1pm,May 2-November 21,N,P/M,40.812329,-72.643411,Y,"Westhampton Beach, NY 11978
(40.812329, -72.643411)"
Sullivan,Bethel Woods Harvest Festival Farmers' Market,"Hurd & W. Shore Rds., Bethel",268 Hurd Rd,Swan Lake,NY,12783,Channyn Cullingan,8452952448,http://www.bethelwoodscenter.org,Sunday  11am-4pm,September 7 - October 5,N,M,41.702939,-74.882075,N,"Swan Lake, NY 12783
(41.702939, -74.882075)"
Sullivan,Callicoon Farmers' Market,"Callicoon Creek Park, Audrey Dorrer Dr.",Dorrer Dr,Callicoon,NY,12723,Wendee Greene,8662702015,http://www.sullivancountyfarmersmarkets.org,Sunday  11am-2pm,May 3-November 8,Y,P/M,41.76574,-75.05835,Y,"Callicoon, NY 12723
(41.76574, -75.05835)"
Sullivan,Callicoon WINTER Farmers' Market,"Delaware Youth Center, 8 Creamery Road",8 Creamery Road,Callicoon,NY,12723,Danielle Gaebel,8662702015,http://www.sullivancountyfarmersmarket.org,"Sunday  11am-2pm, weekly Nov&Dec;, Alt. weeks Jan-Apr",November 15-April 17,Y,X/W/P,41.76418,-75.05712,Y,"Callicoon, NY 12723
(41.76418, -75.05712)"
Sullivan,Eat Healthy Sullivan County Farmers' Market,"Ted Stroebele Recreation center, 10 Jefferson St., Monticello",118 Sullivan Street,Wurtsboro,NY,12790,Erin Burch,8454391230,http://www.catskillmountainkeeper.org/farmers_market,Monday  11am-2pm,July 6-October 5,Y,M,41.57577,-74.48462,Y,"Wurtsboro, NY 12790
(41.57577, -74.48462)"
Sullivan,Liberty Farmers' Market,"Municipal Parking lot, Darbee Lane",Darbee Lane,Ferndale,NY,12754,Erin Burch,8454391230,http://www.catskillmountainkeeper.org,Friday  3pm-7pm,July 3-September 4,Y,M,41.80003,-74.74447,N,"Ferndale, NY 12754
(41.80003, -74.74447)"
Sullivan,Rock Hill Farmers' Market,223 Rock Hill Drive,223 Rock Hill Drive,Rock Hill,NY,12775,Michelle Lipari,8456994976,http://www.rockhillfarmersmarket.com,Saturday  10am-1pm,May 30-September 5,Y,P/M,41.62515,-74.59634,N,"Rock Hill, NY 12775
(41.62515, -74.59634)"
Sullivan,Root N Roost Farmstand,"68 Mineral Springs Rd., Livingston Manor",68 Mineral Springs Road,Livingston Manor,NY,12758,Cheyenne Zigmund,8452929126,http://www.rootnroost.com,"Sat/Sun  10am-7pm, Mon-Fri by appt, Dec. by appt only",May 2-December 31,Y,P/M/X,41.8011,-74.82248,N,"Livingston Manor, NY 12758
(41.8011, -74.82248)"
Tioga,Candor Farmers' Market,"Town Hall, 101 Owego Rd.",101 Owego Rd,Candor,NY,13743,Joellen Carling,6077684072,,Thursday  3:30pm-6:30pm,June 11-September 24,Y,M,42.23249,-76.33317,Y,"Candor, NY 13743
(42.23249, -76.33317)"
Tioga,Our Green Acres Farmstand,"3965 Waverly Rd., Owego",3965 Waverly Rd.,Owego,NY,13827,Frank Wiles,6076872874,http://www.ourgreenacres.com,"Sat-Mon  9:30am-6pm, Sunday  11am-5pm",June 10-November 1,Y,M,42.097588,-76.28106,Y,"Owego, NY 13827
(42.097588, -76.28106)"
Tioga,Owego Marketplace Farmers' Market,200-204 Front Street,200-204 Front Street,Owego,NY,13827,Janelle Malia,6077278636,http://www.owegolovesshoppers.com,Thursday  4pm-7pm,June 18-September 24,Y,M,42.10242,-76.26011,Y,"Owego, NY 13827
(42.10242, -76.26011)"
Tioga,Seven Counties Farmers' Market,"Rite Aid parking lot, 153 Main St., Owego",Main St and Central Ave,Owego,NY,13827,John Purdy,6076428439,,Tue/Fri  9am-1pm,June 12 -October 30,Y,M,42.10324,-76.26314,N,"Owego, NY 13827
(42.10324, -76.26314)"
Tioga,Spencer-Van Etten Farmers' Market,"Nichols Park Pond, across from Fire Dept., Route 34, Spencer",Owego Street Exd and N Main St,Spencer,NY,14883,Terry Carling,6075897367,,Saturday  9am-12:30pm,June 6-September 26,Y,M,42.21138,-76.49267,Y,"Spencer, NY 14883
(42.21138, -76.49267)"
Tioga,Waverly Farmers' Market,Muldoon Park on Pennsylvania Ave.,Pennsylvania Ave and Park Ave,Waverly,NY,14892,Teresa Bishop,6079727553,https://www.facebook.com/WaverlyFarmersMarketMonday/timeline?ref=page_internal,Monday  3:30pm-6:30pm,June 22-October 12,Y,M,42.00483,-76.53661,Y,"Waverly, NY 14892
(42.00483, -76.53661)"
Tompkins,Caroline Farmers' Market,"Brooktondale Community Center, 522 Valley Rd., Brooktondale",522 Valley Rd,Brooktondale,NY,14817,Tammy Longabaugh,6075396057,http://bccmarket.wordpress.com,Saturday  10am-2pm,May 2-October 31,Y,P/M,42.38322,-76.37118,Y,"Brooktondale, NY 14817
(42.38322, -76.37118)"
Tompkins,Groton Youth Market,"Center Village Court Senior Apts., 200 W South St. (Rt. 38)",200 South St,Groton,NY,13073,Avi Miner,6072275173,http://www.visitithaca.com/attractions/groton-farmers-market-269,Tuesday  3:30pm-6:30pm,July 7-September 15,Y,M,42.58532,-76.36848,Y,"Groton, NY 13073
(42.58532, -76.36848)"
Tompkins,Ithaca Farmers' Market (Dewitt Park),"Dewitt Park, N. Cayuga & E. Buffalo Sts.",North Cayuga St and East Buffalo St,Ithaca,NY,14850,Aaron Munzer,6072737109,http://www.ithacamarket.com,Tuesday  9am-2pm,May 5-October 27,Y,P/M,42.44131,-76.49911,Y,"Ithaca, NY 14850
(42.44131, -76.49911)"
Tompkins,Ithaca Farmers' Market (East Hill),"East Hill Plaza, 380 Pine Tree Rd",380 Pine Tree Road,Ithaca,NY,14850,Aaron Munzer,6072737109,http://www.ithacamarket.com,Wednesday  4pm-7pm,June 3-October 28,Y,M,42.43837,-76.46638,Y,"Ithaca, NY 14850
(42.43837, -76.46638)"
Tompkins,Ithaca Farmers' Market (Hancock St),"210 Hancock Street, Neighborhood Pride parking lot",210 Hancock Street,Ithaca,NY,14850,Aaron Munzer,6072737109,http://www.ithacamarket.com,Thursday  4pm-7pm,June 4-October 29,Y,M,42.44826,-76.50299,Y,"Ithaca, NY 14850
(42.44826, -76.50299)"
Tompkins,Ithaca Farmers' Market (Steamboat),"Steamboat Landing, 545 Third St. off Rt. 13",545 Third Street,Ithaca,NY,14850,Aaron Munzer,6072737109,http://www.ithacamarket.com,"Saturday  9am-3pm, Sunday  10am-3pm, Tuesday  9am-2pm, Wed/Thu  4pm-7pm",April 14-December 19,Y,P/M/X,42.45098,-76.5073,Y,"Ithaca, NY 14850
(42.45098, -76.5073)"
Tompkins,Trumansburg Farmers' Market,"Village Park, Intersection of Routes 96 & 227",State Route 96 and State Route 227,Trumansburg,NY,14886,Avi Miner,6072275173,http://www.tburgfarmersmarket.com,Wednesday  4pm-7pm,May 13-October 28,Y,P/M,42.54224,-76.66579,Y,"Trumansburg, NY 14886
(42.54224, -76.66579)"
Ulster,Gardiner Farmers' Market,"On the Rail Trail, Main Street, near Pasquale's Restaurant",5 Station Square,Gardiner,NY,12525,Korey Findley,8452194174,,Friday  2pm-7pm,May 6-October 10,N,P/M,41.680174,-74.152271,N,"Gardiner, NY 12525
(41.680174, -74.152271)"
Ulster,Heart of the Hudson Valley Farmers' Market,"Cluett-Schantz Memorial Park, 1801-1805 Rt 9W, Milton",Cluett-Schantz Memorial Park,Milton,NY,12547,Sheila Mannese,8456167824,http://www.hhvfarmersmarket.com,Saturday  9am-2pm,June 27-October 17,Y,M,41.65383,-73.964683,N,"Milton, NY 12547
(41.65383, -73.964683)"
Ulster,Kingston Uptown Farmers' Market,"Wall St., btwn Main & John Sts.,, heart of Old Town Stockade district",Wall St and John St,Kingston,NY,12401,Katy Kondrat,3477217386,http://www.kingstonfarmersmarket.org,Saturday  9am-2pm,May 23-November 21,Y,P/M,41.93384,-74.01968,Y,"Kingston, NY 12401
(41.93384, -74.01968)"
Ulster,Kingston WINTER Farmers' Market,"Bethany Hall, Old Dutch Church, 272 Wall Street, corner Wall & Main St.",272 Wall Street,Kingston,NY,12401,Katy Kondrat,3477217386,http://www.kingstonfarmersmarket.org,1st & 3rd Saturday  10am - 2pm,December 5-April 16,N,X/W/P,41.93286,-74.01884,Y,"Kingston, NY 12401
(41.93286, -74.01884)"
Ulster,Kingston YMCA Farm Proj. MM-Benedictine Hosp.,"Health Alliance of the Hudson Valley, 80 Mary's Ave",80 Marys Ave,Kingston,NY,12401,Kaycee Wimbish,8453322927,http://www.kingstonymcafarmproject.org,Tuesday  4pm-4:45pm,June 16-September 22,Y,M,41.922141,-73.998347,Y,"Kingston, NY 12401
(41.922141, -73.998347)"
Ulster,Kingston YMCA Farm Proj. MM Yosman Towers,"Yosman Towers, 295 Broadway",295 Broadway,Kingston,NY,12401,Kaycee Wimbish,8453322927,http://www.kingstonymcafarmproject.org,Tuesday  5pm-5:45pm,June 16-September 22,Y,M,41.92463,-73.99039,Y,"Kingston, NY 12401
(41.92463, -73.99039)"
Ulster,Kingston YMCA Farm Proj. Mobile Mkt Library,"Kingston Public Library, 55 Franklin St.",55 Franklin Street,Kingston,NY,12401,Kaycee Wimbish,8453322927,http://www.kingstonymcafarmproject.org,Tuesday  6pm-6:45pm,June 16-September 22,Y,M,41.92979,-74.01071,Y,"Kingston, NY 12401
(41.92979, -74.01071)"
Ulster,Kingston YMCA Farm Stand,507 Broadway,507 Broadway,Kingston,NY,12401,Kaycee Wimbish,8453322927,http://www.kingstonymcafarmproject.org,Thursday  4pm-7pm,June 18-October 15,Y,M,41.92776,-74.00109,Y,"Kingston, NY 12401
(41.92776, -74.00109)"
Ulster,Saugerties Farmers' Market,"Cahill School Parking Lot, 115 Main St.",115 Main St,Saugerties,NY,12477,Barry Benepe,8452466491,,Saturday  10am-2pm,May 30-October 31,Y,P/M,42.07899,-73.94896,Y,"Saugerties, NY 12477
(42.07899, -73.94896)"
Ulster,Saugerties WINTER Farmers' Market,Market Street,207 Market Street,Saugerties,NY,12477,Lanny Walter,8452464668,,Saturday 10am-2pm monthly,November-December,Y,M/X,42.08426,-73.95503,Y,"Saugerties, NY 12477
(42.08426, -73.95503)"
Ulster,South Pine City Farmstand,"South Pine St., South of Greenkill Ave., Kingston",South Pine Street,Kingston,NY,12401,Patricia Hawkins,8453314097,,Mon/Wed/Fri  3pm-7pm,May 28-Oct 31,Y,P/M,41.9237,-74.01066,N,"Kingston, NY 12401
(41.9237, -74.01066)"
Ulster,Woodstock Farm Festival Farmers' Market,6 Maple Lane,6 Maple Ln,Woodstock,NY,12498,Megan Reynolds,8459015970,http://www.woodstockfarmfestival.com,Wed  3:30pm-7:30pm,May 27-October 21,Y,P/M,42.04018,-74.11797,Y,"Woodstock, NY 12498
(42.04018, -74.11797)"
Warren,Bolton Landing Farmers' Market,"Blessed Sacrament Church, 7 Goodman Ave., off Lake Shore Dr.",7 Goodman Ave,Bolton,NY,12814,Diane Burk,5186443166,http://www.boltonlandingfarmersmarket.com,Friday 9am - 2pm,June - September,N,M,43.556405,-73.656326,Y,"Bolton, NY 12814
(43.556405, -73.656326)"
Warren,Glens Falls Farmers' Market,South Street Market Pavilion,25 South Street,Glens Falls,NY,12801,Richard Sandora,5187920438,http://www.gffma.com,Saturday  8am-12pm,May 2-October 31,Y,P/M,43.3099,-73.64699,Y,"Glens Falls, NY 12801
(43.3099, -73.64699)"
Warren,Glens Falls WINTER Farmers' Market,"Sanford St. School, 10 Sanford St.",10 Sanford Street,Glens Falls,NY,12801,Richard Sandora,5187920438,http://www.glensfallsfarmersmarket.com,Saturday  9am-12pm,November 7-April,Y,X/W/P,43.3173,-73.65347,Y,"Glens Falls, NY 12801
(43.3173, -73.65347)"
Warren,Warrensburgh Riverfront Farmers' Market,"Warrenburgh Mills Historic District, Rt 418 (River St.), near Curtis Lumber",River St and Commercial St,Warrensburg,NY,12885,Teresa Whalen,5184665497,http://www.localharvest.org/warrensburgh-riverfront-farmers-market-M22857,Friday  3pm-6pm,May 22-October 30,Y,P/M,43.48906,-73.77828,N,"Warrensburg, NY 12885
(43.48906, -73.77828)"
Washington,Cambridge Farmers' Market,"Behind Hubbard Hall at the Lovejoy bldg, 4 West Main St.",4 West Main Street,Cambridge,NY,12816,Sarah Ashton,5182227191,https://www.facebook.com/pages/Cambridge-Farmers-Market/228215317663?sk=timeline&ref=page_internal,Sunday  10am-2pm,May 24-November 1,Y,P/M,43.02848,-73.38146,N,"Cambridge, NY 12816
(43.02848, -73.38146)"
Washington,Fort Edward Farmers' Market,"Broadway Lanes, 359 Broadway, Route 4",359 Broadway,Fort Edward,NY,12828,Linda Gifford,5187920198,,Friday  10am-1pm,June 5-October 30,Y,M,43.28393,-73.58721,N,"Fort Edward, NY 12828
(43.28393, -73.58721)"
Washington,Granville Rt. 22 Farmers' Market,"Quacker St., Big Lots",70 Quacker St,Granville,NY,12832,Cyd Groff,5186421653,,Monday  2pm-6pm,May 30-October 31,Y,P/M,43.39979,-73.2656,Y,"Granville, NY 12832
(43.39979, -73.2656)"
Washington,Greenwich Farmers' Market,"70 Main St., Parking lot",70 Main Street,Greenwich,NY,12834,Julie Callahan,5189447149,http://www.localharvest.org/greenwich-farmers-market-at-70-main-M44584,Wednesday  3pm-6pm,Year-round,Y,YR,43.08931,-73.49854,N,"Greenwich, NY 12834
(43.08931, -73.49854)"
Washington,Hudson Falls Farmers' Market,"Sutherland Pet Store, 1161 Dix Ave.",1161 Dix Ave,Hudson Falls,NY,12839,Linda Gifford,5187920198,,Tuesday  10am-1pm,June 2-October 27,Y,M,43.32024,-73.58262,N,"Hudson Falls, NY 12839
(43.32024, -73.58262)"
Washington,Salem Rt. 22 Farmers' Market,"Village Park, Rt. 22",Route 22 and Park Drive,Salem,NY,12865,Cyd Groff,5186421653,,Saturday  10am-1pm,May 23-October 31,Y,P/M,43.17322,-73.32837,Y,"Salem, NY 12865
(43.17322, -73.32837)"
Washington,Whitehall Rt. 22 Farmers' Market,"Canal Park on Boulevard, near Gazebo",Route 22 and Poultney Street,Whitehall,NY,12887,Cyd Groff,5186421653,,Tuesday  11am-2pm,May 26-October 27,Y,P/M,43.54858,-73.4054,Y,"Whitehall, NY 12887
(43.54858, -73.4054)"
Wayne,Foodlink MM-Newark Wayne Comm. Hospital,"1200 Driving Park Ave., Newark",1200 Driving Park Ave,Newark,NY,14513,Mitch Gruber,5853283380,http://www.foodlinkny.org,Tuesday  11:15am-12pm,July 7-December 1,Y,M/X,43.05973,-77.10224,Y,"Newark, NY 14513
(43.05973, -77.10224)"
Wayne,Ginegaw Farmers' Market,"Ginegaw Park, 3600 Lorraine Drive, Walworth",3600 Lorraine Drive,Walworth,NY,14568,Jacqueline VanLare,3159861400,,Tuesday  3pm-6pm,June 16-October 13,Y,M,43.13404,-77.28888,Y,"Walworth, NY 14568
(43.13404, -77.28888)"
Wayne,Lyons Farmers' Market,"Village Square, Church St.",Church St and William St,Lyons,NY,14489,Theresa Streb,3159469262,http://www.lyonsny.com/farmers-market,Saturday  7:30am-11am,June 13-October 24,Y,M,43.06336,-76.99243,N,"Lyons, NY 14489
(43.06336, -76.99243)"
Wayne,Macedon Farmers' Market,32 Main St. Rt 31,32 Main St,Macedon,NY,14502,William Hammond,3159865932,http://www.macedontown.net,Wed  3:30pm-6:30pm,June 17-October 14,Y,M,43.06681,-77.30581,N,"Macedon, NY 14502
(43.06681, -77.30581)"
Wayne,Newark Farmers' Market,"Central Park, Church Street",Church St and South Main St,Newark,NY,14513,Jessica Wells,3153319129,http://www.facebook.com/newarkfarmersmarket,Thursday  2:30pm-6pm,June 4-October 15,Y,M,43.04468,-77.09522,Y,"Newark, NY 14513
(43.04468, -77.09522)"
Wayne,Sodus Farmers' Market,"Sodus Methodist Church parking lot, 58 W. Main St.",58 West Main St,Sodus,NY,14551,Sandy Hall,3154838029,,Wednesday  2:30pm-6pm,June 10-October 7,Y,M,43.23615,-77.06587,Y,"Sodus, NY 14551
(43.23615, -77.06587)"
Wayne,The Apple Shed,"3391 Fairville Maple Ridge Rd., Newark",3391 Fairville Maple Ridge Rd,Newark,NY,14513,Jessica Wells,3153316294,http://www.theappleshed.com,Daily  10am-5pm,June 15-December 23,Y,M/X,43.12916,-77.09792,Y,"Newark, NY 14513
(43.12916, -77.09792)"
Wayne,Wolcott Area Farmers' Market,"Northup Park, New Hartford St., Wolcott",Washington Street and New Hartford Street,Wolcott,NY,14590,Juli Bixby,5854025866,,Thursday  2pm-6pm,June 11-October 8,Y,M,43.21855,-76.81491,Y,"Wolcott, NY 14590
(43.21855, -76.81491)"
Westchester,Bowen Farmstand,"14 N Columbus Ave., Mt. Vernon","14 North Columbus Ave.,",Mount Vernon,NY,10553,Ruth Crosby,9144821749,,"Tue-Fri  10am-6pm, Saturday  9am-6pm",June 1-November 30,Y,M,40.9125,-73.82372,Y,"Mount Vernon, NY 10553
(40.9125, -73.82372)"
Westchester,Bronxville Farmers' Market,Stone Place at Paxton Ave.,1 Stone Pl,Bronxville,NY,10708,Mary Liz Mulligan,9147792522,http://www.bronxvillefarmersmarket.com,Saturday  8:30am-1pm,May 9-November 21,Y,P/M,40.940005,-73.837776,N,"Bronxville, NY 10708
(40.940005, -73.837776)"
Westchester,Croton on Hudson Farmers' Market,"southside of parking lot at Municipal bldg, 1 VanWyck St.",Municipal Pl and Riverside Ave,Croton-on-Hudson,NY,10520,Dagmar Kostkova,9149234837,http://www.downtoearthmarkets.com,Sunday  9am-2pm,May 31-December 20,Y,P/M,41.20211,-73.88717,N,"Croton-on-Hudson, NY 10520
(41.20211, -73.88717)"
Westchester,Dobbs Ferry Farmstand,Cedar & Main Sts.,Cedar St and Main St,Dobbs Ferry,NY,10522,Carol Avila,9145575179,,Friday  9:30am-4pm,June 5-November 20,Y,M,41.01628,-73.87365,N,"Dobbs Ferry, NY 10522
(41.01628, -73.87365)"
Westchester,Hartsdale Farmstand,"Hartsdale Train Station, East Hartsdale Ave.",East Hartsdale Ave and Fenimore Rd,Hartsdale,NY,10530,Carol Avila,9145575179,,Saturday  8am-3pm,June 6-November 21,Y,M,41.01072,-73.79656,N,"Hartsdale, NY 10530
(41.01072, -73.79656)"
Westchester,Harvest Home Mt. Vernon Farmers' Market,"City Hall Plaza, One Roosevelt Square",1 Roosevelt Square,Mount Vernon,NY,10550,Maritza Owens,2128283361,http://www.harvesthomefm.org,Thursday  8am-4pm,July 9-November 19,Y,M,40.91227,-73.83896,Y,"Mount Vernon, NY 10550
(40.91227, -73.83896)"
Westchester,Hudson Valley Hospital Farmers' Market,"1980 Crompond Rd., Cortlandt Manor",1980 Crompond Rd.,Cortland,NY,10567,Michael Bulger,9147343780,,"Bi-monthly, Tue  11-4",May 12-November 24,Y,P/M,41.29265,-73.89242,N,"Cortland, NY 10567
(41.29265, -73.89242)"
Westchester,Irvington Farmers' Market,"School parking lot, 110 Main St.",110 Main St,Irvington,NY,10533,Pascale Le Draoulec,9148063380,http://irvingtonfarmersmarket.net/,Sunday  9am-2pm,May31-Late October,N,M,41.039046,-73.866942,N,"Irvington, NY 10533
(41.039046, -73.866942)"
Westchester,John Jay Homestead Farmers' Market,"400 Jay St., Katonah",400 Jay St.,Katonah,NY,10536,Heather Iannucci,9142325651,http://www.johnjayhomestead.org,Saturday  9am-1pm,June 13-October 31,Y,M,41.250721,-73.660218,N,"Katonah, NY 10536
(41.250721, -73.660218)"
Westchester,Larchmont Farmers' Market,"Metro North pkng lot, Chatsworth Ave., enter Myrtle Blvd",Chatsworth Ave and North Ave,Larchmont,NY,10538,Dagmar Kostkova,9149234837,http://www.downtoearthmarkets.com,Saturday  8:30am-1pm,May 9-December 19,Y,P/M/X,40.93321,-73.75965,N,"Larchmont, NY 10538
(40.93321, -73.75965)"
Westchester,New Rochelle Downtown Market,"1 Library Green, 1 Lawton St",Library Green,New Rochelle,NY,10801,Bo Kemp,9177446456,http://www.newrochellefarmersmarket.com,Saturday  9am-2pm,May 30-October 31,Y,P/M,40.91014,-73.78299,Y,"New Rochelle, NY 10801
(40.91014, -73.78299)"
Westchester,New Rochelle Farmers' Market,"Huguenot Park/Twin Lakes, North Ave. next to Children's Library",794 North Ave,New Rochelle,NY,10801,Dagmar Kostkova,9149234837,http://www.downtoearthmarkets.com,Friday  8:30am-2:30pm,June 5-November 20,Y,M,40.928493,-73.789882,Y,"New Rochelle, NY 10801
(40.928493, -73.789882)"
Westchester,Ossining Farmers' Market,"Main & Spring Sts., Village Center",Main St and Spring St,Ossining,NY,10562,Dagmar Kostkova,9149234837,http://www.downtoearthmarkets.com,Saturday 8:30am-1pm,April 4-December 26,Y,P/M/X,41.16104,-73.86352,Y,"Ossining, NY 10562
(41.16104, -73.86352)"
Westchester,Peekskill Farmers' Market,"Bank St., Downtown Peekskill",Main St and Bank St,Peekskill,NY,10566,Corinna Makris,9144184920,http://www.peekskillfarmersmarket.com,Saturday  8am-2pm,June 6-November 21,Y,M,41.29179,-73.91906,N,"Peekskill, NY 10566
(41.29179, -73.91906)"
Westchester,Peekskill WINTER Farmers Market,"Indoors at the Field Library, 4 Nelson Ave., Peekskill NY",4 Nelson Ave,Peekskill,NY,10566,Corinna Makris,9144184920,http://www.peeksillfarmersmarket.com,Saturday  10am-2pm,January10-April 25,N,X/P,41.29106,-73.92264,N,"Peekskill, NY 10566
(41.29106, -73.92264)"
Westchester,Pleasantville Farmers' Market,"Memorial Plaza parking lot, off Manville Rd., next to Train Station",Manville Rd and Wheeler Ave,Pleasantville,NY,10570,Steven Bates,9142054545,http://www.pleasantvillefarmersmarket.org,Saturday  8:30am-1pm,May 23-November 21,Y,P/M,41.13526,-73.79218,Y,"Pleasantville, NY 10570
(41.13526, -73.79218)"
Westchester,Rye Farmers' Market,"Parking lot on Theodore Freud Ave., Behind Purchase Street Stores",Theodore Fremd Ave and Purchase St,Rye,NY,10580,Dagmar Kostkova,9149234837,http://www.downtoearthmarkets.com,Sunday  8:30am-2pm,May 24-December 6,Y,P/M/X,40.98485,-73.68464,N,"Rye, NY 10580
(40.98485, -73.68464)"
Westchester,Saint John's Church - Yonkers Farmers' Market,"Church Courtyard, One Hudson St.",1 Hudson St,Yonkers,NY,10701,Father John Hamilton,9145128156,,Thursday  7am-5pm,July 9-November 19,Y,M,40.93364,-73.89879,N,"Yonkers, NY 10701
(40.93364, -73.89879)"
Westchester,Saw Mill River Youth Market,"Van der Donck Park, Dock St, Larkin Plaza",Nepperhan St and Market Place,Yonkers,NY,10705,Curt Collier,9143752151,http://www.groundworkhv.org,Friday  12pm-5pm,June 5-October 30,Y,M,40.93523,-73.90136,Y,"Yonkers, NY 10705
(40.93523, -73.90136)"
Westchester,Tarrytown and Sleepy Hollow Farmers' Market,"Patriots Park, Rt 9",Phelps Memorial Hospital,Sleepy Hollow,NY,10591,Suzanne Sorrentino,9142551574,,Saturday  8:30am-2pm,May 23-November 21,Y,P/M,41.08236,-73.85901,Y,"Sleepy Hollow, NY 10591
(41.08236, -73.85901)"
Westchester,White Plains (International) Farmers' Market,"125 Court St., btwn Martine Ave. & Main St.",125 Court St,White Plains,NY,10601,Johanna Safar,9143181067,http://www.bensidounusa.com,Wednesday  8am-4pm,April 29-November 25,Y,P/M,41.02952,-73.7663,N,"White Plains, NY 10601
(41.02952, -73.7663)"
Wyoming,Artisan Villa Farmers' Market,"140 North Main St., Warsaw",140 North Main Street,Warsaw,NY,14569,Lisa Seewaldt,5857868766,https://www.facebook.com/pages/Farm-Artisan-Market-at-the-Villa/590415804387690?sk=timeline&ref=page_internal,Thursday  3pm-7pm,May 28-September 24,Y,P/M,42.74314,-78.13162,N,"Warsaw, NY 14569
(42.74314, -78.13162)"
Wyoming,Perry Farmers' Market,"Perry Festival Plaza, S. Main Street, Downtown Perry",Main St and Borden Ave,Perry,NY,14530,Rick Hauser,5859696006,http://www.perryfarmersmarket.com,Saturday  8:30am-12:30pm,June 20-September 26,Y,M,42.71842,-78.00218,N,"Perry, NY 14530
(42.71842, -78.00218)"
Wyoming,Warsaw Farmers' Market,"Full Gospel Church parking lot, 2444 N. Main St.",2456-2444 New York State Bicycle Route 19,Warsaw,NY,14569,Patricia Reiter,5855911358,,Thursday  12pm-4pm,July 9-October 15,Y,M,42.76344,-78.13047,N,"Warsaw, NY 14569
(42.76344, -78.13047)"
Yates,The Windmill Farmers' Market,"3900 Route 14A at Hobson Road, in Penn Yan",3900 State Route 14A,Penn Yan,NY,14527,Juanita Dombroski,3155363032,http://www.thewindmill.com,Saturday  8am-4:30pm,April 25-December 12,Y,P/M/X,42.57687,-77.03609,N,"Penn Yan, NY 14527
(42.57687, -77.03609)"
Yates,Yates Co. Co-op Farm & Craft Market,"Main St. north of Elm St., on sidewalk, Penn Yan",Main St and Elm St,Penn Yan,NY,14527,Rivka Davis,6072435234,http://facebook.com/PennYan.Farmers.Market,Saturday  7:30am-12pm,May 30-October 10,Y,P/M,42.66095,-77.05365,N,"Penn Yan, NY 14527
(42.66095, -77.05365)"
